{"type":"FeatureCollection","features":[{"id":"0","type":"Feature","properties":{},"geometry":{"type":"MultiLineString","coordinates":[[[24.64976,60.1519],[24.64542,60.15352],[24.63592,60.15566]],[[24.6368,60.15524],[24.64762,60.15252]],[[24.64762,60.15252],[24.65636,60.14837],[24.65891,60.1451],[24.66058,60.14369],[24.66303,60.14267],[24.66582,60.14209]],[[24.64976,60.1519],[24.64762,60.15252]],[[24.66591,60.14227],[24.6609,60.14377],[24.65709,60.14816],[24.64976,60.1519]],[[24.65598,60.15242],[24.65367,60.15164],[24.64976,60.1519]],[[24.6564,60.15267],[24.65598,60.15242]],[[24.6563,60.15269],[24.65598,60.15242]],[[24.65601,60.15283],[24.6567,60.154]],[[24.66627,60.20708],[24.65615,60.2051]],[[24.66378,60.20655],[24.65619,60.20506]],[[24.66209,60.20612],[24.65628,60.20495]],[[24.66023,60.15592],[24.6563,60.15269]],[[24.65646,60.15289],[24.6563,60.15269]],[[24.66209,60.20612],[24.65634,60.20491]],[[24.66044,60.15586],[24.6564,60.15267]],[[24.66034,60.15589],[24.6564,60.15267]],[[24.66013,60.15595],[24.65646,60.15289]],[[24.66003,60.15598],[24.65646,60.15289]],[[24.65924,60.15623],[24.65651,60.15402]],[[24.6567,60.154],[24.65896,60.15563]],[[24.6567,60.154],[24.65881,60.15568]],[[24.66272,60.20629],[24.66209,60.20612]],[[24.66353,60.20646],[24.66272,60.20629]],[[24.66378,60.20655],[24.66272,60.20629]],[[24.66419,60.20664],[24.66378,60.20655]],[[24.72599,60.21143],[24.72081,60.21056],[24.71276,60.20752],[24.7107,60.20698],[24.70851,60.20669],[24.70684,60.20661],[24.70554,60.20664],[24.69708,60.20734],[24.68592,60.20606],[24.68434,60.20596],[24.68277,60.20596],[24.68072,60.20611],[24.6793,60.20633],[24.67481,60.20739],[24.6717,60.20766],[24.66419,60.20664]],[[24.66419,60.20664],[24.66627,60.20708]],[[24.66582,60.14209],[24.66824,60.14171]],[[24.66582,60.14209],[24.66712,60.14198]],[[24.66591,60.14227],[24.66712,60.14198]],[[24.66844,60.14186],[24.66591,60.14227]],[[24.72691,60.21157],[24.72364,60.2112],[24.72077,60.2106],[24.7085,60.20672],[24.69707,60.20738],[24.68356,60.20599],[24.6798,60.20628],[24.67521,60.20736],[24.6726,60.20767],[24.67091,60.20769],[24.66954,60.20761],[24.66627,60.20708]],[[24.66712,60.14198],[24.66824,60.14171]],[[24.66712,60.14198],[24.66844,60.14186]],[[24.66824,60.14171],[24.67292,60.14101],[24.67772,60.14119],[24.68163,60.1422],[24.68439,60.14452]],[[24.68403,60.14459],[24.68127,60.14229],[24.67772,60.14136],[24.66844,60.14186]],[[24.68403,60.14459],[24.68476,60.14524]],[[24.68513,60.14594],[24.68403,60.14459]],[[24.68439,60.14452],[24.68549,60.14588]],[[24.68476,60.14524],[24.68439,60.14452]],[[24.68476,60.14524],[24.68549,60.14588]],[[24.68513,60.14594],[24.68476,60.14524]],[[24.70083,60.15195],[24.69654,60.15165],[24.69303,60.15076],[24.68761,60.14805],[24.68513,60.14594]],[[24.68549,60.14588],[24.69347,60.15071],[24.70087,60.15178]],[[24.70342,60.15205],[24.70083,60.15195]],[[24.70217,60.15191],[24.70083,60.15195]],[[24.70087,60.15178],[24.70347,60.15187]],[[24.70087,60.15178],[24.70217,60.15191]],[[24.70217,60.15191],[24.70342,60.15205]],[[24.70347,60.15187],[24.70217,60.15191]],[[24.7292,60.15767],[24.70994,60.15271],[24.70342,60.15205]],[[24.70347,60.15187],[24.71007,60.15256],[24.72935,60.15754]],[[24.74009,60.21278],[24.72599,60.21143]],[[24.72691,60.21157],[24.72599,60.21143]],[[24.73867,60.21269],[24.72691,60.21157]],[[24.7292,60.15767],[24.73036,60.15784]],[[24.73132,60.15812],[24.7292,60.15767]],[[24.72935,60.15754],[24.73142,60.15798]],[[24.73036,60.15784],[24.72935,60.15754]],[[24.73036,60.15784],[24.73142,60.15798]],[[24.73132,60.15812],[24.73036,60.15784]],[[24.73494,60.15889],[24.73132,60.15812]],[[24.73142,60.15798],[24.73507,60.15874]],[[24.73611,60.15905],[24.73494,60.15889]],[[24.73714,60.15936],[24.73494,60.15889]],[[24.73507,60.15874],[24.73727,60.15921]],[[24.73507,60.15874],[24.73611,60.15905]],[[24.73727,60.15921],[24.73611,60.15905]],[[24.73611,60.15905],[24.73714,60.15936]],[[24.7408,60.16012],[24.73714,60.15936]],[[24.73727,60.15921],[24.74093,60.15999]],[[24.73867,60.21269],[24.73821,60.21266]],[[24.73892,60.21271],[24.73867,60.21269]],[[24.74009,60.21278],[24.73892,60.21271]],[[24.80018,60.21937],[24.79546,60.21922],[24.7921,60.21899],[24.77574,60.21726],[24.76165,60.21717],[24.75852,60.217],[24.75594,60.21663],[24.75346,60.21607],[24.74584,60.21364],[24.73892,60.21271]],[[24.79842,60.21927],[24.77574,60.21722],[24.75771,60.21686],[24.74586,60.2136],[24.74009,60.21278]],[[24.7408,60.16012],[24.7423,60.16036]],[[24.74365,60.16073],[24.7408,60.16012]],[[24.74093,60.15999],[24.74376,60.16058]],[[24.7423,60.16036],[24.74093,60.15999]],[[24.7423,60.16036],[24.74376,60.16058]],[[24.74365,60.16073],[24.7423,60.16036]],[[24.78544,60.17459],[24.77583,60.17462],[24.77134,60.17383],[24.75723,60.16801],[24.74896,60.16224],[24.74365,60.16073]],[[24.74376,60.16058],[24.74904,60.16206],[24.75748,60.1679],[24.77082,60.17343],[24.783,60.17445]],[[24.76143,60.27928],[24.76103,60.2793]],[[24.783,60.17445],[24.78544,60.17459]],[[24.783,60.17445],[24.78908,60.17432]],[[24.78626,60.17458],[24.78544,60.17459]],[[24.78626,60.17458],[24.78908,60.17432]],[[24.80098,60.1747],[24.79729,60.17451],[24.78626,60.17458]],[[24.78908,60.17432],[24.79619,60.17407],[24.79869,60.1742],[24.80057,60.17446]],[[24.7918,60.17437],[24.79718,60.17434]],[[24.80098,60.1747],[24.79718,60.17434]],[[24.79718,60.17434],[24.80057,60.17446]],[[24.80446,60.21945],[24.79842,60.21927]],[[24.80018,60.21937],[24.79842,60.21927]],[[24.80294,60.21945],[24.80018,60.21937]],[[24.80057,60.17446],[24.80615,60.17527],[24.80847,60.17593],[24.81091,60.17735],[24.81231,60.17921]],[[24.81203,60.17925],[24.80833,60.17607],[24.80098,60.1747]],[[24.80446,60.21945],[24.80294,60.21945]],[[24.88336,60.22179],[24.8813,60.22211],[24.8792,60.22227],[24.87022,60.2221],[24.85754,60.22376],[24.85547,60.22391],[24.85354,60.22391],[24.85063,60.22367],[24.84791,60.22315],[24.84578,60.2225],[24.83829,60.21959],[24.83275,60.21859],[24.81076,60.21963],[24.80294,60.21945]],[[24.80579,60.21949],[24.80446,60.21945]],[[24.80797,60.2195],[24.80579,60.21949]],[[24.88348,60.22172],[24.88128,60.22208],[24.87919,60.22222],[24.8702,60.22206],[24.85752,60.22372],[24.85546,60.22387],[24.85355,60.22387],[24.85064,60.22363],[24.84794,60.22311],[24.84582,60.22246],[24.83832,60.21956],[24.83277,60.21855],[24.81153,60.21955],[24.80579,60.21949]],[[24.82079,60.21886],[24.81077,60.21946],[24.80951,60.2195],[24.80904,60.2195],[24.80797,60.2195]],[[24.81825,60.21896],[24.80797,60.2195]],[[24.8114,60.2161],[24.8113,60.2159]],[[24.86378,60.21951],[24.86129,60.22043],[24.86007,60.22077],[24.85838,60.221],[24.8574,60.22104],[24.85638,60.22102],[24.85116,60.22058],[24.84989,60.22036],[24.84908,60.22008],[24.84859,60.21984],[24.84604,60.21821],[24.83575,60.2179],[24.83499,60.21775],[24.83323,60.21706],[24.83176,60.21693],[24.82634,60.2173],[24.82007,60.21742],[24.81745,60.2188],[24.81695,60.21888],[24.81426,60.21906],[24.81393,60.21898],[24.8138,60.21883],[24.8137,60.21744],[24.81335,60.21728],[24.81206,60.21706],[24.8117,60.21692],[24.81148,60.2167],[24.8113,60.2159]],[[24.8113,60.2159],[24.81117,60.21475],[24.81011,60.21361],[24.81006,60.2133],[24.81037,60.21298],[24.8124,60.21195],[24.81273,60.21117],[24.8087,60.20736],[24.80841,60.20655],[24.80849,60.20508],[24.80871,60.20488],[24.80913,60.20475],[24.8137,60.20429],[24.8148,60.20312],[24.80838,60.19828],[24.80779,60.19767],[24.80741,60.1971],[24.80712,60.19608],[24.80706,60.19312],[24.80717,60.19226],[24.80766,60.19037],[24.80816,60.18986],[24.8098,60.18899],[24.81026,60.18773],[24.81062,60.18749],[24.81861,60.18672],[24.82555,60.18617],[24.82636,60.18477],[24.82796,60.18416],[24.82906,60.18396]],[[24.8114,60.2161],[24.81376,60.21741],[24.81432,60.21903],[24.81742,60.21877],[24.81993,60.2174],[24.83187,60.2169],[24.83326,60.21703],[24.83587,60.21788],[24.84606,60.21818],[24.84991,60.22032],[24.85637,60.22099],[24.86411,60.21936]],[[24.82878,60.18403],[24.82642,60.18479],[24.8257,60.18618],[24.81066,60.18751],[24.80987,60.18899],[24.80775,60.19033],[24.80747,60.19709],[24.81487,60.20312],[24.81375,60.20432],[24.80857,60.20509],[24.80879,60.20735],[24.81279,60.21117],[24.81245,60.21197],[24.81013,60.21331],[24.81123,60.21475],[24.8114,60.2161]],[[24.81203,60.17925],[24.81258,60.17989]],[[24.81282,60.18052],[24.81203,60.17925]],[[24.81231,60.17921],[24.81311,60.18048]],[[24.81258,60.17989],[24.81231,60.17921]],[[24.81258,60.17989],[24.81311,60.18048]],[[24.81282,60.18052],[24.81258,60.17989]],[[24.83217,60.17859],[24.83298,60.18057],[24.83205,60.18228],[24.82943,60.18376],[24.82608,60.18442],[24.82062,60.18462],[24.81705,60.18405],[24.81434,60.18262],[24.81282,60.18052]],[[24.81311,60.18048],[24.8146,60.18255],[24.81713,60.18388],[24.8262,60.18424],[24.83197,60.18192],[24.83261,60.18027],[24.83164,60.17837]],[[24.82348,60.21864],[24.81825,60.21896]],[[24.82079,60.21886],[24.81825,60.21896]],[[24.82103,60.21885],[24.82079,60.21886]],[[24.82348,60.21864],[24.82103,60.21885]],[[24.88365,60.22162],[24.87916,60.22215],[24.87019,60.22202],[24.85751,60.22368],[24.85546,60.22383],[24.85308,60.22381],[24.85025,60.22353],[24.8473,60.22289],[24.83933,60.21981],[24.83762,60.2193],[24.8354,60.21882],[24.83281,60.21849],[24.82982,60.21837],[24.82103,60.21885]],[[24.88647,60.22045],[24.88023,60.22193],[24.87016,60.22195],[24.85356,60.22378],[24.84803,60.22301],[24.83944,60.21973],[24.83539,60.21877],[24.83355,60.21852],[24.83064,60.21833],[24.82348,60.21864]],[[24.82878,60.18403],[24.82906,60.18396]],[[24.83212,60.17853],[24.83467,60.1794],[24.83493,60.17959],[24.83495,60.17982],[24.83367,60.18181],[24.83324,60.18222],[24.83152,60.18317],[24.83046,60.18369],[24.82994,60.18384],[24.82878,60.18403]],[[24.82906,60.18396],[24.83328,60.18214],[24.83487,60.17985],[24.83217,60.17859]],[[24.82986,60.17631],[24.8304,60.17672]],[[24.83062,60.17717],[24.82986,60.17631]],[[24.82986,60.17631],[24.82777,60.17387],[24.82697,60.17223],[24.82724,60.17065],[24.8289,60.16883],[24.83301,60.16717],[24.84648,60.16476]],[[24.83019,60.17625],[24.83079,60.17696]],[[24.8304,60.17672],[24.83019,60.17625]],[[24.84894,60.16451],[24.83354,60.16724],[24.82947,60.16883],[24.82739,60.17217],[24.83019,60.17625]],[[24.8304,60.17672],[24.83077,60.17699]],[[24.83062,60.17717],[24.8304,60.17672]],[[24.83063,60.17719],[24.83062,60.17717]],[[24.8309,60.17804],[24.83052,60.17785],[24.83036,60.17766],[24.83062,60.17717]],[[24.83062,60.17717],[24.83062,60.17717]],[[24.83063,60.17719],[24.83062,60.17717]],[[24.83062,60.17717],[24.83077,60.17699]],[[24.8307,60.17726],[24.83063,60.17719]],[[24.83159,60.1783],[24.8307,60.17726]],[[24.8307,60.17726],[24.83118,60.17812]],[[24.83086,60.17706],[24.8307,60.17726]],[[24.83077,60.17699],[24.83086,60.17706]],[[24.83077,60.17699],[24.83079,60.17696]],[[24.83079,60.17696],[24.83086,60.17705]],[[24.83079,60.17696],[24.83087,60.17686]],[[24.83086,60.17706],[24.83093,60.17712]],[[24.83086,60.17705],[24.83086,60.17706]],[[24.83086,60.17705],[24.83093,60.17712]],[[24.831,60.17689],[24.83086,60.17705]],[[24.8309,60.17804],[24.83118,60.17812]],[[24.83152,60.17831],[24.8309,60.17804]],[[24.83093,60.17712],[24.83212,60.17853]],[[24.83118,60.17812],[24.83134,60.17819]],[[24.83134,60.17819],[24.83159,60.1783]],[[24.83134,60.17819],[24.83152,60.17831]],[[24.83164,60.17837],[24.83152,60.17831]],[[24.83159,60.1783],[24.83212,60.17853]],[[24.83164,60.17837],[24.83159,60.1783]],[[24.83217,60.17859],[24.83164,60.17837]],[[24.83212,60.17853],[24.83217,60.17859]],[[24.84648,60.16476],[24.85206,60.16376]],[[24.84894,60.16451],[24.84648,60.16476]],[[24.84943,60.16442],[24.84894,60.16451]],[[24.85206,60.16376],[24.84943,60.16442]],[[24.87992,60.15976],[24.86942,60.15911],[24.86017,60.16244],[24.84943,60.16442]],[[24.85091,60.2827],[24.84851,60.28524],[24.84661,60.28786],[24.84592,60.28934],[24.84335,60.29608],[24.84236,60.2997],[24.84157,60.30601],[24.84153,60.30997],[24.84185,60.31095],[24.84226,60.3116],[24.84343,60.31274],[24.84439,60.31338],[24.84901,60.31554],[24.85546,60.31822],[24.85753,60.31876],[24.85952,60.31908],[24.86121,60.31922],[24.86324,60.31924],[24.86485,60.31914],[24.86654,60.31892],[24.86866,60.31846],[24.87721,60.31598]],[[24.85137,60.28222],[24.85091,60.2827]],[[24.85119,60.28246],[24.85091,60.2827]],[[24.85099,60.28271],[24.84627,60.28871],[24.84286,60.2982],[24.8416,60.30931],[24.84231,60.31155],[24.85416,60.31767],[24.85954,60.31904],[24.86709,60.31878],[24.8784,60.31559]],[[24.85099,60.28271],[24.85119,60.28246]],[[24.85145,60.28224],[24.85099,60.28271]],[[24.85119,60.28246],[24.85137,60.28222]],[[24.85145,60.28224],[24.85119,60.28246]],[[24.8545,60.26394],[24.85397,60.2693],[24.8522,60.27301],[24.85188,60.27425],[24.85278,60.27995],[24.85137,60.28222]],[[24.85462,60.26349],[24.85404,60.26971],[24.85199,60.27417],[24.85306,60.27982],[24.85145,60.28224]],[[24.85206,60.16376],[24.86068,60.16208],[24.86982,60.15883],[24.88002,60.1596]],[[24.85461,60.26287],[24.8545,60.26394]],[[24.85462,60.26349],[24.8545,60.26394]],[[24.85461,60.26287],[24.85464,60.26326]],[[24.8729,60.2409],[24.87078,60.24162],[24.86923,60.24231],[24.86767,60.24319],[24.86659,60.24395],[24.86508,60.24533],[24.85755,60.25323],[24.85608,60.25532],[24.85528,60.25719],[24.85498,60.25852],[24.85461,60.26287]],[[24.85464,60.26326],[24.85462,60.26349]],[[24.87363,60.24071],[24.86665,60.24397],[24.85762,60.25324],[24.85526,60.25751],[24.85464,60.26326]],[[24.86411,60.21936],[24.86378,60.21951]],[[24.8878,60.21534],[24.88467,60.21394],[24.88009,60.21402],[24.86378,60.21951]],[[24.86411,60.21936],[24.87366,60.21585],[24.88029,60.21396],[24.88194,60.21382],[24.88489,60.21394],[24.88801,60.21544]],[[24.87447,60.24038],[24.8729,60.2409]],[[24.87363,60.24071],[24.8729,60.2409]],[[24.87382,60.24065],[24.87363,60.24071]],[[24.87447,60.24038],[24.87382,60.24065]],[[24.88351,60.22176],[24.88126,60.2237],[24.88076,60.22573],[24.88496,60.23238],[24.88515,60.23379],[24.88481,60.23503],[24.8843,60.23583],[24.88349,60.23667],[24.88301,60.23706],[24.88157,60.23794],[24.87966,60.23874],[24.87382,60.24065]],[[24.88336,60.22179],[24.88118,60.22368],[24.88068,60.22573],[24.88487,60.23237],[24.88473,60.23503],[24.88149,60.23791],[24.87447,60.24038]],[[24.87449,60.31683],[24.87721,60.31598]],[[24.87721,60.31598],[24.87749,60.3159]],[[24.87749,60.3159],[24.8784,60.31559]],[[24.87749,60.3159],[24.87969,60.31526]],[[24.8784,60.31559],[24.8787,60.3155]],[[24.8787,60.3155],[24.88455,60.31368],[24.89126,60.3108],[24.89443,60.30986],[24.8989,60.30922],[24.91603,60.3086],[24.93485,60.30257],[24.93809,60.3018],[24.94119,60.30142],[24.94463,60.30135],[24.94817,60.30165],[24.95359,60.30299],[24.95858,60.30551],[24.9632,60.31002]],[[24.8787,60.3155],[24.87969,60.31526]],[[24.87969,60.31526],[24.88504,60.31355],[24.89132,60.31085],[24.8945,60.30994],[24.91621,60.30887],[24.93499,60.30271],[24.94128,60.30159],[24.94801,60.3018],[24.95343,60.30313],[24.95811,60.30546],[24.96186,60.30897]],[[24.88096,60.15986],[24.87992,60.15976]],[[24.88184,60.16011],[24.87992,60.15976]],[[24.88002,60.1596],[24.88195,60.15996]],[[24.88096,60.15986],[24.88002,60.1596]],[[24.88195,60.15996],[24.88096,60.15986]],[[24.88184,60.16011],[24.88096,60.15986]],[[24.91423,60.16328],[24.89857,60.16369],[24.88184,60.16011]],[[24.88195,60.15996],[24.89835,60.16339],[24.90882,60.16286],[24.91386,60.16298]],[[24.88348,60.22172],[24.88336,60.22179]],[[24.88351,60.22176],[24.88336,60.22179]],[[24.88365,60.22162],[24.88348,60.22172]],[[24.88366,60.22168],[24.88348,60.22172]],[[24.88366,60.22168],[24.88351,60.22176]],[[24.89271,60.21881],[24.8864,60.22103],[24.88351,60.22176]],[[24.88951,60.21959],[24.88824,60.22004],[24.88509,60.221],[24.88365,60.22162]],[[24.88385,60.22158],[24.88365,60.22162]],[[24.88385,60.22158],[24.88366,60.22168]],[[24.89255,60.21869],[24.88623,60.22095],[24.88366,60.22168]],[[24.89037,60.21943],[24.88385,60.22158]],[[24.89037,60.21943],[24.88568,60.22108],[24.88385,60.22158]],[[24.88647,60.22045],[24.88739,60.22015]],[[24.88951,60.21959],[24.88647,60.22045]],[[24.8878,60.21534],[24.88801,60.21544]],[[24.89237,60.21856],[24.8878,60.21534]],[[24.88801,60.21544],[24.89244,60.21854]],[[24.89237,60.21856],[24.88951,60.21959]],[[24.89251,60.21866],[24.89037,60.21943]],[[24.89251,60.21866],[24.89237,60.21856]],[[24.89244,60.21854],[24.89237,60.21856]],[[24.89244,60.21854],[24.89258,60.21863]],[[24.91269,60.2119],[24.90674,60.21434],[24.89991,60.21603],[24.89244,60.21854]],[[24.89255,60.21869],[24.89251,60.21866]],[[24.89258,60.21863],[24.89251,60.21866]],[[24.89271,60.21881],[24.89255,60.21869]],[[24.89263,60.21866],[24.89255,60.21869]],[[24.89258,60.21863],[24.89263,60.21866]],[[24.91363,60.21149],[24.9104,60.21304],[24.90711,60.21426],[24.89995,60.21606],[24.89258,60.21863]],[[24.89263,60.21866],[24.89279,60.21878]],[[24.91313,60.2118],[24.91048,60.2131],[24.90751,60.21423],[24.90002,60.21611],[24.89263,60.21866]],[[24.90769,60.22782],[24.9014,60.22638],[24.90039,60.22606],[24.89878,60.22539],[24.89749,60.22442],[24.89717,60.22408],[24.89664,60.22313],[24.89608,60.2213],[24.89576,60.22086],[24.89271,60.21881]],[[24.89279,60.21878],[24.89271,60.21881]],[[24.89279,60.21878],[24.89593,60.22098],[24.89871,60.22529],[24.90815,60.22789]],[[24.9123,60.21227],[24.90939,60.21362],[24.90756,60.21427],[24.89279,60.21878]],[[24.90695,60.16309],[24.90896,60.16298],[24.91224,60.16304]],[[24.91223,60.16314],[24.90696,60.16317]],[[24.90769,60.22782],[24.90815,60.22789]],[[24.96564,60.22807],[24.95934,60.23187],[24.95903,60.23204],[24.95854,60.23217],[24.95798,60.23222],[24.95746,60.23218],[24.94659,60.22993],[24.94065,60.22969],[24.9351,60.23106],[24.93142,60.23389],[24.93101,60.23404],[24.93053,60.23408],[24.927,60.23402],[24.92636,60.23396],[24.92563,60.23379],[24.92463,60.23338],[24.92245,60.23212],[24.92093,60.23114],[24.91909,60.23043],[24.91012,60.22844],[24.90769,60.22782]],[[24.90815,60.22789],[24.91941,60.2305],[24.92097,60.23111],[24.92567,60.23377],[24.92944,60.23404],[24.93133,60.23389],[24.93515,60.231],[24.94064,60.22965],[24.9466,60.2299],[24.95847,60.23214],[24.96558,60.22804]],[[24.91333,60.1632],[24.91223,60.16314]],[[24.9126,60.16309],[24.91223,60.16314]],[[24.9126,60.16309],[24.91224,60.16304]],[[24.91224,60.16304],[24.91334,60.16301]],[[24.91313,60.2118],[24.9123,60.21227]],[[24.91873,60.20914],[24.9123,60.21227]],[[24.91333,60.1632],[24.9126,60.16309]],[[24.91334,60.16301],[24.9126,60.16309]],[[24.91812,60.20909],[24.91269,60.2119]],[[24.91363,60.21149],[24.91269,60.2119]],[[24.914,60.21137],[24.91313,60.2118]],[[24.91423,60.16328],[24.91333,60.1632]],[[24.91334,60.16301],[24.91386,60.16298]],[[24.91455,60.21102],[24.91363,60.21149]],[[24.91386,60.16298],[24.92056,60.16332]],[[24.91455,60.21102],[24.914,60.21137]],[[24.91608,60.21032],[24.914,60.21137]],[[24.91908,60.16348],[24.91423,60.16328]],[[24.9152,60.21071],[24.91455,60.21102]],[[24.91618,60.21022],[24.9152,60.21071]],[[24.91608,60.21032],[24.9152,60.21071]],[[24.91676,60.20998],[24.91608,60.21032]],[[24.91812,60.20909],[24.91618,60.21022]],[[24.93427,60.18968],[24.93343,60.19155],[24.93318,60.19269],[24.93322,60.19363],[24.93375,60.19582],[24.93368,60.19667],[24.93335,60.19749],[24.93086,60.20219],[24.92543,60.20558],[24.91618,60.21022]],[[24.9351,60.18812],[24.93351,60.19156],[24.93332,60.19233],[24.93333,60.19364],[24.93386,60.19582],[24.93375,60.1968],[24.93126,60.20201],[24.92549,60.20561],[24.91676,60.20998]],[[24.91873,60.20914],[24.91676,60.20998]],[[24.93444,60.18913],[24.93334,60.19155],[24.9331,60.19268],[24.93354,60.19682],[24.93066,60.20209],[24.91812,60.20909]],[[24.92239,60.2073],[24.91873,60.20914]],[[24.92766,60.16748],[24.92309,60.16446],[24.91908,60.16348]],[[24.92056,60.16332],[24.91908,60.16348]],[[24.92056,60.16332],[24.92344,60.16407],[24.92935,60.16792]],[[24.92114,60.16998],[24.92331,60.16836]],[[24.92124,60.2115],[24.92129,60.21223],[24.92396,60.21661]],[[24.92124,60.2115],[24.9213,60.21247],[24.92396,60.21661]],[[24.92132,60.21121],[24.92124,60.2115]],[[24.92132,60.21121],[24.92108,60.21178],[24.92113,60.21236],[24.92314,60.21597],[24.92355,60.21639],[24.92429,60.21684]],[[24.92147,60.21093],[24.92132,60.21121]],[[24.92141,60.2116],[24.92299,60.21464],[24.92531,60.21601]],[[24.92141,60.2116],[24.92286,60.21468],[24.92531,60.21601]],[[24.92173,60.21056],[24.92141,60.2116]],[[24.92147,60.21093],[24.92095,60.21184],[24.92108,60.21251],[24.92302,60.21599],[24.92363,60.21654],[24.92469,60.21705]],[[24.92173,60.21056],[24.92147,60.21093]],[[24.92196,60.21003],[24.92173,60.21056]],[[24.92175,60.21156],[24.92187,60.21202],[24.92313,60.21429],[24.92403,60.21514]],[[24.92175,60.21156],[24.92186,60.21218],[24.92307,60.21436],[24.92403,60.21514]],[[24.92175,60.21129],[24.92175,60.21156]],[[24.92175,60.21129],[24.9217,60.21183],[24.92177,60.21214],[24.92299,60.21438],[24.9236,60.21496],[24.9245,60.21542]],[[24.92182,60.21092],[24.92175,60.21129]],[[24.92181,60.21121],[24.92188,60.21149]],[[24.92181,60.21121],[24.92196,60.212],[24.92326,60.21433],[24.92376,60.21486],[24.92441,60.21529]],[[24.92182,60.21092],[24.92181,60.21121]],[[24.92188,60.21053],[24.92182,60.21092]],[[24.92188,60.21053],[24.922,60.21158],[24.92352,60.21428],[24.92553,60.216]],[[24.92196,60.21003],[24.92188,60.21053]],[[24.92188,60.21149],[24.92343,60.2143],[24.9249,60.2156]],[[24.92188,60.21149],[24.92335,60.21431],[24.92441,60.21529]],[[24.92191,60.20859],[24.92203,60.20906]],[[24.92191,60.20859],[24.92198,60.20993]],[[24.92522,60.20591],[24.92254,60.20747],[24.922,60.20806],[24.92191,60.20859]],[[24.92198,60.20993],[24.92196,60.21003]],[[24.92205,60.20946],[24.92198,60.20993]],[[24.92203,60.20906],[24.92208,60.20925]],[[24.92203,60.20906],[24.92205,60.20946]],[[24.92575,60.20568],[24.92248,60.20761],[24.92204,60.2082],[24.92203,60.20906]],[[24.92205,60.20946],[24.92209,60.21011]],[[24.92208,60.20925],[24.92205,60.20946]],[[24.92208,60.20925],[24.92216,60.20953]],[[24.92211,60.20898],[24.92208,60.20925]],[[24.92208,60.20858],[24.92291,60.21054]],[[24.92208,60.20858],[24.92211,60.20898]],[[24.92395,60.20677],[24.92208,60.20858]],[[24.92209,60.21011],[24.92217,60.21044]],[[24.92209,60.21011],[24.92212,60.2105]],[[24.92211,60.20898],[24.92216,60.20953]],[[24.92212,60.2105],[24.92221,60.21091]],[[24.92212,60.2105],[24.92214,60.2109]],[[24.92214,60.2109],[24.92222,60.21125]],[[24.92214,60.2109],[24.92227,60.21169],[24.92368,60.21425],[24.92397,60.21458],[24.92451,60.215]],[[24.92216,60.20953],[24.92218,60.20958]],[[24.92217,60.21044],[24.92469,60.21496]],[[24.92217,60.21044],[24.92281,60.21186],[24.92469,60.21496]],[[24.92218,60.20958],[24.92228,60.20983]],[[24.92218,60.20958],[24.92247,60.21034]],[[24.92221,60.21091],[24.92457,60.21498]],[[24.92221,60.21091],[24.9243,60.2147]],[[24.92222,60.21125],[24.9243,60.2147]],[[24.92222,60.21125],[24.92377,60.21423],[24.92451,60.215]],[[24.92228,60.20983],[24.92291,60.21054]],[[24.92228,60.20983],[24.92321,60.21094]],[[24.93356,60.19427],[24.93394,60.19582],[24.93384,60.1968],[24.93119,60.20222],[24.92737,60.20466],[24.92239,60.2073]],[[24.92522,60.20591],[24.92239,60.2073]],[[24.92247,60.21034],[24.9228,60.21078]],[[24.92247,60.21034],[24.92271,60.21078]],[[24.92271,60.21078],[24.92287,60.21106]],[[24.92271,60.21078],[24.92286,60.21117]],[[24.9228,60.21078],[24.9235,60.21156],[24.9253,60.21477],[24.92586,60.21532],[24.92684,60.21594]],[[24.9228,60.21078],[24.92303,60.21107]],[[24.92286,60.21117],[24.92491,60.21483],[24.9254,60.21525],[24.9262,60.21568]],[[24.92286,60.21117],[24.92483,60.21484],[24.92534,60.21527],[24.9262,60.21568]],[[24.92287,60.21106],[24.92494,60.21462],[24.92532,60.21503],[24.92591,60.21544]],[[24.92287,60.21106],[24.92496,60.21476],[24.92547,60.21523],[24.92622,60.21565]],[[24.92291,60.21054],[24.92308,60.21069]],[[24.92303,60.21107],[24.92338,60.21151],[24.92402,60.21263]],[[24.92303,60.21107],[24.92502,60.2146],[24.92591,60.21544]],[[24.92308,60.21069],[24.92339,60.21093]],[[24.92308,60.21069],[24.92363,60.21121]],[[24.92321,60.21094],[24.92378,60.21149],[24.92439,60.21227],[24.92592,60.21492],[24.92767,60.2163]],[[24.92321,60.21094],[24.92362,60.21143]],[[24.92351,60.16827],[24.92331,60.16836]],[[24.92331,60.16836],[24.9291,60.16827]],[[24.92339,60.21093],[24.92366,60.2111]],[[24.92339,60.21093],[24.92371,60.21117]],[[24.92766,60.16748],[24.92521,60.16767],[24.92351,60.16827]],[[24.9291,60.16827],[24.92351,60.16827]],[[24.92362,60.21143],[24.92423,60.21222],[24.92571,60.21484],[24.92767,60.2163]],[[24.92362,60.21143],[24.9253,60.2146],[24.92684,60.21594]],[[24.92363,60.21121],[24.92415,60.2117]],[[24.92363,60.21121],[24.92465,60.21247],[24.92612,60.21499],[24.92772,60.21628]],[[24.92366,60.2111],[24.92443,60.21147]],[[24.92366,60.2111],[24.92404,60.21132]],[[24.92371,60.21117],[24.92415,60.21149]],[[24.92371,60.21117],[24.9251,60.21253],[24.92655,60.21503],[24.92811,60.21651]],[[24.92575,60.20568],[24.92395,60.20677]],[[24.92588,60.20576],[24.92395,60.20677]],[[24.92396,60.21661],[24.92429,60.21684]],[[24.92403,60.21514],[24.9245,60.21542]],[[24.92404,60.21132],[24.92455,60.21161]],[[24.92404,60.21132],[24.92542,60.21239],[24.92686,60.21489],[24.9276,60.21568]],[[24.92415,60.21149],[24.92494,60.21207],[24.92529,60.21241],[24.92677,60.21497],[24.92818,60.21641],[24.92897,60.21698],[24.93029,60.21746]],[[24.92415,60.21149],[24.92519,60.21246],[24.92657,60.21488],[24.92811,60.21651]],[[24.92415,60.2117],[24.92501,60.21258],[24.92624,60.21477],[24.92723,60.21579]],[[24.92415,60.2117],[24.9248,60.21249],[24.92612,60.21482],[24.92723,60.21579]],[[24.92429,60.21684],[24.92469,60.21705]],[[24.9243,60.2147],[24.92457,60.21498]],[[24.92441,60.21529],[24.9249,60.2156]],[[24.92443,60.21147],[24.92542,60.21194],[24.92601,60.21241],[24.9281,60.21611]],[[24.92443,60.21147],[24.92586,60.21242],[24.9281,60.21611]],[[24.9245,60.21542],[24.92521,60.2158]],[[24.92451,60.215],[24.92492,60.21534]],[[24.92455,60.21161],[24.92536,60.21209],[24.92573,60.21243],[24.92796,60.21603]],[[24.92455,60.21161],[24.92564,60.21251],[24.9276,60.21568]],[[24.92457,60.21498],[24.92492,60.21534]],[[24.92469,60.21705],[24.92625,60.21748],[24.93127,60.21784]],[[24.92469,60.21496],[24.92518,60.2156]],[[24.9249,60.2156],[24.92521,60.2158]],[[24.92492,60.21534],[24.92518,60.2156]],[[24.92518,60.2156],[24.92583,60.21625]],[[24.92518,60.20827],[24.92515,60.20893],[24.9256,60.21057]],[[24.92518,60.20827],[24.92501,60.20911],[24.9256,60.21057]],[[24.92539,60.20771],[24.92518,60.20827]],[[24.92521,60.2158],[24.92553,60.216]],[[24.92881,60.20394],[24.92522,60.20591]],[[24.92531,60.21601],[24.92639,60.21667]],[[24.92539,60.20771],[24.92525,60.20867],[24.92578,60.21083]],[[24.92552,60.20741],[24.92539,60.20771]],[[24.92552,60.20741],[24.92536,60.20862],[24.92601,60.21113]],[[24.92574,60.20668],[24.92552,60.20741]],[[24.92553,60.216],[24.92583,60.21625]],[[24.9256,60.21057],[24.92578,60.21083]],[[24.92566,60.20774],[24.92606,60.21062],[24.92639,60.21131]],[[24.92566,60.20774],[24.92594,60.2106],[24.92639,60.21131]],[[24.92572,60.20745],[24.92566,60.20774]],[[24.92572,60.20745],[24.92634,60.21109],[24.9266,60.21158]],[[24.92573,60.20722],[24.92572,60.20745]],[[24.92573,60.20722],[24.92643,60.21096],[24.92688,60.21192]],[[24.92574,60.207],[24.92573,60.20722]],[[24.92574,60.207],[24.92582,60.20734]],[[24.92574,60.20668],[24.92574,60.207]],[[24.9269,60.20506],[24.92599,60.20583],[24.9258,60.20621],[24.92574,60.20668]],[[24.92613,60.20584],[24.92574,60.20668]],[[24.9269,60.20506],[24.92575,60.20568]],[[24.92578,60.21083],[24.92601,60.21113]],[[24.92582,60.20734],[24.92616,60.20805],[24.92697,60.21183]],[[24.92582,60.20734],[24.92697,60.21183]],[[24.92583,60.21625],[24.92639,60.21667]],[[24.92591,60.21544],[24.92622,60.21565]],[[24.92601,60.21113],[24.92617,60.21131]],[[24.92601,60.21113],[24.92613,60.21132]],[[24.92613,60.21132],[24.92767,60.21406],[24.92856,60.2148]],[[24.92613,60.21132],[24.92624,60.2116]],[[24.92613,60.20584],[24.92596,60.20638],[24.926,60.20669],[24.92619,60.20708]],[[24.92704,60.20504],[24.92613,60.20584]],[[24.92617,60.21131],[24.92664,60.21177]],[[24.92617,60.21131],[24.92644,60.21165]],[[24.92619,60.20708],[24.92632,60.2073]],[[24.92806,60.20443],[24.9269,60.20522],[24.92634,60.20575],[24.92607,60.20636],[24.92619,60.20708]],[[24.9262,60.21568],[24.92674,60.21593]],[[24.92622,60.21565],[24.92674,60.21593]],[[24.92624,60.2116],[24.92746,60.21397],[24.92842,60.2148]],[[24.92624,60.2116],[24.92733,60.21398],[24.92842,60.2148]],[[24.92632,60.2073],[24.92646,60.20747]],[[24.92632,60.2073],[24.92657,60.20775]],[[24.92639,60.21131],[24.9266,60.21158]],[[24.92639,60.21667],[24.93127,60.21784]],[[24.9264,60.20728],[24.92661,60.20766]],[[24.9264,60.20728],[24.92646,60.20747]],[[24.92859,60.20415],[24.92645,60.20577],[24.9264,60.20728]],[[24.92644,60.21165],[24.92826,60.21437]],[[24.92644,60.21165],[24.92772,60.21393],[24.92856,60.2148]],[[24.92646,60.20747],[24.92661,60.20766]],[[24.92646,60.20747],[24.92657,60.20775]],[[24.92657,60.20775],[24.9267,60.20798]],[[24.9266,60.21158],[24.92688,60.21192]],[[24.92661,60.20766],[24.92708,60.20814]],[[24.92661,60.20766],[24.92678,60.20797]],[[24.92664,60.21177],[24.92718,60.21229]],[[24.92664,60.21177],[24.92826,60.21437]],[[24.9267,60.20798],[24.92698,60.20852]],[[24.9267,60.20798],[24.92688,60.2087]],[[24.92674,60.21593],[24.92732,60.21625]],[[24.92678,60.20797],[24.92699,60.20835]],[[24.92678,60.20797],[24.92698,60.20852]],[[24.92679,60.21017],[24.92687,60.21047]],[[24.92679,60.21017],[24.92704,60.21116],[24.92869,60.21391]],[[24.92681,60.20927],[24.92679,60.21017]],[[24.92681,60.20927],[24.92684,60.20976]],[[24.92688,60.2087],[24.92681,60.20927]],[[24.92684,60.20976],[24.92691,60.21004]],[[24.92684,60.20976],[24.92701,60.21059],[24.92862,60.21348],[24.92904,60.21392],[24.92987,60.21444]],[[24.92684,60.21594],[24.92732,60.21625]],[[24.92687,60.21047],[24.92865,60.21364],[24.92917,60.21408],[24.92987,60.21444]],[[24.92687,60.21047],[24.92857,60.21366],[24.92921,60.21417],[24.93025,60.21461]],[[24.92688,60.2087],[24.9269,60.20926]],[[24.92688,60.21192],[24.92718,60.21229]],[[24.92806,60.20443],[24.9269,60.20506]],[[24.9269,60.20926],[24.92926,60.21372],[24.93007,60.21441]],[[24.9269,60.20926],[24.92906,60.2136],[24.93007,60.21441]],[[24.92691,60.21004],[24.92879,60.21345],[24.9297,60.21427]],[[24.92691,60.21004],[24.92871,60.21346],[24.9297,60.21427]],[[24.92697,60.21183],[24.92734,60.21249]],[[24.92698,60.20852],[24.92699,60.20856]],[[24.92699,60.20856],[24.92728,60.20942],[24.92972,60.21378],[24.93106,60.21484]],[[24.92699,60.20856],[24.92712,60.2094],[24.92957,60.21381],[24.93106,60.21484]],[[24.92699,60.20835],[24.93081,60.21458]],[[24.92699,60.20835],[24.92988,60.21379],[24.93081,60.21458]],[[24.92708,60.20814],[24.92839,60.20905]],[[24.92708,60.20814],[24.9274,60.20838]],[[24.92718,60.21229],[24.92734,60.21249]],[[24.92723,60.21579],[24.92772,60.21628]],[[24.92732,60.21625],[24.92857,60.21694]],[[24.92734,60.21249],[24.92869,60.21391]],[[24.92734,60.21249],[24.92868,60.21488]],[[24.9274,60.20838],[24.92868,60.20934],[24.92938,60.21008],[24.93153,60.2139],[24.93188,60.21475]],[[24.9274,60.20838],[24.92765,60.2086]],[[24.92759,60.21476],[24.92929,60.21599],[24.92988,60.21633]],[[24.9276,60.21568],[24.92796,60.21603]],[[24.92761,60.21486],[24.92926,60.21605],[24.92996,60.21644]],[[24.92763,60.21471],[24.92988,60.21633]],[[24.92763,60.21495],[24.92897,60.21593],[24.92996,60.21644]],[[24.92765,60.2086],[24.92791,60.20885]],[[24.92765,60.2086],[24.93106,60.21433],[24.93183,60.21525]],[[24.92935,60.16792],[24.92766,60.16748]],[[24.92977,60.16847],[24.92766,60.16748]],[[24.92767,60.2163],[24.92809,60.21662]],[[24.9277,60.21468],[24.93015,60.21638]],[[24.92772,60.21628],[24.92809,60.21662]],[[24.92779,60.21468],[24.93015,60.21638]],[[24.92789,60.21465],[24.92962,60.21567]],[[24.92791,60.20885],[24.92926,60.2101],[24.93188,60.21475]],[[24.92791,60.20885],[24.9282,60.20913]],[[24.92794,60.21546],[24.93045,60.21697],[24.93119,60.21733]],[[24.92796,60.21603],[24.92831,60.21637]],[[24.92798,60.21541],[24.93119,60.21733]],[[24.92799,60.21556],[24.93093,60.21725]],[[24.92801,60.21564],[24.93093,60.21725]],[[24.92881,60.20394],[24.92806,60.20443]],[[24.92859,60.20415],[24.92806,60.20443]],[[24.92807,60.21575],[24.93,60.21692],[24.9313,60.21744]],[[24.92809,60.21662],[24.92857,60.21694]],[[24.9281,60.21611],[24.92831,60.21637]],[[24.92811,60.21651],[24.9289,60.21704],[24.93029,60.21746]],[[24.92814,60.21587],[24.93008,60.21703],[24.9313,60.21744]],[[24.9282,60.20913],[24.92861,60.20953],[24.92905,60.21013],[24.93172,60.21503]],[[24.9282,60.20913],[24.93172,60.21503]],[[24.92821,60.21598],[24.93002,60.21706],[24.93171,60.21761]],[[24.92826,60.21437],[24.92868,60.21488]],[[24.92831,60.21612],[24.92996,60.2171],[24.93151,60.21756]],[[24.92831,60.21637],[24.93086,60.2176]],[[24.92839,60.20905],[24.92881,60.20931]],[[24.92839,60.20905],[24.92963,60.2102],[24.93192,60.21457]],[[24.92842,60.2148],[24.92916,60.21534]],[[24.93035,60.21644],[24.92845,60.21507]],[[24.92847,60.2163],[24.9299,60.21713],[24.93151,60.21756]],[[24.92856,60.2148],[24.92889,60.21511]],[[24.92857,60.21694],[24.9298,60.21744],[24.9318,60.21782]],[[24.92941,60.20362],[24.92859,60.20415]],[[24.93408,60.19653],[24.93366,60.19781],[24.9315,60.20225],[24.9306,60.20305],[24.92859,60.20415]],[[24.92868,60.21488],[24.92889,60.21511]],[[24.92869,60.21391],[24.92934,60.21434],[24.93082,60.21489]],[[24.92881,60.20931],[24.92952,60.20977],[24.92994,60.21027]],[[24.92881,60.20931],[24.92978,60.21022],[24.93192,60.21457]],[[24.92941,60.20362],[24.92881,60.20394]],[[24.92889,60.21511],[24.92916,60.21534]],[[24.92889,60.21531],[24.93035,60.21644]],[[24.92899,60.21504],[24.93059,60.2162],[24.93121,60.21655]],[[24.92902,60.21499],[24.93121,60.21655]],[[24.9291,60.21495],[24.93153,60.21663]],[[24.9291,60.16827],[24.92977,60.16847]],[[24.92916,60.21534],[24.92962,60.21567]],[[24.92917,60.21493],[24.93153,60.21663]],[[24.92925,60.2149],[24.93158,60.21661]],[[24.92931,60.21487],[24.93119,60.21625]],[[24.92935,60.16792],[24.93412,60.16956]],[[24.92937,60.21558],[24.9308,60.21677]],[[24.9294,60.21485],[24.93119,60.21625]],[[24.93382,60.19485],[24.93404,60.19607],[24.93392,60.19681],[24.93174,60.20166],[24.93098,60.20271],[24.92941,60.20362]],[[24.92941,60.21477],[24.93163,60.21636],[24.93281,60.21692]],[[24.92949,60.21474],[24.93151,60.2162],[24.93281,60.21692]],[[24.92956,60.21472],[24.93136,60.21602],[24.93254,60.2167]],[[24.92962,60.21567],[24.93221,60.21749],[24.93424,60.218]],[[24.92964,60.21469],[24.93175,60.21617]],[[24.9297,60.21427],[24.93067,60.21477]],[[24.9297,60.21466],[24.93175,60.21617]],[[24.93723,60.17043],[24.93414,60.16996],[24.92977,60.16847]],[[24.92979,60.21463],[24.93221,60.21647]],[[24.92987,60.21444],[24.93025,60.21461]],[[24.92988,60.21633],[24.93063,60.21676]],[[24.92989,60.21463],[24.93259,60.21669]],[[24.92994,60.21027],[24.93179,60.21358]],[[24.93056,60.20515],[24.92915,60.20851],[24.92994,60.21027]],[[24.92996,60.21644],[24.93063,60.21676]],[[24.93007,60.21441],[24.93067,60.21477]],[[24.93009,60.20426],[24.93042,60.2048]],[[24.93015,60.21638],[24.931,60.21698]],[[24.93025,60.21461],[24.93082,60.21489]],[[24.93228,60.20734],[24.93025,60.20431]],[[24.93029,60.21746],[24.93086,60.2176]],[[24.93031,60.21483],[24.93259,60.21669]],[[24.93123,60.21709],[24.93031,60.21625]],[[24.93033,60.20429],[24.93228,60.20734]],[[24.9308,60.21677],[24.93035,60.21644]],[[24.93041,60.20428],[24.93347,60.20883]],[[24.93042,60.2048],[24.93064,60.20518]],[[24.93042,60.2048],[24.93056,60.20515]],[[24.93056,60.20515],[24.93096,60.20613],[24.9341,60.21118],[24.93555,60.21266]],[[24.93059,60.20425],[24.93362,60.209]],[[24.93063,60.21676],[24.931,60.21698]],[[24.93064,60.20518],[24.93094,60.20568]],[[24.93064,60.20518],[24.93103,60.2061],[24.93418,60.21116],[24.93525,60.2123]],[[24.93067,60.21477],[24.93119,60.21507]],[[24.93123,60.21709],[24.9308,60.21677]],[[24.93081,60.21458],[24.93139,60.21508]],[[24.93082,60.21489],[24.93119,60.21507]],[[24.93086,60.2176],[24.9318,60.21782]],[[24.93253,60.19338],[24.93171,60.19429],[24.93092,60.19582]],[[24.93093,60.21725],[24.93158,60.21751]],[[24.93094,60.20568],[24.93264,60.20809],[24.93488,60.21186]],[[24.93094,60.20568],[24.93488,60.21186]],[[24.93229,60.19372],[24.93168,60.19447],[24.93099,60.19588]],[[24.931,60.21698],[24.93153,60.21729]],[[24.93229,60.19372],[24.93105,60.19597]],[[24.93106,60.21484],[24.93139,60.21508]],[[24.93227,60.19389],[24.93191,60.19441],[24.93113,60.19606]],[[24.93119,60.21507],[24.93147,60.21526]],[[24.93119,60.21625],[24.93158,60.21661]],[[24.93119,60.21733],[24.93158,60.21751]],[[24.93147,60.19554],[24.93121,60.19608]],[[24.93121,60.21655],[24.93237,60.21723]],[[24.93153,60.21729],[24.93123,60.21709]],[[24.93127,60.21784],[24.93256,60.21793]],[[24.9313,60.21744],[24.93198,60.21766]],[[24.93135,60.207],[24.93392,60.21121],[24.93456,60.21197],[24.93552,60.21271]],[[24.93139,60.21508],[24.93156,60.21524]],[[24.93143,60.20697],[24.93402,60.2112],[24.93552,60.21271]],[[24.93147,60.21526],[24.93178,60.21549]],[[24.93147,60.21526],[24.93198,60.21576]],[[24.93227,60.19389],[24.93147,60.19554]],[[24.93172,60.19517],[24.93147,60.19554]],[[24.9327,60.19336],[24.93246,60.1942],[24.93149,60.19625]],[[24.93151,60.21756],[24.93171,60.21761]],[[24.93153,60.21663],[24.93205,60.21701]],[[24.93153,60.21729],[24.93264,60.21776],[24.93424,60.218]],[[24.9324,60.19455],[24.93154,60.19631]],[[24.93156,60.21524],[24.93208,60.21573]],[[24.93156,60.21524],[24.93178,60.21549]],[[24.93158,60.21751],[24.93198,60.21766]],[[24.93158,60.21661],[24.93205,60.21701]],[[24.93231,60.19485],[24.93163,60.19634]],[[24.93227,60.19511],[24.9317,60.19638]],[[24.93171,60.21761],[24.93243,60.21779]],[[24.93172,60.21503],[24.93183,60.21525]],[[24.93251,60.19352],[24.93172,60.19517]],[[24.9327,60.19336],[24.93172,60.19517]],[[24.93175,60.21617],[24.93221,60.21647]],[[24.93227,60.19511],[24.93177,60.19643]],[[24.93178,60.21549],[24.93208,60.21573]],[[24.93178,60.21549],[24.93198,60.21576]],[[24.93179,60.21358],[24.93275,60.21529],[24.93294,60.21587]],[[24.93179,60.21358],[24.93196,60.21411],[24.93193,60.21468]],[[24.9318,60.21782],[24.93256,60.21793]],[[24.93183,60.21525],[24.93231,60.21586]],[[24.93183,60.21525],[24.93223,60.21587]],[[24.93188,60.21475],[24.93198,60.215]],[[24.93192,60.21457],[24.93193,60.21468]],[[24.93193,60.21468],[24.93198,60.215]],[[24.93197,60.20301],[24.93208,60.20391]],[[24.93197,60.20301],[24.932,60.20489]],[[24.93389,60.1974],[24.932,60.20147],[24.93197,60.20301]],[[24.93198,60.215],[24.93279,60.21621],[24.93332,60.21667]],[[24.93198,60.215],[24.93231,60.21586]],[[24.93198,60.21766],[24.93243,60.21779]],[[24.93198,60.21576],[24.93284,60.21677]],[[24.932,60.20489],[24.93228,60.20664],[24.93353,60.20865],[24.93405,60.20956]],[[24.93208,60.20398],[24.932,60.20489]],[[24.93201,60.2145],[24.9329,60.21621]],[[24.93201,60.21469],[24.9329,60.21621]],[[24.93205,60.21701],[24.93237,60.21723]],[[24.93205,60.21422],[24.93294,60.21587]],[[24.93208,60.21573],[24.93223,60.21587]],[[24.93208,60.20344],[24.93208,60.20391]],[[24.93417,60.19649],[24.93382,60.19809],[24.93217,60.20169],[24.93207,60.20251],[24.93208,60.20344]],[[24.93219,60.20233],[24.93208,60.20344]],[[24.93288,60.19613],[24.93208,60.19613]],[[24.93208,60.20398],[24.93216,60.20539],[24.93282,60.20701]],[[24.93208,60.20391],[24.93208,60.20398]],[[24.93288,60.19614],[24.93211,60.1962]],[[24.93289,60.19616],[24.93214,60.19628]],[[24.93216,60.20364],[24.93237,60.20584],[24.93335,60.20781]],[[24.93219,60.20233],[24.93216,60.20364]],[[24.93429,60.19671],[24.93406,60.19828],[24.9324,60.2019],[24.93216,60.20364]],[[24.93429,60.19671],[24.93393,60.19814],[24.93243,60.2012],[24.93219,60.20233]],[[24.9329,60.19617],[24.9322,60.19634]],[[24.93221,60.21647],[24.93254,60.2167]],[[24.93223,60.21587],[24.93242,60.21607]],[[24.93223,60.21587],[24.93251,60.21624]],[[24.93251,60.19352],[24.93227,60.19389]],[[24.93231,60.19485],[24.93227,60.19511]],[[24.93228,60.20734],[24.93347,60.20883]],[[24.93291,60.19619],[24.93228,60.19642]],[[24.93253,60.19338],[24.93229,60.19372]],[[24.9324,60.19455],[24.93231,60.19485]],[[24.93231,60.21586],[24.93267,60.21629]],[[24.93231,60.21586],[24.93242,60.21607]],[[24.93293,60.1962],[24.93235,60.19649]],[[24.93237,60.21723],[24.93524,60.21806]],[[24.93268,60.19395],[24.9324,60.19455]],[[24.93242,60.21607],[24.93267,60.21629]],[[24.93242,60.21607],[24.93251,60.21624]],[[24.93295,60.19621],[24.93243,60.19657]],[[24.93243,60.21779],[24.93378,60.21801]],[[24.93265,60.19321],[24.93251,60.19352]],[[24.93251,60.21624],[24.93391,60.21752],[24.93523,60.21796],[24.93667,60.21816]],[[24.93251,60.21624],[24.93284,60.21677]],[[24.93265,60.19321],[24.93253,60.19338]],[[24.93254,60.2167],[24.93288,60.21693]],[[24.93256,60.21793],[24.93378,60.21801]],[[24.93256,60.21793],[24.93768,60.21832]],[[24.93298,60.19621],[24.93258,60.19662]],[[24.93259,60.21669],[24.93288,60.21693]],[[24.93284,60.19279],[24.93265,60.19321]],[[24.93267,60.21629],[24.93462,60.21773],[24.93566,60.21799],[24.93783,60.2182]],[[24.93268,60.19395],[24.93298,60.19604]],[[24.93277,60.19307],[24.93268,60.19395]],[[24.93277,60.19307],[24.9327,60.19336]],[[24.93301,60.19622],[24.93275,60.19662]],[[24.93284,60.19279],[24.93277,60.19307]],[[24.93281,60.21692],[24.93319,60.21714]],[[24.93282,60.20701],[24.93335,60.20781]],[[24.93282,60.20701],[24.93666,60.21377],[24.93786,60.21517],[24.93937,60.21647],[24.94181,60.2181],[24.94487,60.21967],[24.94743,60.2207],[24.95263,60.22244]],[[24.93284,60.21677],[24.93352,60.21737]],[[24.93428,60.18929],[24.93309,60.19189],[24.93284,60.19279]],[[24.93288,60.21693],[24.93319,60.21714]],[[24.93303,60.19622],[24.9329,60.19664]],[[24.9329,60.21621],[24.93332,60.21667]],[[24.93294,60.21587],[24.93361,60.21692]],[[24.93307,60.19623],[24.93305,60.19665]],[[24.93307,60.19603],[24.93309,60.19572]],[[24.93309,60.20861],[24.93435,60.21094],[24.93481,60.21154]],[[24.9331,60.19603],[24.93322,60.19572]],[[24.93313,60.19604],[24.93335,60.19574]],[[24.93319,60.21714],[24.93352,60.21737]],[[24.93327,60.20878],[24.93481,60.21154]],[[24.93332,60.21667],[24.93361,60.21692]],[[24.93335,60.20781],[24.93343,60.20797]],[[24.93343,60.20797],[24.93398,60.20874]],[[24.93343,60.20797],[24.93495,60.21069]],[[24.93347,60.20883],[24.93362,60.209]],[[24.93352,60.21737],[24.93448,60.21783],[24.93587,60.21811]],[[24.93382,60.19485],[24.93356,60.19427]],[[24.93533,60.18777],[24.9335,60.19192],[24.93336,60.19328],[24.93356,60.19427]],[[24.93361,60.21692],[24.93536,60.21778],[24.93783,60.2182]],[[24.93362,60.209],[24.93405,60.20956]],[[24.93362,60.209],[24.93385,60.20937]],[[24.93378,60.21801],[24.93518,60.2181]],[[24.93525,60.18816],[24.93359,60.19192],[24.93345,60.1933],[24.93382,60.19485]],[[24.93385,60.20937],[24.93537,60.21208]],[[24.93385,60.20937],[24.93474,60.21123],[24.93537,60.21208]],[[24.93388,60.20839],[24.93489,60.21021]],[[24.93388,60.20839],[24.93426,60.20924]],[[24.93468,60.19038],[24.93391,60.19281],[24.93454,60.19607],[24.93436,60.19824],[24.9324,60.20351],[24.93388,60.20839]],[[24.93408,60.19653],[24.93389,60.1974]],[[24.93389,60.1974],[24.93417,60.19649]],[[24.93398,60.20874],[24.93426,60.20924]],[[24.9348,60.18992],[24.93381,60.19279],[24.93444,60.19607],[24.93425,60.19787],[24.93227,60.20323],[24.9325,60.20584],[24.93398,60.20874]],[[24.93405,60.20956],[24.93621,60.21335],[24.93726,60.21471]],[[24.93509,60.18868],[24.93378,60.19158],[24.93354,60.19275],[24.93359,60.19364],[24.93412,60.19581],[24.93408,60.19653]],[[24.93412,60.16956],[24.94447,60.17054],[24.94817,60.17167],[24.95077,60.17478],[24.9505,60.18255],[24.9577,60.18515],[24.96247,60.18873],[24.96574,60.18917],[24.96965,60.18873],[24.97499,60.18771],[24.97934,60.18719]],[[24.93412,60.16956],[24.93723,60.17043]],[[24.93501,60.18905],[24.93386,60.19159],[24.93367,60.19234],[24.93363,60.19333],[24.93415,60.19545],[24.93417,60.19649]],[[24.93424,60.218],[24.93524,60.21806]],[[24.93424,60.218],[24.93518,60.2181]],[[24.93426,60.20924],[24.93435,60.20939]],[[24.93444,60.18913],[24.93427,60.18968]],[[24.93482,60.1885],[24.93427,60.18968]],[[24.93483,60.18811],[24.93428,60.18929]],[[24.93457,60.18886],[24.93428,60.18929]],[[24.9349,60.18948],[24.93372,60.19278],[24.93432,60.19581],[24.93429,60.19671]],[[24.93435,60.20939],[24.93489,60.21021]],[[24.93435,60.20939],[24.93462,60.20989]],[[24.93457,60.18886],[24.93444,60.18913]],[[24.93449,60.21722],[24.9404,60.21824]],[[24.93451,60.21717],[24.93826,60.21786]],[[24.93804,60.18124],[24.93457,60.18886]],[[24.93482,60.1885],[24.93457,60.18886]],[[24.93462,60.20989],[24.93661,60.21339],[24.93763,60.2147],[24.93953,60.21641],[24.94154,60.21773],[24.94424,60.21917],[24.9473,60.22048],[24.95913,60.22457],[24.96588,60.22789]],[[24.93495,60.21069],[24.93462,60.20989]],[[24.9348,60.18992],[24.93468,60.19038]],[[24.93668,60.18608],[24.93468,60.19038]],[[24.93474,60.21732],[24.94115,60.21838]],[[24.9349,60.18948],[24.9348,60.18992]],[[24.93631,60.18667],[24.9348,60.18992]],[[24.93481,60.21154],[24.93558,60.21245]],[[24.93815,60.18118],[24.93482,60.1885]],[[24.9351,60.18812],[24.93482,60.1885]],[[24.93488,60.21186],[24.93525,60.2123]],[[24.93489,60.21021],[24.9378,60.21466],[24.94246,60.21815],[24.95986,60.22478],[24.96606,60.22779]],[[24.93501,60.18905],[24.9349,60.18948]],[[24.93844,60.18198],[24.9349,60.18948]],[[24.93495,60.21069],[24.9365,60.21341],[24.93793,60.21515],[24.9399,60.2168],[24.94243,60.21839],[24.94672,60.22039],[24.95622,60.22358],[24.95905,60.22462],[24.96095,60.22547],[24.96576,60.22795]],[[24.93509,60.18868],[24.93501,60.18905]],[[24.93759,60.18362],[24.93501,60.18905]],[[24.93525,60.18816],[24.93509,60.18868]],[[24.93613,60.18645],[24.93509,60.18868]],[[24.93808,60.18154],[24.9351,60.18812]],[[24.93533,60.18777],[24.9351,60.18812]],[[24.93518,60.2181],[24.93664,60.2182]],[[24.93524,60.21806],[24.93587,60.21811]],[[24.93567,60.18725],[24.93525,60.18816]],[[24.93525,60.2123],[24.93555,60.21266]],[[24.93802,60.18191],[24.93533,60.18777]],[[24.93567,60.18725],[24.93533,60.18777]],[[24.93537,60.21208],[24.93558,60.21245]],[[24.93552,60.21271],[24.93584,60.21301]],[[24.93555,60.21266],[24.93584,60.21301]],[[24.93558,60.21245],[24.93613,60.21337]],[[24.93576,60.18707],[24.93567,60.18725]],[[24.93738,60.18357],[24.93576,60.18707]],[[24.93613,60.18645],[24.93576,60.18707]],[[24.93584,60.21301],[24.93613,60.21337]],[[24.93587,60.21811],[24.93667,60.21816]],[[24.93587,60.21811],[24.93664,60.2182]],[[24.93717,60.18421],[24.93613,60.18645]],[[24.93613,60.21337],[24.93718,60.21474]],[[24.93869,60.1816],[24.93631,60.18667]],[[24.93668,60.18608],[24.93631,60.18667]],[[24.93664,60.2182],[24.93761,60.21827]],[[24.93664,60.2182],[24.93768,60.21832]],[[24.93667,60.21816],[24.93866,60.2183]],[[24.93667,60.21816],[24.93761,60.21827]],[[24.93858,60.18222],[24.93668,60.18608]],[[24.93738,60.18357],[24.93717,60.18421]],[[24.93772,60.18303],[24.93717,60.18421]],[[24.93718,60.21474],[24.93746,60.21498]],[[24.93718,60.21474],[24.93766,60.21524]],[[24.97868,60.1873],[24.97501,60.18775],[24.97045,60.18865],[24.96566,60.18928],[24.96188,60.18885],[24.95705,60.18532],[24.95186,60.18389],[24.95007,60.18252],[24.95037,60.17483],[24.94717,60.17173],[24.93723,60.17043]],[[24.93726,60.21471],[24.93773,60.21522]],[[24.93726,60.21471],[24.93746,60.21498]],[[24.93741,60.18351],[24.93738,60.18357]],[[24.9379,60.1824],[24.93741,60.18351]],[[24.93772,60.18303],[24.93741,60.18351]],[[24.93746,60.21498],[24.93773,60.21522]],[[24.93746,60.21498],[24.93766,60.21524]],[[24.93796,60.18268],[24.93759,60.18362]],[[24.9382,60.18235],[24.93759,60.18362]],[[24.93761,60.21827],[24.94005,60.21844]],[[24.93766,60.21524],[24.93847,60.21604],[24.94012,60.2173],[24.94317,60.21906]],[[24.93768,60.21832],[24.94328,60.21921]],[[24.93973,60.1782],[24.93772,60.18303]],[[24.93796,60.18268],[24.93772,60.18303]],[[24.93773,60.21522],[24.93923,60.21654],[24.94246,60.21858],[24.94477,60.21974],[24.94749,60.22082]],[[24.93779,60.21768],[24.9389,60.21797]],[[24.93783,60.2182],[24.93866,60.2183]],[[24.93826,60.21786],[24.93785,60.21776]],[[24.93802,60.18191],[24.9379,60.1824]],[[24.93925,60.17911],[24.9379,60.1824]],[[24.93995,60.17785],[24.93796,60.18268]],[[24.9382,60.18235],[24.93796,60.18268]],[[24.93808,60.18154],[24.93802,60.18191]],[[24.93917,60.1791],[24.93802,60.18191]],[[24.93822,60.18077],[24.93804,60.18124]],[[24.93818,60.18098],[24.93804,60.18124]],[[24.93815,60.18118],[24.93808,60.18154]],[[24.93859,60.18031],[24.93808,60.18154]],[[24.93818,60.18098],[24.93815,60.18118]],[[24.93831,60.18078],[24.93815,60.18118]],[[24.93822,60.18077],[24.93818,60.18098]],[[24.93831,60.18078],[24.93818,60.18098]],[[24.94021,60.17746],[24.9382,60.18235]],[[24.93844,60.18198],[24.9382,60.18235]],[[24.93919,60.17702],[24.93822,60.18077]],[[24.939,60.17841],[24.93822,60.18077]],[[24.93826,60.21786],[24.9389,60.21797]],[[24.93887,60.17893],[24.93831,60.18078]],[[24.93859,60.18031],[24.93831,60.18078]],[[24.9401,60.17794],[24.93844,60.18198]],[[24.93869,60.1816],[24.93844,60.18198]],[[24.93899,60.18109],[24.93858,60.18222]],[[24.94004,60.17872],[24.93858,60.18222]],[[24.93862,60.18024],[24.93859,60.18031]],[[24.93872,60.17983],[24.93862,60.18024]],[[24.93923,60.17872],[24.93862,60.18024]],[[24.93866,60.2183],[24.93896,60.21832]],[[24.94022,60.17788],[24.93869,60.1816]],[[24.93899,60.18109],[24.93869,60.1816]],[[24.93971,60.17568],[24.9395,60.17761],[24.93884,60.17924],[24.93872,60.17983]],[[24.93992,60.1763],[24.93959,60.17762],[24.93872,60.17983]],[[24.939,60.17841],[24.93887,60.17893]],[[24.93903,60.17856],[24.93887,60.17893]],[[24.9389,60.21797],[24.93975,60.21812]],[[24.93896,60.21832],[24.94015,60.21841],[24.94134,60.21856]],[[24.93896,60.21832],[24.94005,60.21844]],[[24.94015,60.17826],[24.93899,60.18109]],[[24.93919,60.17702],[24.939,60.17841]],[[24.93915,60.17804],[24.939,60.17841]],[[24.93915,60.17804],[24.93903,60.17856]],[[24.93922,60.17811],[24.93903,60.17856]],[[24.93948,60.17512],[24.93915,60.17804]],[[24.93933,60.17759],[24.93915,60.17804]],[[24.93935,60.17864],[24.93917,60.1791]],[[24.93931,60.17884],[24.93917,60.1791]],[[24.93933,60.17569],[24.93919,60.17702]],[[24.93933,60.17759],[24.93922,60.17811]],[[24.9395,60.17717],[24.93922,60.17811]],[[24.93946,60.17817],[24.93923,60.17872]],[[24.93939,60.17843],[24.93923,60.17872]],[[24.93931,60.17884],[24.93925,60.17911]],[[24.93944,60.17865],[24.93925,60.17911]],[[24.93935,60.17864],[24.93931,60.17884]],[[24.93944,60.17865],[24.93931,60.17884]],[[24.93968,60.17513],[24.93933,60.17759]],[[24.9395,60.17717],[24.93933,60.17759]],[[24.93967,60.17255],[24.93933,60.17569]],[[24.93948,60.17512],[24.93933,60.17569]],[[24.93939,60.17843],[24.93935,60.17864]],[[24.93951,60.17825],[24.93935,60.17864]],[[24.93975,60.21812],[24.93936,60.21803]],[[24.93946,60.17817],[24.93939,60.17843]],[[24.93951,60.17825],[24.93939,60.17843]],[[24.93973,60.17792],[24.93944,60.17865]],[[24.93973,60.1782],[24.93944,60.17865]],[[24.93968,60.17766],[24.93946,60.17817]],[[24.93976,60.17255],[24.93948,60.17512]],[[24.93971,60.17568],[24.9395,60.17717]],[[24.93979,60.17757],[24.93951,60.17825]],[[24.93973,60.17792],[24.93951,60.17825]],[[24.93992,60.1763],[24.93968,60.17766]],[[24.93989,60.17711],[24.93968,60.17766]],[[24.93968,60.17513],[24.93971,60.17568]],[[24.93996,60.17256],[24.93968,60.17513]],[[24.94005,60.17256],[24.93971,60.17568]],[[24.93981,60.178],[24.93973,60.1782]],[[24.93995,60.17785],[24.93973,60.1782]],[[24.93993,60.17744],[24.93973,60.17792]],[[24.93988,60.17768],[24.93973,60.17792]],[[24.93975,60.21812],[24.9404,60.21824]],[[24.93989,60.17711],[24.93979,60.17757]],[[24.93999,60.17708],[24.93979,60.17757]],[[24.93988,60.17768],[24.93981,60.178]],[[24.94003,60.17745],[24.93981,60.178]],[[24.93993,60.17744],[24.93988,60.17768]],[[24.94003,60.17745],[24.93988,60.17768]],[[24.94005,60.17591],[24.93989,60.17711]],[[24.94006,60.17671],[24.93989,60.17711]],[[24.94024,60.17257],[24.93992,60.1763]],[[24.94005,60.17591],[24.93992,60.1763]],[[24.93999,60.17708],[24.93993,60.17744]],[[24.94059,60.17567],[24.93993,60.17744]],[[24.94027,60.17707],[24.93995,60.17785]],[[24.94021,60.17746],[24.93995,60.17785]],[[24.94006,60.17671],[24.93999,60.17708]],[[24.94011,60.1768],[24.93999,60.17708]],[[24.94049,60.17631],[24.94003,60.17745]],[[24.94027,60.17707],[24.94003,60.17745]],[[24.94015,60.17826],[24.94004,60.17872]],[[24.94058,60.17741],[24.94004,60.17872]],[[24.94005,60.21844],[24.94023,60.21846]],[[24.94034,60.17257],[24.94005,60.17591]],[[24.94026,60.17517],[24.94005,60.17591]],[[24.94026,60.17517],[24.94006,60.17671]],[[24.94025,60.17617],[24.94006,60.17671]],[[24.94029,60.17747],[24.9401,60.17794]],[[24.94026,60.17766],[24.9401,60.17794]],[[24.94025,60.17617],[24.94011,60.1768]],[[24.94057,60.17495],[24.94011,60.1768]],[[24.94022,60.17788],[24.94015,60.17826]],[[24.94058,60.17741],[24.94015,60.17826]],[[24.94035,60.17709],[24.94021,60.17746]],[[24.94031,60.17728],[24.94021,60.17746]],[[24.94026,60.17766],[24.94022,60.17788]],[[24.94037,60.17748],[24.94022,60.17788]],[[24.94023,60.21846],[24.94134,60.21856]],[[24.94023,60.21846],[24.94328,60.21921]],[[24.94062,60.17258],[24.94025,60.17617]],[[24.94053,60.17257],[24.94026,60.17517]],[[24.94029,60.17747],[24.94026,60.17766]],[[24.94037,60.17748],[24.94026,60.17766]],[[24.94042,60.17669],[24.94027,60.17707]],[[24.94038,60.1769],[24.94027,60.17707]],[[24.94031,60.17728],[24.94029,60.17747]],[[24.94044,60.1771],[24.94029,60.17747]],[[24.94035,60.17709],[24.94031,60.17728]],[[24.94044,60.1771],[24.94031,60.17728]],[[24.94038,60.1769],[24.94035,60.17709]],[[24.94051,60.1767],[24.94035,60.17709]],[[24.94069,60.1767],[24.94037,60.17748]],[[24.94056,60.17719],[24.94037,60.17748]],[[24.94042,60.17669],[24.94038,60.1769]],[[24.94051,60.1767],[24.94038,60.1769]],[[24.9404,60.21824],[24.94115,60.21838]],[[24.94049,60.17631],[24.94042,60.17669]],[[24.94079,60.17549],[24.94071,60.17596],[24.94042,60.17669]],[[24.94074,60.17634],[24.94044,60.1771]],[[24.94069,60.1767],[24.94044,60.1771]],[[24.94059,60.17567],[24.94049,60.17631]],[[24.94079,60.17549],[24.94049,60.17631]],[[24.94133,60.1714],[24.94088,60.17559],[24.94051,60.1767]],[[24.94074,60.17634],[24.94051,60.1767]],[[24.94086,60.17673],[24.94056,60.17719]],[[24.94077,60.17693],[24.94056,60.17719]],[[24.94057,60.17495],[24.94059,60.17563]],[[24.94095,60.17139],[24.94057,60.17495]],[[24.94066,60.17721],[24.94058,60.17741]],[[24.94059,60.17563],[24.94059,60.17567]],[[24.94104,60.17139],[24.94059,60.17563]],[[24.94077,60.17693],[24.94066,60.17721]],[[24.94094,60.17674],[24.94066,60.17721]],[[24.94099,60.17596],[24.94069,60.1767]],[[24.94115,60.17597],[24.94069,60.1767]],[[24.94153,60.1714],[24.9411,60.17532],[24.94074,60.17634]],[[24.94099,60.17596],[24.94074,60.17634]],[[24.94086,60.17673],[24.94077,60.17693]],[[24.94094,60.17674],[24.94077,60.17693]],[[24.94124,60.17139],[24.94079,60.17549]],[[24.94115,60.17597],[24.94086,60.17673]],[[24.94101,60.1765],[24.94086,60.17673]],[[24.94149,60.17589],[24.94094,60.17674]],[[24.94221,60.17314],[24.94186,60.17547],[24.94094,60.17674]],[[24.94162,60.1714],[24.9412,60.17526],[24.94099,60.17596]],[[24.94135,60.17533],[24.94099,60.17596]],[[24.94193,60.17302],[24.94167,60.1752],[24.94101,60.1765]],[[24.94149,60.17589],[24.94101,60.1765]],[[24.94115,60.21838],[24.94227,60.21867],[24.94317,60.21906]],[[24.94135,60.17533],[24.94115,60.17597]],[[24.94191,60.17141],[24.94152,60.17496],[24.94115,60.17597]],[[24.94134,60.21856],[24.94381,60.21937]],[[24.94182,60.17141],[24.94135,60.17533]],[[24.94202,60.17303],[24.94181,60.17497],[24.94149,60.17589]],[[24.94317,60.21906],[24.94381,60.21937]],[[24.94328,60.21921],[24.94588,60.22033],[24.94667,60.22058]],[[24.94381,60.21937],[24.94667,60.22058]],[[24.94667,60.22058],[24.94749,60.22082]],[[24.94667,60.22058],[24.95214,60.22242]],[[24.94749,60.22082],[24.94998,60.22164]],[[24.94998,60.22164],[24.95263,60.22244]],[[24.94998,60.22164],[24.95892,60.2247],[24.96558,60.22804]],[[24.9508,60.1783],[24.9532,60.17829]],[[24.9532,60.17832],[24.9508,60.17832]],[[24.95263,60.22244],[24.959,60.22465],[24.96571,60.22798]],[[24.9532,60.17829],[24.95362,60.17826]],[[24.95342,60.17829],[24.95332,60.17829],[24.9532,60.17829]],[[24.9532,60.17832],[24.95342,60.17829]],[[24.95363,60.17829],[24.9532,60.17832]],[[24.95363,60.17829],[24.95352,60.17829],[24.95342,60.17829]],[[24.95342,60.17829],[24.95362,60.17826]],[[24.95362,60.17826],[24.95906,60.17818],[24.96284,60.17825],[24.96367,60.17832],[24.96543,60.17863],[24.96656,60.1787],[24.97078,60.17844]],[[24.97079,60.17847],[24.96664,60.17873],[24.96541,60.17866],[24.96281,60.17828],[24.95363,60.17829]],[[24.96186,60.30897],[24.9632,60.31002]],[[24.96186,60.30897],[24.96482,60.31207]],[[24.9632,60.31002],[24.96399,60.31084]],[[24.96399,60.31084],[24.97426,60.32126],[24.97866,60.32352],[24.98447,60.32492],[24.99258,60.32508],[25.00495,60.32315],[25.01066,60.32274],[25.01594,60.32278],[25.03155,60.32384],[25.04619,60.32116]],[[24.96399,60.31084],[24.96482,60.31207]],[[24.96482,60.31207],[24.9731,60.32061],[24.97536,60.32223],[24.98005,60.32417],[24.98623,60.32533],[24.99266,60.32535],[25.01188,60.3228],[25.02827,60.32389],[25.03241,60.32383],[25.04706,60.32102]],[[24.96558,60.22804],[24.96564,60.22807]],[[24.96558,60.22804],[24.96571,60.22798]],[[24.96564,60.22807],[24.97065,60.2306]],[[24.96577,60.22801],[24.96564,60.22807]],[[24.96571,60.22798],[24.96577,60.22801]],[[24.96571,60.22798],[24.96576,60.22795]],[[24.96576,60.22795],[24.96582,60.22798]],[[24.96576,60.22795],[24.96588,60.22789]],[[24.96577,60.22801],[24.97214,60.23129]],[[24.96582,60.22798],[24.96577,60.22801]],[[24.96582,60.22798],[24.975,60.23272]],[[24.96594,60.22792],[24.96582,60.22798]],[[24.96588,60.22789],[24.96594,60.22792]],[[24.96588,60.22789],[24.96606,60.22779]],[[24.96594,60.22792],[24.97373,60.23198]],[[24.96612,60.22783],[24.96594,60.22792]],[[24.96606,60.22779],[24.96612,60.22783]],[[24.96606,60.22779],[24.96687,60.22744],[24.96721,60.22744],[24.96757,60.22753],[24.97072,60.22995]],[[24.96612,60.22783],[24.9722,60.23113]],[[24.97041,60.22982],[24.96752,60.22755],[24.96612,60.22783]],[[24.97041,60.22982],[24.97072,60.22995]],[[25.02275,60.2234],[25.01741,60.22454],[25.01576,60.22631],[25.01512,60.22665],[25.01445,60.22682],[25.01088,60.2273],[25.0081,60.22606],[24.99754,60.23045],[24.99608,60.23085],[24.99461,60.23109],[24.99334,60.2312],[24.99217,60.23122],[24.98185,60.23101],[24.97617,60.23128],[24.97489,60.23126],[24.97365,60.23113],[24.97269,60.2309],[24.97197,60.23062],[24.97041,60.22982]],[[24.97065,60.2306],[24.97214,60.23129]],[[24.97065,60.2306],[24.97191,60.23127]],[[24.97072,60.22995],[24.9749,60.23124],[24.98188,60.23097],[24.9946,60.23107],[25.00804,60.22604],[25.00914,60.22608],[25.01092,60.22725],[25.01443,60.2268],[25.01732,60.22453],[25.02324,60.22326]],[[24.97214,60.23129],[24.97337,60.23193]],[[24.9722,60.23113],[24.98016,60.23524]],[[24.9722,60.23113],[24.97373,60.23198]],[[24.975,60.23272],[24.97337,60.23193]],[[24.97337,60.23193],[24.9786,60.23463]],[[24.97373,60.23198],[24.97393,60.23208]],[[24.97393,60.23208],[24.97832,60.23435]],[[24.97393,60.23208],[24.97594,60.2332]],[[24.975,60.23272],[24.97594,60.2332]],[[24.97679,60.1785],[24.97593,60.17852]],[[24.97594,60.2332],[24.97613,60.2333]],[[24.97606,60.17849],[24.97705,60.17838]],[[24.97613,60.2333],[24.97832,60.23435]],[[24.97613,60.2333],[24.97707,60.23379]],[[24.97684,60.1788],[24.9767,60.17866],[24.97679,60.1785]],[[24.97679,60.1785],[24.97705,60.17838]],[[24.97708,60.17841],[24.97679,60.1785]],[[24.97708,60.17841],[24.97689,60.17878]],[[24.97705,60.17838],[24.98101,60.17716],[24.9816,60.1771],[24.9837,60.17707]],[[24.97707,60.23379],[25.00037,60.24581],[25.008,60.24963],[25.01348,60.25265],[25.0166,60.25464]],[[24.97707,60.23379],[24.9786,60.23463]],[[24.9837,60.1771],[24.97708,60.17841]],[[24.97832,60.23435],[24.97852,60.23445]],[[24.97852,60.23445],[24.98016,60.23524]],[[24.97852,60.23445],[25.00046,60.24577],[25.00806,60.2496],[25.01356,60.25262],[25.01808,60.25551]],[[24.9786,60.23463],[25.01792,60.25557]],[[24.97868,60.1873],[24.97934,60.18719]],[[24.98027,60.18712],[24.97868,60.1873]],[[24.97934,60.18719],[24.97958,60.18716]],[[24.97958,60.18716],[24.98909,60.1861],[24.99126,60.18602],[24.99393,60.18611],[24.99614,60.1863],[24.99826,60.18665],[25.00448,60.18837],[25.01007,60.18897]],[[24.97958,60.18716],[24.98027,60.18712]],[[24.98016,60.23524],[25.01005,60.25046],[25.01291,60.25206],[25.01673,60.25456]],[[25.01004,60.18906],[25.00449,60.18845],[24.99487,60.18621],[24.98027,60.18712]],[[24.98394,60.17708],[24.9837,60.1771]],[[24.98419,60.1771],[24.9837,60.1771]],[[24.9837,60.17707],[24.98394,60.17708]],[[24.9837,60.17707],[24.98419,60.17707]],[[24.98394,60.17708],[24.98419,60.1771]],[[24.98419,60.17707],[24.98394,60.17708]],[[25.01418,60.1692],[25.01142,60.16976],[25.00815,60.17171],[25.00613,60.17271],[25.00215,60.17425],[24.99797,60.17555],[24.99554,60.17605],[24.99378,60.17625],[24.99278,60.17631],[24.98859,60.17634],[24.98559,60.17698],[24.98494,60.17707],[24.98419,60.1771]],[[24.98419,60.17707],[24.98881,60.17628],[24.9979,60.17552],[25.0057,60.17285],[25.01137,60.16973],[25.01418,60.16917]],[[24.98854,60.14199],[24.98962,60.14229]],[[24.98855,60.14196],[24.98964,60.14227]],[[24.99128,60.14704],[24.99178,60.14707]],[[24.99129,60.14697],[24.99179,60.14699]],[[24.9913,60.14685],[24.9918,60.14687]],[[25.01087,60.18909],[25.01004,60.18906]],[[25.01164,60.18921],[25.01004,60.18906]],[[25.01007,60.18897],[25.01167,60.18913]],[[25.01007,60.18897],[25.01087,60.18909]],[[25.01167,60.18913],[25.01087,60.18909]],[[25.01087,60.18909],[25.01164,60.18921]],[[25.04189,60.20359],[25.03315,60.19615],[25.0294,60.19425],[25.02232,60.19244],[25.01642,60.19007],[25.01164,60.18921]],[[25.01167,60.18913],[25.01647,60.19003],[25.02954,60.19415],[25.033,60.19593],[25.04152,60.20321]],[[25.01418,60.16917],[25.0144,60.16918]],[[25.01418,60.16917],[25.01462,60.16916]],[[25.0144,60.16918],[25.01418,60.1692]],[[25.01462,60.16919],[25.01418,60.1692]],[[25.0144,60.16918],[25.01462,60.16919]],[[25.01462,60.16916],[25.0144,60.16918]],[[25.01462,60.16916],[25.02097,60.16876]],[[25.02105,60.16877],[25.01462,60.16919]],[[25.0166,60.25464],[25.01954,60.25656]],[[25.0166,60.25464],[25.01792,60.25557]],[[25.01673,60.25456],[25.01974,60.25652]],[[25.01673,60.25456],[25.01808,60.25551]],[[25.01693,60.16261],[25.01766,60.16325]],[[25.01693,60.16261],[25.01732,60.16303],[25.01766,60.16325]],[[25.02097,60.16876],[25.01985,60.16706],[25.02004,60.16646],[25.01709,60.16528],[25.01517,60.16281],[25.01693,60.16261]],[[25.01766,60.16325],[25.01627,60.1642],[25.0201,60.16644],[25.02126,60.16869]],[[25.01792,60.25557],[25.0181,60.25568]],[[25.01808,60.25551],[25.01824,60.25561]],[[25.0181,60.25568],[25.01954,60.25656]],[[25.0181,60.25568],[25.02723,60.26175],[25.03118,60.26552],[25.04087,60.28543]],[[25.01824,60.25561],[25.01974,60.25652]],[[25.01824,60.25561],[25.02648,60.26099],[25.02805,60.26216],[25.03008,60.264],[25.03174,60.26599],[25.03317,60.26851],[25.04187,60.28716]],[[25.01954,60.25656],[25.02795,60.26219],[25.03165,60.266],[25.04145,60.28652]],[[25.01974,60.25652],[25.02823,60.2621],[25.03164,60.26543],[25.03616,60.27446],[25.04142,60.28602]],[[25.02097,60.16876],[25.02126,60.16869]],[[25.02126,60.16869],[25.02105,60.16877]],[[25.05042,60.17873],[25.04944,60.17552],[25.04722,60.17548],[25.03794,60.17447],[25.03704,60.17432],[25.03631,60.17411],[25.03559,60.17379],[25.03267,60.17192],[25.03097,60.17135],[25.03055,60.17116],[25.02814,60.16922],[25.02257,60.16854],[25.02105,60.16877]],[[25.02126,60.16869],[25.02275,60.16852],[25.0277,60.1691],[25.02829,60.16925],[25.03678,60.17422],[25.04942,60.17547],[25.05029,60.17711],[25.05048,60.17873]],[[25.02324,60.22326],[25.02275,60.2234]],[[25.05937,60.21165],[25.05964,60.21234],[25.05967,60.21296],[25.05949,60.21366],[25.05893,60.21452],[25.05819,60.21529],[25.05733,60.21588],[25.05626,60.2164],[25.05441,60.21708],[25.05301,60.21749],[25.05106,60.21792],[25.04429,60.21892],[25.02275,60.2234]],[[25.02324,60.22326],[25.04426,60.21889],[25.05439,60.21704],[25.05883,60.21456],[25.05929,60.21162]],[[25.04087,60.28543],[25.04145,60.28652]],[[25.04087,60.28543],[25.0429,60.28986]],[[25.04142,60.28602],[25.04296,60.28938]],[[25.04142,60.28602],[25.04187,60.28716]],[[25.04145,60.28652],[25.0415,60.28665]],[[25.0415,60.28665],[25.0423,60.2881]],[[25.0415,60.28665],[25.04292,60.28972]],[[25.04152,60.20321],[25.04322,60.20457]],[[25.04152,60.20321],[25.04189,60.20359]],[[25.04187,60.28716],[25.0423,60.2881]],[[25.04247,60.20408],[25.04189,60.20359]],[[25.0423,60.2881],[25.04236,60.28824]],[[25.04236,60.28824],[25.04296,60.28938]],[[25.04236,60.28824],[25.04313,60.2899],[25.04356,60.29054]],[[25.04322,60.20457],[25.04247,60.20408]],[[25.0606,60.20851],[25.05659,60.20867],[25.05416,60.20864],[25.0519,60.20841],[25.0491,60.20782],[25.04732,60.20732],[25.04585,60.20664],[25.04247,60.20408]],[[25.0429,60.28986],[25.04349,60.29095]],[[25.0429,60.28986],[25.04631,60.29726]],[[25.04292,60.28972],[25.04328,60.29034]],[[25.04292,60.28972],[25.04349,60.29095]],[[25.04296,60.28938],[25.04367,60.29056]],[[25.04322,60.20457],[25.04858,60.20765],[25.05836,60.20844]],[[25.04328,60.29034],[25.04407,60.29145]],[[25.04328,60.29034],[25.04639,60.29726]],[[25.04349,60.29095],[25.04599,60.2964]],[[25.04356,60.29054],[25.04431,60.29156]],[[25.04356,60.29054],[25.04407,60.29145]],[[25.04367,60.29056],[25.04433,60.29145],[25.0445,60.29172],[25.04595,60.29486],[25.04624,60.29577]],[[25.04367,60.29056],[25.04431,60.29156]],[[25.04407,60.29145],[25.04559,60.29478]],[[25.04431,60.29156],[25.0458,60.29471],[25.04615,60.29578]],[[25.04559,60.29478],[25.04615,60.29578]],[[25.04559,60.29478],[25.04673,60.29799]],[[25.04599,60.2964],[25.04639,60.29726]],[[25.04599,60.2964],[25.04631,60.29726]],[[25.04615,60.29578],[25.04619,60.2959]],[[25.04619,60.2959],[25.04632,60.2962]],[[25.04619,60.2959],[25.04636,60.29652]],[[25.04619,60.32116],[25.0483,60.32072]],[[25.04706,60.32102],[25.04619,60.32116]],[[25.04621,60.29502],[25.04628,60.29548]],[[25.04621,60.29502],[25.04624,60.29577]],[[25.07418,60.29476],[25.06317,60.28845],[25.05954,60.28776],[25.05644,60.28835],[25.04757,60.29291],[25.04621,60.29502]],[[25.04624,60.29577],[25.04627,60.29589]],[[25.04627,60.29589],[25.04646,60.29651]],[[25.04627,60.29589],[25.04632,60.2962]],[[25.04631,60.29726],[25.04871,60.30247]],[[25.04632,60.2962],[25.04646,60.29651]],[[25.04632,60.2962],[25.04636,60.29652]],[[25.04636,60.29652],[25.04713,60.29859]],[[25.04639,60.29726],[25.04673,60.29799]],[[25.04646,60.29651],[25.05164,60.30803]],[[25.04673,60.29799],[25.0468,60.29816]],[[25.0468,60.29816],[25.0476,60.29962]],[[25.0468,60.29816],[25.04822,60.30123]],[[25.04706,60.32102],[25.04748,60.32093]],[[25.04713,60.29859],[25.04894,60.30234]],[[25.04713,60.29859],[25.0476,60.29962]],[[25.0483,60.32072],[25.04748,60.32093]],[[25.04748,60.32093],[25.05071,60.32024],[25.05288,60.31948],[25.05379,60.31896],[25.05449,60.31844],[25.05516,60.3177],[25.05548,60.31712]],[[25.0476,60.29962],[25.04766,60.29974]],[[25.04766,60.29974],[25.05161,60.30832]],[[25.04766,60.29974],[25.04822,60.30123]],[[25.04822,60.30123],[25.04827,60.30134]],[[25.04827,60.30134],[25.05547,60.31692]],[[25.04827,60.30134],[25.04871,60.30247]],[[25.0483,60.32072],[25.05305,60.31932],[25.05543,60.31702]],[[25.04871,60.30247],[25.05543,60.31702]],[[25.06222,60.21582],[25.05472,60.21752],[25.0499,60.21831]],[[25.04997,60.18041],[25.05038,60.17901]],[[25.05044,60.17901],[25.05004,60.18041]],[[25.05038,60.17901],[25.05042,60.17873]],[[25.05043,60.17886],[25.05038,60.17901]],[[25.05043,60.17886],[25.05042,60.17873]],[[25.05044,60.17901],[25.05043,60.17886]],[[25.05048,60.17873],[25.05043,60.17886]],[[25.05048,60.17873],[25.05044,60.17901]],[[25.05161,60.30832],[25.05358,60.31224],[25.05531,60.31514],[25.05552,60.31675]],[[25.05161,60.30832],[25.05552,60.31675]],[[25.05164,60.30803],[25.05552,60.31472],[25.05747,60.32017],[25.06828,60.33202],[25.0711,60.33676]],[[25.05164,60.30803],[25.05541,60.31513],[25.05557,60.31687]],[[25.05543,60.31702],[25.05548,60.31712]],[[25.05543,60.31702],[25.05547,60.31692]],[[25.05547,60.31692],[25.05552,60.31702]],[[25.05547,60.31692],[25.05552,60.31675]],[[25.05548,60.31712],[25.05651,60.31917],[25.05803,60.3214],[25.06822,60.3326],[25.07118,60.33746]],[[25.05548,60.31712],[25.05552,60.31702]],[[25.05552,60.31675],[25.05557,60.31687]],[[25.05552,60.31702],[25.05658,60.31915],[25.0581,60.32137],[25.06829,60.33259],[25.06974,60.33472],[25.07182,60.33857]],[[25.05552,60.31702],[25.05557,60.31687]],[[25.05557,60.31687],[25.05668,60.31913],[25.05818,60.32135],[25.06741,60.33133],[25.06981,60.3347],[25.07162,60.33794]],[[25.05836,60.20844],[25.06368,60.20829],[25.06892,60.20858]],[[25.05836,60.20844],[25.05861,60.20844],[25.05909,60.20845],[25.0606,60.20851]],[[25.05901,60.21105],[25.05884,60.2109]],[[25.05929,60.21162],[25.05884,60.2109]],[[25.05884,60.2109],[25.05785,60.20989],[25.05791,60.2096],[25.05823,60.20948],[25.0611,60.20909],[25.06276,60.20871]],[[25.05887,60.21085],[25.05984,60.21112]],[[25.05887,60.21085],[25.05901,60.21105]],[[25.06282,60.20873],[25.06111,60.20912],[25.05804,60.20959],[25.05887,60.21085]],[[25.05958,60.21118],[25.05901,60.21105]],[[25.05901,60.21105],[25.05927,60.21145]],[[25.05927,60.21145],[25.05937,60.21165]],[[25.05929,60.21162],[25.05927,60.21145]],[[25.05927,60.21145],[25.05935,60.21127],[25.05958,60.21118]],[[25.05986,60.21116],[25.05937,60.21165]],[[25.06294,60.21559],[25.05953,60.21637]],[[25.05958,60.21118],[25.05984,60.21112]],[[25.05986,60.21116],[25.05958,60.21118]],[[25.05984,60.21112],[25.06016,60.2111]],[[25.06031,60.21113],[25.05986,60.21116]],[[25.06016,60.2111],[25.06057,60.21108],[25.06089,60.21115],[25.06104,60.21126],[25.06116,60.21156]],[[25.06016,60.2111],[25.06022,60.2111],[25.06054,60.21112]],[[25.062,60.21427],[25.06126,60.21384],[25.05988,60.21143],[25.06031,60.21113]],[[25.06054,60.21112],[25.06031,60.21113]],[[25.06102,60.21138],[25.06054,60.21112]],[[25.06089,60.2085],[25.0606,60.20851]],[[25.06626,60.20859],[25.06385,60.20846],[25.06089,60.2085]],[[25.06089,60.2085],[25.06148,60.2085],[25.06185,60.20852],[25.06276,60.20871]],[[25.06101,60.21166],[25.06096,60.21189],[25.06189,60.21418]],[[25.06101,60.21166],[25.0609,60.21189],[25.06189,60.21418]],[[25.06101,60.21166],[25.06105,60.21147]],[[25.06102,60.21138],[25.06116,60.21156]],[[25.06105,60.21147],[25.06102,60.21138]],[[25.06109,60.21156],[25.06105,60.21147]],[[25.06113,60.21168],[25.06109,60.21156]],[[25.06109,60.21167],[25.06109,60.21156]],[[25.06109,60.21167],[25.06108,60.21188],[25.06198,60.2141]],[[25.06109,60.21167],[25.06103,60.21191],[25.06198,60.2141]],[[25.06113,60.21168],[25.06204,60.21394],[25.06204,60.2141]],[[25.06113,60.21168],[25.06204,60.2141]],[[25.06116,60.21156],[25.06191,60.21207]],[[25.06189,60.21418],[25.062,60.21427]],[[25.06191,60.21207],[25.0621,60.21216]],[[25.06191,60.21207],[25.06265,60.21359],[25.06287,60.2138]],[[25.06198,60.2141],[25.06203,60.21423]],[[25.06214,60.21435],[25.062,60.21427]],[[25.06203,60.21423],[25.06214,60.21435]],[[25.06204,60.2141],[25.06203,60.21423]],[[25.0621,60.21216],[25.06271,60.21252],[25.0632,60.21377],[25.06311,60.21412]],[[25.0621,60.21216],[25.06287,60.2138]],[[25.06213,60.21349],[25.06221,60.21361],[25.06238,60.21372]],[[25.06308,60.21423],[25.06268,60.21447],[25.06214,60.21435]],[[25.06294,60.21559],[25.06222,60.21582]],[[25.06673,60.21111],[25.0675,60.21305],[25.06711,60.21411],[25.06579,60.2149],[25.06222,60.21582]],[[25.06238,60.21372],[25.06224,60.21348]],[[25.06233,60.21347],[25.06251,60.2138]],[[25.06238,60.21372],[25.06251,60.2138]],[[25.06244,60.21346],[25.06267,60.21389]],[[25.06251,60.2138],[25.06267,60.21389]],[[25.06267,60.21389],[25.06308,60.21423]],[[25.06276,60.20871],[25.06282,60.20873]],[[25.06276,60.20871],[25.06352,60.20861],[25.06424,60.20858],[25.06588,60.20867]],[[25.06282,60.20873],[25.06437,60.20938]],[[25.06579,60.20869],[25.06282,60.20873]],[[25.06287,60.2138],[25.06311,60.21412]],[[25.06336,60.21545],[25.06294,60.21559]],[[25.06336,60.21549],[25.06294,60.21559]],[[25.06296,60.21185],[25.06319,60.21116]],[[25.06311,60.21412],[25.06308,60.21423]],[[25.06312,60.21146],[25.06427,60.21471]],[[25.06336,60.21545],[25.06414,60.21454],[25.06312,60.21146]],[[25.06312,60.21146],[25.06319,60.21116]],[[25.06319,60.21116],[25.06332,60.21084]],[[25.06327,60.21137],[25.06447,60.2147]],[[25.06327,60.21137],[25.06427,60.21471]],[[25.06329,60.21107],[25.06327,60.21137]],[[25.06447,60.2147],[25.06329,60.21107]],[[25.06329,60.21107],[25.06332,60.21084]],[[25.06332,60.21084],[25.06354,60.21047]],[[25.06371,60.21538],[25.06336,60.21549]],[[25.06373,60.21541],[25.06336,60.21549]],[[25.06427,60.21471],[25.06336,60.21545]],[[25.06354,60.21047],[25.06341,60.2109],[25.06343,60.21121],[25.06457,60.21485]],[[25.06376,60.21015],[25.06354,60.21047]],[[25.06359,60.2105],[25.06353,60.21121],[25.06476,60.21433],[25.06457,60.21485]],[[25.06361,60.21055],[25.06365,60.21088]],[[25.06361,60.21055],[25.06363,60.21118],[25.06489,60.21457]],[[25.06376,60.21015],[25.06361,60.21055]],[[25.06365,60.21088],[25.06496,60.21405],[25.06492,60.21457]],[[25.06365,60.21088],[25.06489,60.21457]],[[25.06371,60.21538],[25.06447,60.2147]],[[25.06457,60.21485],[25.06371,60.21538]],[[25.06484,60.21474],[25.06373,60.21541]],[[25.06405,60.21533],[25.06373,60.21541]],[[25.0638,60.2101],[25.06376,60.21015]],[[25.06417,60.2096],[25.0638,60.2101]],[[25.06402,60.20986],[25.0638,60.2101]],[[25.06384,60.21047],[25.06411,60.21096]],[[25.06384,60.21047],[25.06386,60.21063]],[[25.06392,60.21011],[25.06384,60.21047]],[[25.06386,60.21063],[25.06391,60.21081]],[[25.06386,60.21063],[25.06386,60.21081]],[[25.06386,60.21081],[25.06509,60.21392],[25.06508,60.21468]],[[25.06386,60.21081],[25.06505,60.21405],[25.06492,60.21457]],[[25.06391,60.21081],[25.06413,60.21112]],[[25.06391,60.21081],[25.06522,60.21403],[25.06508,60.21468]],[[25.06402,60.20986],[25.06392,60.21011]],[[25.06425,60.20962],[25.06392,60.21011]],[[25.06417,60.2096],[25.06402,60.20986]],[[25.06425,60.20962],[25.06402,60.20986]],[[25.06492,60.2149],[25.06405,60.21533]],[[25.06437,60.21525],[25.06405,60.21533]],[[25.06411,60.21096],[25.06444,60.21127]],[[25.06411,60.21096],[25.06475,60.21189],[25.06559,60.21399],[25.06564,60.21427],[25.06542,60.21467]],[[25.06413,60.21112],[25.06454,60.21172],[25.0655,60.21412],[25.06542,60.21467]],[[25.06413,60.21112],[25.0653,60.21398]],[[25.06437,60.20938],[25.06417,60.2096]],[[25.06444,60.20941],[25.06425,60.20962]],[[25.06542,60.21467],[25.06437,60.21525]],[[25.06473,60.21516],[25.06437,60.21525]],[[25.06437,60.20938],[25.06444,60.20941]],[[25.06437,60.20938],[25.06494,60.20899],[25.06579,60.20869]],[[25.06444,60.21127],[25.06467,60.21148]],[[25.06444,60.21127],[25.06481,60.21175],[25.06572,60.21398],[25.06562,60.21465]],[[25.06444,60.20941],[25.06673,60.21111]],[[25.06594,60.2087],[25.06444,60.20941]],[[25.06467,60.21148],[25.06519,60.21201],[25.06597,60.21395],[25.06587,60.2146]],[[25.06467,60.21148],[25.06499,60.21187],[25.06585,60.21396],[25.06562,60.21465]],[[25.06562,60.21465],[25.06473,60.21516]],[[25.06516,60.21504],[25.06473,60.21516]],[[25.06489,60.21457],[25.06484,60.21474]],[[25.06492,60.21457],[25.06484,60.21474]],[[25.06508,60.21468],[25.06492,60.2149]],[[25.0653,60.21398],[25.06533,60.21444],[25.06492,60.2149]],[[25.06587,60.2146],[25.06516,60.21504]],[[25.06594,60.21472],[25.06516,60.21504]],[[25.06527,60.2139],[25.0653,60.21398]],[[25.06577,60.21308],[25.06612,60.21409],[25.06587,60.2146]],[[25.06594,60.2087],[25.06579,60.20869]],[[25.06579,60.20869],[25.06588,60.20867]],[[25.06588,60.20867],[25.06605,60.20868]],[[25.06588,60.20867],[25.06626,60.20859]],[[25.0659,60.21308],[25.06629,60.21416],[25.06594,60.21472]],[[25.06677,60.21416],[25.06594,60.21472]],[[25.07365,60.20944],[25.06594,60.2087]],[[25.06605,60.20868],[25.06594,60.2087]],[[25.06605,60.20868],[25.07367,60.20942]],[[25.06646,60.20861],[25.06605,60.20868]],[[25.06646,60.20861],[25.06626,60.20859]],[[25.06626,60.20859],[25.06751,60.20852],[25.07021,60.20878]],[[25.06884,60.20878],[25.06646,60.20861]],[[25.07011,60.20881],[25.06776,60.20857],[25.06646,60.20861]],[[25.06651,60.21211],[25.06686,60.21307]],[[25.06653,60.21418],[25.06686,60.21307]],[[25.06695,60.21387],[25.06712,60.21329],[25.06667,60.21209]],[[25.0667,60.2116],[25.06722,60.21303],[25.06721,60.21329]],[[25.0667,60.2116],[25.06721,60.21329]],[[25.06677,60.2113],[25.0667,60.2116]],[[25.06673,60.21111],[25.06677,60.2113]],[[25.06677,60.21416],[25.06695,60.21387]],[[25.06723,60.21358],[25.06677,60.21416]],[[25.06677,60.2113],[25.06738,60.21294],[25.06723,60.21358]],[[25.06686,60.21307],[25.06695,60.21387]],[[25.06721,60.21329],[25.06723,60.21358]],[[25.07011,60.20881],[25.06884,60.20878]],[[25.07508,60.20953],[25.06884,60.20878]],[[25.06892,60.20858],[25.07428,60.20921],[25.07621,60.20962]],[[25.06892,60.20858],[25.07021,60.20878]],[[25.07044,60.20885],[25.07011,60.20881]],[[25.07021,60.20878],[25.07048,60.20881]],[[25.07084,60.20887],[25.07044,60.20885]],[[25.07135,60.20894],[25.07044,60.20885]],[[25.07048,60.20881],[25.07136,60.2089]],[[25.07048,60.20881],[25.07084,60.20887]],[[25.07136,60.2089],[25.07084,60.20887]],[[25.07084,60.20887],[25.07135,60.20894]],[[25.0711,60.33676],[25.07401,60.34239]],[[25.0711,60.33676],[25.07162,60.33794]],[[25.07118,60.33746],[25.07182,60.33857]],[[25.07118,60.33746],[25.07338,60.34174]],[[25.07427,60.20933],[25.07135,60.20894]],[[25.07136,60.2089],[25.07428,60.20929]],[[25.07162,60.33794],[25.07169,60.33806]],[[25.07169,60.33806],[25.07325,60.34111]],[[25.07232,60.33953],[25.07169,60.33806]],[[25.07182,60.33857],[25.07232,60.33953]],[[25.07232,60.33953],[25.07238,60.33965]],[[25.07238,60.33965],[25.07325,60.34111]],[[25.07238,60.33965],[25.07289,60.34063]],[[25.07289,60.34063],[25.08149,60.35726],[25.08234,60.35865],[25.08429,60.36113],[25.09163,60.36884],[25.09282,60.37021],[25.09446,60.37263],[25.09573,60.37547]],[[25.07289,60.34063],[25.07338,60.34174]],[[25.07325,60.34111],[25.07331,60.34122]],[[25.07331,60.34122],[25.07401,60.34239]],[[25.07331,60.34122],[25.0816,60.35725],[25.08273,60.35904],[25.08438,60.3611],[25.09293,60.37019],[25.09456,60.37262],[25.09582,60.37546]],[[25.07338,60.34174],[25.08186,60.35805],[25.08381,60.3607],[25.09273,60.37023],[25.09565,60.37548]],[[25.07387,60.20947],[25.07365,60.20944]],[[25.07407,60.20953],[25.07365,60.20944]],[[25.07367,60.20942],[25.0741,60.2095]],[[25.07367,60.20942],[25.07387,60.20947]],[[25.0741,60.2095],[25.07387,60.20947]],[[25.07387,60.20947],[25.07407,60.20953]],[[25.07401,60.34239],[25.08262,60.35876],[25.09305,60.37017],[25.09469,60.37261],[25.09594,60.37545]],[[25.07457,60.20963],[25.07407,60.20953]],[[25.0741,60.2095],[25.0746,60.20961]],[[25.07888,60.29829],[25.07418,60.29476]],[[25.07573,60.29602],[25.07418,60.29476]],[[25.07427,60.20933],[25.07471,60.20939]],[[25.07508,60.20948],[25.07427,60.20933]],[[25.07428,60.20929],[25.07508,60.20944]],[[25.07428,60.20929],[25.07471,60.20939]],[[25.07471,60.20964],[25.07457,60.20963]],[[25.07484,60.20969],[25.07457,60.20963]],[[25.0746,60.20961],[25.07486,60.20966]],[[25.0746,60.20961],[25.07471,60.20964]],[[25.07486,60.20966],[25.07471,60.20964]],[[25.07471,60.20964],[25.07484,60.20969]],[[25.07471,60.20939],[25.07508,60.20944]],[[25.07471,60.20939],[25.07508,60.20948]],[[25.07493,60.2097],[25.07484,60.20969]],[[25.07486,60.20966],[25.07495,60.20968]],[[25.07559,60.20952],[25.07508,60.20944]],[[25.0754,60.20956],[25.07508,60.20953]],[[25.07595,60.20973],[25.07508,60.20953]],[[25.07586,60.2096],[25.07508,60.20948]],[[25.0754,60.20956],[25.07508,60.20948]],[[25.07586,60.2096],[25.0754,60.20956]],[[25.07595,60.20973],[25.0754,60.20956]],[[25.07621,60.20962],[25.07559,60.20952]],[[25.07617,60.20965],[25.07559,60.20952]],[[25.07838,60.29799],[25.07573,60.29602]],[[25.07611,60.29638],[25.07573,60.29602]],[[25.07617,60.20965],[25.07586,60.2096]],[[25.07957,60.21071],[25.07595,60.20973]],[[25.07782,60.29765],[25.07611,60.29638]],[[25.07857,60.29829],[25.07611,60.29638]],[[25.07973,60.21061],[25.07617,60.20965]],[[25.07621,60.20962],[25.07976,60.21059]],[[25.07797,60.23286],[25.07754,60.2325]],[[25.07838,60.23335],[25.07754,60.2325]],[[25.07754,60.2325],[25.07507,60.22994],[25.07445,60.22912],[25.07415,60.22812],[25.07425,60.2271],[25.07474,60.22614],[25.07682,60.22365],[25.08193,60.21932]],[[25.07838,60.29799],[25.07782,60.29765]],[[25.07873,60.29833],[25.07782,60.29765]],[[25.07797,60.23286],[25.07808,60.23297]],[[25.0823,60.21887],[25.08138,60.22028],[25.0806,60.22115],[25.07698,60.22369],[25.07432,60.2271],[25.07467,60.22934],[25.07797,60.23286]],[[25.07808,60.23297],[25.08025,60.23476],[25.08492,60.23627]],[[25.07808,60.23297],[25.07838,60.23335]],[[25.08483,60.23634],[25.08065,60.23505],[25.07937,60.23429],[25.07838,60.23335]],[[25.07888,60.29829],[25.07838,60.29799]],[[25.07941,60.29868],[25.07888,60.29829]],[[25.08099,60.21106],[25.07957,60.21071]],[[25.08141,60.21132],[25.07957,60.21071]],[[25.08059,60.21084],[25.07973,60.21061]],[[25.08074,60.21093],[25.07973,60.21061]],[[25.07976,60.21059],[25.08145,60.21105],[25.08216,60.21134],[25.08338,60.2122]],[[25.07976,60.21059],[25.08059,60.21084]],[[25.08059,60.21084],[25.08154,60.21117],[25.0832,60.21209]],[[25.08149,60.21124],[25.08074,60.21093]],[[25.08099,60.21106],[25.08074,60.21093]],[[25.08149,60.21124],[25.08099,60.21106]],[[25.08141,60.21132],[25.08099,60.21106]],[[25.08261,60.21828],[25.08426,60.21383],[25.08141,60.21132]],[[25.08309,60.21214],[25.08149,60.21124]],[[25.08193,60.21932],[25.08261,60.21828]],[[25.0823,60.21887],[25.08193,60.21932]],[[25.08237,60.21877],[25.0823,60.21887]],[[25.08261,60.21828],[25.08237,60.21877]],[[25.08362,60.21246],[25.08438,60.21384],[25.08426,60.21507],[25.08237,60.21877]],[[25.08352,60.21235],[25.08309,60.21214]],[[25.08362,60.21246],[25.08309,60.21214]],[[25.0832,60.21209],[25.08338,60.2122]],[[25.08346,60.21228],[25.0832,60.21209]],[[25.08338,60.2122],[25.08938,60.21466],[25.09608,60.21441],[25.1015,60.21208],[25.10427,60.21018],[25.10597,60.20923],[25.10726,60.20865],[25.10921,60.20802],[25.1151,60.2065],[25.11687,60.20614]],[[25.08338,60.2122],[25.08346,60.21228]],[[25.0836,60.21239],[25.08346,60.21228]],[[25.08346,60.21228],[25.08352,60.21235]],[[25.0836,60.21239],[25.08352,60.21235]],[[25.08352,60.21235],[25.08362,60.21246]],[[25.08417,60.21266],[25.0836,60.21239]],[[25.084,60.21269],[25.0836,60.21239]],[[25.084,60.21269],[25.08362,60.21246]],[[25.1159,60.20639],[25.10731,60.20868],[25.10167,60.21214],[25.09611,60.21452],[25.08934,60.21476],[25.084,60.21269]],[[25.08532,60.23643],[25.08483,60.23634]],[[25.08555,60.23652],[25.08483,60.23634]],[[25.08492,60.23627],[25.0856,60.23648]],[[25.08492,60.23627],[25.08532,60.23643]],[[25.0856,60.23648],[25.08532,60.23643]],[[25.08532,60.23643],[25.08555,60.23652]],[[25.10823,60.23836],[25.10139,60.23739],[25.09356,60.23781],[25.0911,60.23775],[25.08878,60.2374],[25.08555,60.23652]],[[25.0856,60.23648],[25.09111,60.23771],[25.10139,60.23735],[25.1084,60.23829]],[[25.16293,60.23202],[25.15772,60.23876],[25.14755,60.24365],[25.13324,60.25227],[25.13161,60.25549],[25.13317,60.26202],[25.13112,60.26573],[25.11558,60.27372],[25.10038,60.29344],[25.09994,60.29624],[25.10514,60.30941],[25.11482,60.32292],[25.11605,60.32779],[25.11158,60.34217],[25.11014,60.35229],[25.10357,60.36287],[25.09544,60.37022],[25.09507,60.37231],[25.09603,60.37544]],[[25.10896,60.23853],[25.10823,60.23836]],[[25.10944,60.23873],[25.10823,60.23836]],[[25.1084,60.23829],[25.1096,60.23867]],[[25.1084,60.23829],[25.10896,60.23853]],[[25.1096,60.23867],[25.10896,60.23853]],[[25.10896,60.23853],[25.10944,60.23873]],[[25.11258,60.23969],[25.10944,60.23873]],[[25.1096,60.23867],[25.11268,60.23961]],[[25.11303,60.23978],[25.11258,60.23969]],[[25.11348,60.23999],[25.11258,60.23969]],[[25.11268,60.23961],[25.11361,60.2399]],[[25.11268,60.23961],[25.11303,60.23978]],[[25.11361,60.2399],[25.11303,60.23978]],[[25.11303,60.23978],[25.11348,60.23999]],[[25.11714,60.24156],[25.11348,60.23999]],[[25.11361,60.2399],[25.11684,60.24115]],[[25.1159,60.20639],[25.11687,60.20614]],[[25.11861,60.20593],[25.1159,60.20639]],[[25.11687,60.20614],[25.11738,60.20605]],[[25.11738,60.20605],[25.12378,60.20492],[25.12569,60.20475],[25.12719,60.20475],[25.12849,60.20486],[25.12988,60.20509],[25.13537,60.2065],[25.13876,60.20686]],[[25.11738,60.20605],[25.11861,60.20593]],[[25.13851,60.20696],[25.13467,60.20643],[25.12761,60.20481],[25.11861,60.20593]],[[25.13851,60.20696],[25.13946,60.20696]],[[25.14046,60.20712],[25.13851,60.20696]],[[25.13876,60.20686],[25.14016,60.20696]],[[25.13876,60.20686],[25.13946,60.20696]],[[25.13946,60.20696],[25.14046,60.20712]],[[25.13946,60.20696],[25.13965,60.20695],[25.14016,60.20696]],[[25.14016,60.20696],[25.14555,60.20733]],[[25.14551,60.20738],[25.14046,60.20712]],[[25.14645,60.20743],[25.14551,60.20738]],[[25.14596,60.20738],[25.14551,60.20738]],[[25.14555,60.20733],[25.14647,60.20739]],[[25.14555,60.20733],[25.14596,60.20738]],[[25.14647,60.20739],[25.14596,60.20738]],[[25.14596,60.20738],[25.14645,60.20743]],[[25.17438,60.21644],[25.16015,60.20931],[25.14645,60.20743]],[[25.14647,60.20739],[25.15054,60.20769]],[[25.16313,60.23139],[25.16274,60.23206]],[[25.16313,60.23139],[25.16293,60.23202]],[[25.1631,60.2317],[25.16293,60.23202]],[[25.17613,60.22474],[25.16905,60.22707],[25.16782,60.22757],[25.16664,60.22816],[25.16547,60.2289],[25.16451,60.22973],[25.16377,60.23058],[25.1631,60.2317]],[[25.16351,60.23117],[25.1631,60.2317]],[[25.16315,60.23132],[25.16313,60.23139]],[[25.16328,60.2309],[25.16315,60.23132]],[[25.16335,60.2309],[25.16315,60.23132]],[[25.16351,60.23117],[25.16316,60.23179]],[[25.17231,60.22573],[25.16877,60.22688],[25.16631,60.22801],[25.16408,60.22962],[25.16347,60.23037],[25.16328,60.2309]],[[25.17332,60.22547],[25.16885,60.22693],[25.1676,60.22745],[25.1664,60.22805],[25.16521,60.22881],[25.16419,60.22965],[25.16356,60.23039],[25.16328,60.2309]],[[25.17399,60.22531],[25.1689,60.22697],[25.16704,60.22778],[25.16583,60.22846],[25.16477,60.22923],[25.1639,60.23009],[25.16335,60.2309]],[[25.17469,60.22513],[25.16895,60.227],[25.1671,60.2278],[25.16484,60.22925],[25.16335,60.2309]],[[25.16363,60.23101],[25.16351,60.23117]],[[25.17574,60.22492],[25.1691,60.2271],[25.16727,60.22789],[25.16609,60.22856],[25.16505,60.22931],[25.16416,60.23015],[25.16363,60.23101]],[[25.16395,60.23061],[25.16363,60.23101]],[[25.17513,60.22516],[25.16915,60.22714],[25.16733,60.22792],[25.16512,60.22933],[25.16395,60.23061]],[[25.17513,60.22516],[25.16742,60.22796],[25.16395,60.23061]],[[25.17231,60.22573],[25.17063,60.22622]],[[25.17438,60.21644],[25.17131,60.21616]],[[25.17332,60.22547],[25.17231,60.22573]],[[25.17399,60.22531],[25.17332,60.22547]],[[25.17469,60.22513],[25.17399,60.22531]],[[25.18162,60.21896],[25.18015,60.21717],[25.17438,60.21644]],[[25.18165,60.21853],[25.17996,60.21688],[25.17463,60.21628]],[[25.17542,60.22493],[25.17469,60.22513]],[[25.17574,60.22492],[25.17513,60.22516]],[[25.17789,60.22414],[25.17542,60.22493]],[[25.17613,60.22474],[25.17542,60.22493]],[[25.18566,60.21253],[25.18255,60.21337],[25.17564,60.21277]],[[25.17579,60.2249],[25.17574,60.22492]],[[25.17579,60.2249],[25.17672,60.22455]],[[25.1787,60.22407],[25.17579,60.2249]],[[25.17672,60.22455],[25.17613,60.22474]],[[25.17722,60.22441],[25.17672,60.22455]],[[25.17789,60.22414],[25.17722,60.22441]],[[25.17737,60.22436],[25.17722,60.22441]],[[25.1781,60.22412],[25.17737,60.22436]],[[25.17776,60.22427],[25.17737,60.22436]],[[25.17957,60.22387],[25.17776,60.22427]],[[25.1787,60.22407],[25.17776,60.22427]],[[25.17818,60.22404],[25.17789,60.22414]],[[25.18785,60.22096],[25.1781,60.22412]],[[25.17892,60.22391],[25.1781,60.22412]],[[25.17887,60.22378],[25.17818,60.22404]],[[25.18785,60.22096],[25.17818,60.22404]],[[25.18786,60.22356],[25.18616,60.22388],[25.18446,60.22406],[25.1787,60.22407]],[[25.1814,60.22149],[25.17887,60.22378]],[[25.18419,60.21619],[25.18348,60.22143],[25.17887,60.22378]],[[25.18803,60.22095],[25.17892,60.22391]],[[25.18808,60.22098],[25.17892,60.22391]],[[25.18641,60.22194],[25.17957,60.22387]],[[25.1855,60.22393],[25.18406,60.22402],[25.18126,60.22379],[25.17957,60.22387]],[[25.1814,60.22149],[25.18148,60.21895]],[[25.18162,60.21896],[25.1814,60.22149]],[[25.18165,60.21853],[25.18162,60.21896]],[[25.1817,60.21801],[25.18165,60.21853]],[[25.18179,60.21548],[25.1817,60.21801]],[[25.18292,60.21428],[25.1817,60.21801]],[[25.18329,60.214],[25.18292,60.21428]],[[25.18983,60.21021],[25.18292,60.21428]],[[25.18566,60.21253],[25.18389,60.21357],[25.18329,60.214]],[[25.18976,60.21019],[25.18329,60.214]],[[25.19349,60.2223],[25.1855,60.22393]],[[25.18706,60.22369],[25.1855,60.22393]],[[25.18969,60.21017],[25.18566,60.21253]],[[25.19349,60.2223],[25.18706,60.22369]],[[25.18706,60.22369],[25.18786,60.22356]],[[25.18974,60.2203],[25.18785,60.22096]],[[25.19428,60.22219],[25.18786,60.22356]],[[25.19679,60.21631],[25.18974,60.2203]],[[25.19688,60.21634],[25.18974,60.2203]],[[25.19428,60.22219],[25.19349,60.2223]],[[25.19785,60.22143],[25.19428,60.22219]]]},"bbox":[24.6359209,60.141012,25.1978464,60.3754776]}],"bbox":[24.6359209,60.141012,25.1978464,60.3754776]}