{"type":"FeatureCollection","features":[{"id":"0","type":"Feature","properties":{},"geometry":{"type":"MultiLineString","coordinates":[[[24.90752,60.19123],[24.89975,60.19147],[24.89377,60.19363],[24.8906,60.19509],[24.88956,60.19546],[24.88801,60.19581],[24.87654,60.19811],[24.87602,60.19808],[24.87568,60.19795],[24.87125,60.19494],[24.87159,60.19462]],[[24.87159,60.19462],[24.87321,60.19437]],[[24.87159,60.19462],[24.87274,60.19448],[24.87321,60.19437]],[[24.87321,60.19437],[24.87334,60.19583],[24.87653,60.19808],[24.88954,60.19543],[24.89375,60.19361],[24.89975,60.19144],[24.90729,60.19121]],[[24.89877,60.20322],[24.89907,60.20322]],[[24.89883,60.20325],[24.89594,60.20377],[24.89564,60.20465],[24.8919,60.2056],[24.89185,60.20573],[24.89201,60.20599],[24.89198,60.20626],[24.89131,60.20683],[24.89282,60.20829],[24.89206,60.20834],[24.89124,60.2068],[24.89182,60.20559],[24.89553,60.20464],[24.89582,60.20377],[24.89877,60.20322]],[[24.89877,60.20322],[24.89921,60.20303]],[[24.89952,60.20326],[24.89883,60.20325]],[[24.89907,60.20322],[24.89883,60.20325]],[[24.89923,60.20313],[24.89907,60.20322]],[[24.89907,60.20322],[24.89934,60.20321]],[[24.89923,60.20313],[24.89921,60.20303]],[[24.89921,60.20303],[24.89931,60.20131],[24.89941,60.20092],[24.89961,60.20057],[24.90119,60.19866],[24.90154,60.19594],[24.9018,60.19552]],[[24.89934,60.20321],[24.89923,60.20313]],[[24.89926,60.20294],[24.89923,60.20313]],[[24.89926,60.20294],[24.89967,60.20321]],[[24.90194,60.19545],[24.90125,60.19867],[24.89943,60.201],[24.89926,60.20294]],[[24.89934,60.20321],[24.89967,60.20321]],[[24.89952,60.20326],[24.89934,60.20321]],[[24.90182,60.20562],[24.90034,60.20512],[24.90027,60.20499],[24.90035,60.20343],[24.90012,60.20328],[24.90001,60.20326],[24.89966,60.20326],[24.89958,60.20326],[24.89952,60.20326]],[[24.89967,60.20321],[24.90014,60.20322],[24.9004,60.20335],[24.90038,60.20509],[24.90155,60.20545]],[[24.90218,60.20577],[24.90155,60.20545]],[[24.90155,60.20545],[24.90182,60.20562]],[[24.9018,60.19552],[24.90133,60.19534],[24.90315,60.19465]],[[24.9018,60.19552],[24.9025,60.19497],[24.90315,60.19465]],[[24.90194,60.19545],[24.9018,60.19552]],[[24.90218,60.20577],[24.90182,60.20562]],[[24.90182,60.20562],[24.90276,60.2061]],[[24.91348,60.19101],[24.91271,60.19134],[24.903,60.19475],[24.90194,60.19545]],[[24.90299,60.20604],[24.90218,60.20577]],[[24.90276,60.2061],[24.90291,60.20616]],[[24.90276,60.2061],[24.90284,60.2063]],[[24.90284,60.2063],[24.90294,60.20744],[24.90347,60.20762]],[[24.90291,60.20616],[24.90284,60.2063]],[[24.90291,60.20616],[24.90298,60.20619]],[[24.90294,60.20614],[24.90291,60.20616]],[[24.90322,60.20605],[24.90294,60.20614]],[[24.90348,60.20608],[24.90294,60.20614]],[[24.90298,60.20619],[24.90317,60.20629]],[[24.90298,60.20619],[24.90324,60.2073],[24.90346,60.20744]],[[24.9034,60.20605],[24.90299,60.20604]],[[24.90322,60.20605],[24.90299,60.20604]],[[24.90315,60.19465],[24.91317,60.19111]],[[24.90317,60.20629],[24.90337,60.20638]],[[24.90317,60.20629],[24.90331,60.20657]],[[24.90348,60.20608],[24.90322,60.20605]],[[24.9034,60.20605],[24.90322,60.20605]],[[24.90331,60.20657],[24.90346,60.20744]],[[24.90337,60.20638],[24.90331,60.20657]],[[24.90337,60.20638],[24.90343,60.20647]],[[24.90342,60.20627],[24.90337,60.20638]],[[24.90391,60.20604],[24.9034,60.20605]],[[24.90342,60.20627],[24.90343,60.20647]],[[24.90364,60.2061],[24.90342,60.20627]],[[24.90343,60.20647],[24.90359,60.2075]],[[24.90346,60.20744],[24.90359,60.2075]],[[24.90347,60.20762],[24.90374,60.20756]],[[24.90347,60.20762],[24.90403,60.20762]],[[24.90364,60.2061],[24.90348,60.20608]],[[24.90359,60.2075],[24.90374,60.20756]],[[24.90378,60.20613],[24.90364,60.2061]],[[24.90391,60.20604],[24.90364,60.2061]],[[24.90374,60.20756],[24.90403,60.20762]],[[24.90374,60.20756],[24.90391,60.20752]],[[24.90387,60.20614],[24.90378,60.20613]],[[24.90384,60.20616],[24.90378,60.20613]],[[24.90405,60.20731],[24.90396,60.20625],[24.90384,60.20616]],[[24.90405,60.20731],[24.90384,60.20616]],[[24.90402,60.20748],[24.90425,60.20733],[24.90419,60.20629],[24.90411,60.20619],[24.90387,60.20614]],[[24.90387,60.20614],[24.90408,60.20628],[24.90415,60.20733],[24.90402,60.20748]],[[24.90391,60.20752],[24.90405,60.20731]],[[24.90391,60.20752],[24.90402,60.20748]],[[24.90397,60.20604],[24.90391,60.20604]],[[24.90415,60.20607],[24.90397,60.20604]],[[24.90428,60.20604],[24.90397,60.20604]],[[24.90403,60.20762],[24.90411,60.20762]],[[24.90411,60.20762],[24.90423,60.20759]],[[24.90411,60.20762],[24.90427,60.20762]],[[24.90423,60.20759],[24.9045,60.2075],[24.90458,60.2073],[24.90451,60.20626],[24.90438,60.20614],[24.90425,60.2061],[24.90415,60.20607]],[[24.90426,60.20612],[24.90415,60.20607]],[[24.90423,60.20759],[24.90437,60.20752]],[[24.90437,60.20752],[24.90452,60.2073],[24.90446,60.20632],[24.90426,60.20612]],[[24.90432,60.20621],[24.90426,60.20612]],[[24.90427,60.20762],[24.90462,60.20749]],[[24.90427,60.20762],[24.90459,60.20758]],[[24.90442,60.20606],[24.90428,60.20604]],[[24.90453,60.20603],[24.90428,60.20604]],[[24.90439,60.20746],[24.90445,60.20731],[24.90432,60.20621]],[[24.90439,60.20746],[24.90432,60.20621]],[[24.90437,60.20752],[24.90439,60.20746]],[[24.90459,60.20758],[24.90485,60.2073],[24.90479,60.20632],[24.90465,60.20613],[24.90452,60.20609],[24.90442,60.20606]],[[24.90453,60.20611],[24.90442,60.20606]],[[24.90469,60.20606],[24.90453,60.20603]],[[24.9048,60.20603],[24.90453,60.20603]],[[24.90462,60.20749],[24.90479,60.2073],[24.90473,60.20632],[24.90453,60.20611]],[[24.90459,60.2062],[24.90453,60.20611]],[[24.90459,60.20758],[24.90472,60.20754]],[[24.90466,60.20741],[24.90473,60.2073],[24.90459,60.2062]],[[24.90466,60.20741],[24.90459,60.2062]],[[24.90462,60.20749],[24.90466,60.20741]],[[24.90497,60.20737],[24.90508,60.2073],[24.90511,60.20721],[24.90505,60.20625],[24.90492,60.20613],[24.9048,60.20609],[24.90469,60.20606]],[[24.9048,60.20611],[24.90469,60.20606]],[[24.90472,60.20754],[24.90484,60.20744]],[[24.90472,60.20754],[24.90487,60.20749]],[[24.90496,60.20606],[24.9048,60.20603]],[[24.90534,60.20602],[24.9048,60.20603]],[[24.90497,60.20737],[24.90505,60.20723],[24.905,60.20632],[24.9048,60.20611]],[[24.90486,60.2062],[24.9048,60.20611]],[[24.90484,60.20744],[24.90491,60.20737]],[[24.90484,60.20744],[24.90497,60.20737]],[[24.90491,60.20737],[24.90498,60.20725],[24.90486,60.2062]],[[24.90491,60.20737],[24.90486,60.2062]],[[24.90487,60.20749],[24.90518,60.20721],[24.90513,60.20619]],[[24.90487,60.20749],[24.9051,60.20741]],[[24.90517,60.20735],[24.90537,60.20714],[24.90533,60.20631],[24.90519,60.20613],[24.90507,60.20608],[24.90496,60.20606]],[[24.90507,60.20611],[24.90496,60.20606]],[[24.90523,60.20606],[24.90506,60.20603]],[[24.90522,60.20729],[24.90531,60.20714],[24.90527,60.20631],[24.90507,60.20611]],[[24.90513,60.20619],[24.90507,60.20611]],[[24.9051,60.20741],[24.90517,60.20735]],[[24.9051,60.20741],[24.90535,60.20728]],[[24.90522,60.20729],[24.90513,60.20619]],[[24.90517,60.20735],[24.90522,60.20729]],[[24.90554,60.20714],[24.90564,60.20699],[24.9056,60.20625],[24.90546,60.20613],[24.90534,60.20608],[24.90523,60.20606]],[[24.90535,60.20611],[24.90523,60.20606]],[[24.90551,60.20605],[24.90534,60.20602]],[[24.90576,60.20706],[24.906,60.20688],[24.90597,60.20622],[24.90575,60.20604],[24.90556,60.20602],[24.90534,60.20602]],[[24.90554,60.20714],[24.90554,60.20631],[24.90535,60.20611]],[[24.90541,60.20619],[24.90535,60.20611]],[[24.90535,60.20728],[24.90542,60.20721]],[[24.90535,60.20728],[24.9055,60.2072]],[[24.90542,60.20721],[24.90552,60.20705],[24.90541,60.20619]],[[24.90542,60.20721],[24.90541,60.20619]],[[24.9055,60.2072],[24.90554,60.20714]],[[24.9055,60.2072],[24.90562,60.20713]],[[24.90579,60.20702],[24.90591,60.20689],[24.90587,60.20624],[24.90573,60.20612],[24.90561,60.20608],[24.90551,60.20605]],[[24.90562,60.2061],[24.90551,60.20605]],[[24.90579,60.20702],[24.90581,60.2063],[24.90562,60.2061]],[[24.90568,60.20619],[24.90562,60.2061]],[[24.90562,60.20713],[24.9057,60.20704]],[[24.90562,60.20713],[24.90576,60.20706]],[[24.9057,60.20704],[24.90578,60.20689],[24.90568,60.20619]],[[24.9057,60.20704],[24.90568,60.20619]],[[24.90576,60.20706],[24.90579,60.20702]],[[24.90752,60.19123],[24.90729,60.19121]],[[24.90729,60.19121],[24.90909,60.19118]],[[24.90729,60.19121],[24.90739,60.19121],[24.90909,60.19118]],[[24.91317,60.19111],[24.90752,60.19123]],[[24.90866,60.15358],[24.90922,60.15374]],[[24.90963,60.15255],[24.90954,60.15253],[24.90947,60.15252],[24.90941,60.15252],[24.9092,60.15253],[24.90894,60.15265],[24.90839,60.15333],[24.90844,60.15349],[24.90854,60.15354],[24.90866,60.15358]],[[24.90963,60.15255],[24.90866,60.15358]],[[24.90909,60.19118],[24.91344,60.19099]],[[24.90922,60.15374],[24.90985,60.15357]],[[24.90922,60.15374],[24.90974,60.15395]],[[24.91,60.15264],[24.90963,60.15255]],[[24.90974,60.15395],[24.90978,60.15407]],[[24.91177,60.15725],[24.91181,60.15696],[24.91065,60.15622],[24.91018,60.15553],[24.90979,60.15473],[24.90974,60.15395]],[[24.90974,60.15395],[24.90985,60.15357]],[[24.90978,60.15407],[24.91191,60.157],[24.91193,60.15714],[24.9117,60.15746]],[[24.9106,60.15254],[24.90978,60.15407]],[[24.90985,60.15357],[24.9102,60.15293]],[[24.91046,60.15262],[24.9102,60.15266],[24.91,60.15264]],[[24.9102,60.15293],[24.91,60.15264]],[[24.9102,60.15293],[24.91046,60.15262]],[[24.91046,60.15262],[24.91096,60.15218],[24.91146,60.15186],[24.91267,60.15129],[24.91513,60.1506],[24.91542,60.15059],[24.91566,60.15067],[24.92198,60.15656],[24.92173,60.16031]],[[24.9106,60.15254],[24.91046,60.15262]],[[24.9164,60.15141],[24.91508,60.15064],[24.9106,60.15254]],[[24.91145,60.15774],[24.91125,60.15762]],[[24.91126,60.15792],[24.91125,60.15762]],[[24.91125,60.15762],[24.91028,60.15687],[24.91177,60.15725]],[[24.92075,60.1636],[24.90823,60.16317],[24.90789,60.16307],[24.90709,60.162],[24.90758,60.16119],[24.9088,60.15969],[24.91126,60.15792]],[[24.91126,60.15792],[24.91145,60.15774]],[[24.9115,60.15777],[24.91145,60.15774]],[[24.91145,60.15774],[24.91154,60.15759]],[[24.91178,60.15788],[24.9116,60.15782],[24.9115,60.15777]],[[24.9115,60.15777],[24.90767,60.16114],[24.90716,60.16201],[24.90793,60.16303],[24.92085,60.16357]],[[24.91153,60.15773],[24.9115,60.15777]],[[24.91178,60.15788],[24.91153,60.15773]],[[24.91153,60.15773],[24.91154,60.15759]],[[24.91161,60.1576],[24.91153,60.15773]],[[24.91154,60.15759],[24.91177,60.15725]],[[24.91161,60.1576],[24.9215,60.16024]],[[24.9117,60.15746],[24.91161,60.1576]],[[24.91177,60.15725],[24.9117,60.15746]],[[24.92169,60.16033],[24.91178,60.15788]],[[24.91317,60.19111],[24.91344,60.19099]],[[24.91348,60.19101],[24.91317,60.19111]],[[24.91344,60.19099],[24.91597,60.1899]],[[24.91601,60.18992],[24.91348,60.19101]],[[24.91597,60.1899],[24.91863,60.18793]],[[24.91597,60.1899],[24.91636,60.18974]],[[24.91636,60.18974],[24.91601,60.18992]],[[24.92122,60.19006],[24.91665,60.18974],[24.91601,60.18992]],[[24.91857,60.18805],[24.91636,60.18974]],[[24.91636,60.18974],[24.91678,60.18972],[24.92099,60.18994]],[[24.91714,60.1521],[24.9164,60.15141]],[[24.91714,60.1521],[24.91656,60.15162],[24.9164,60.15141]],[[24.9215,60.16024],[24.92193,60.1566],[24.91714,60.1521]],[[24.92099,60.18994],[24.91986,60.1893],[24.91942,60.18897],[24.91862,60.18823],[24.91857,60.18805]],[[24.91857,60.18805],[24.91863,60.18793]],[[24.91869,60.18793],[24.91857,60.18805]],[[24.91863,60.18793],[24.91951,60.18708],[24.92068,60.18617],[24.92184,60.18533],[24.92505,60.18322]],[[24.91869,60.18793],[24.92121,60.19002]],[[24.92524,60.18314],[24.91869,60.18793]],[[24.92049,60.20699],[24.91962,60.20709]],[[24.92049,60.20699],[24.91926,60.20739],[24.91962,60.20709]],[[24.91962,60.20709],[24.92018,60.20677],[24.91933,60.20593],[24.91919,60.20557],[24.91807,60.20449],[24.91802,60.20435],[24.91809,60.20419],[24.92041,60.20236],[24.92065,60.20224],[24.92098,60.20223],[24.92542,60.20275],[24.92584,60.20269],[24.92708,60.20023]],[[24.92031,60.184],[24.92109,60.18432],[24.92133,60.1843],[24.92152,60.18421]],[[24.92038,60.18396],[24.92113,60.18426],[24.92152,60.18421]],[[24.92045,60.18391],[24.92163,60.18413]],[[24.92724,60.20005],[24.92588,60.20274],[24.92546,60.20279],[24.9207,60.20227],[24.91815,60.20419],[24.92049,60.20699]],[[24.92104,60.16361],[24.92075,60.1636]],[[24.92194,60.17543],[24.92172,60.17513],[24.9194,60.17372],[24.91927,60.17355],[24.92098,60.16932],[24.92075,60.1636]],[[24.92085,60.16357],[24.92206,60.16362],[24.92253,60.16383]],[[24.92085,60.16357],[24.92104,60.16361]],[[24.92099,60.18994],[24.92121,60.19002]],[[24.92122,60.19006],[24.92099,60.18994]],[[24.92277,60.16397],[24.92104,60.16361]],[[24.92104,60.16361],[24.92103,60.16932],[24.91933,60.17355],[24.91944,60.1737],[24.92175,60.1751],[24.92195,60.1753]],[[24.92121,60.19002],[24.92887,60.19226]],[[24.92886,60.19229],[24.92122,60.19006]],[[24.9215,60.16024],[24.92173,60.16031]],[[24.92169,60.16033],[24.9215,60.16024]],[[24.92152,60.18421],[24.92163,60.18413]],[[24.92162,60.18435],[24.9224,60.18384],[24.92273,60.18375]],[[24.92163,60.18413],[24.92246,60.18349]],[[24.92239,60.16206],[24.92197,60.1619],[24.9218,60.16175],[24.92169,60.16033]],[[24.9217,60.18438],[24.92273,60.18375]],[[24.92173,60.16031],[24.92242,60.16203]],[[24.92175,60.1844],[24.92265,60.18381],[24.92288,60.18375]],[[24.9218,60.18442],[24.92288,60.18375]],[[24.92184,60.18444],[24.92284,60.18379],[24.92308,60.18373]],[[24.92545,60.18099],[24.92442,60.18049],[24.92284,60.17891],[24.92194,60.17543]],[[24.92194,60.17543],[24.92195,60.1753]],[[24.92195,60.1753],[24.92199,60.17543]],[[24.92195,60.1753],[24.92217,60.17439],[24.92252,60.17349],[24.92332,60.17237],[24.92398,60.17167],[24.92439,60.17136],[24.92467,60.17126],[24.92717,60.17119]],[[24.92199,60.17543],[24.92291,60.17892],[24.92554,60.18099]],[[24.92721,60.17123],[24.92402,60.17169],[24.92199,60.17543]],[[24.92202,60.18439],[24.9229,60.18381],[24.92311,60.18375]],[[24.92207,60.18441],[24.92311,60.18375]],[[24.92212,60.18443],[24.92306,60.18381],[24.92326,60.18375]],[[24.92217,60.18445],[24.92326,60.18375]],[[24.92222,60.18447],[24.92318,60.18384],[24.92329,60.1838],[24.92343,60.18377]],[[24.92227,60.18448],[24.92343,60.18377]],[[24.92232,60.1845],[24.9232,60.18394],[24.92345,60.18383]],[[24.92237,60.18452],[24.92345,60.18383]],[[24.92274,60.16218],[24.92239,60.16206]],[[24.92274,60.16218],[24.92255,60.16211],[24.92239,60.16206]],[[24.92242,60.18454],[24.92347,60.18385]],[[24.92242,60.16203],[24.92277,60.16216]],[[24.92242,60.16203],[24.92258,60.16209],[24.92277,60.16216]],[[24.92286,60.18373],[24.92246,60.18349]],[[24.92246,60.18349],[24.92316,60.18298]],[[24.92247,60.18456],[24.92347,60.18385]],[[24.92252,60.18458],[24.92353,60.18392]],[[24.92253,60.16383],[24.92281,60.16395]],[[24.92277,60.16397],[24.92253,60.16383]],[[24.92253,60.16383],[24.92248,60.16365],[24.92262,60.16311],[24.92333,60.16253],[24.92295,60.16225]],[[24.92257,60.1846],[24.92353,60.18392]],[[24.92273,60.18375],[24.92286,60.18373]],[[24.92295,60.16225],[24.92274,60.16218]],[[24.93163,60.16825],[24.93145,60.16811],[24.93058,60.16655],[24.92975,60.16643],[24.92277,60.16397]],[[24.92277,60.16216],[24.92298,60.16223]],[[24.92281,60.16395],[24.93064,60.16654],[24.93186,60.16829]],[[24.92327,60.16234],[24.92339,60.16256],[24.92265,60.16318],[24.92281,60.16395]],[[24.92302,60.18373],[24.92286,60.18373]],[[24.92288,60.18375],[24.92302,60.18373]],[[24.92327,60.16234],[24.92295,60.16225]],[[24.92298,60.16223],[24.92388,60.16213]],[[24.92298,60.16223],[24.92327,60.16234]],[[24.92308,60.18373],[24.92302,60.18373]],[[24.92324,60.18373],[24.92308,60.18373]],[[24.92311,60.18375],[24.92324,60.18373]],[[24.92316,60.18298],[24.92361,60.18266]],[[24.92316,60.18298],[24.9236,60.18288]],[[24.92339,60.18373],[24.92324,60.18373]],[[24.92326,60.18375],[24.92339,60.18373]],[[24.92396,60.16246],[24.92327,60.16234]],[[24.92363,60.18373],[24.92352,60.18373],[24.92339,60.18373]],[[24.92343,60.18377],[24.92363,60.18373]],[[24.92345,60.18383],[24.92362,60.18377]],[[24.92347,60.18385],[24.92362,60.18377]],[[24.92353,60.18392],[24.92399,60.18363]],[[24.9236,60.18288],[24.92375,60.18292]],[[24.92426,60.18312],[24.9236,60.18288]],[[24.9236,60.18288],[24.92353,60.18276],[24.92361,60.18266]],[[24.92361,60.18266],[24.92554,60.18129]],[[24.92362,60.18377],[24.92383,60.18369]],[[24.92383,60.18369],[24.92363,60.18373]],[[24.92375,60.18292],[24.92434,60.18311]],[[24.92559,60.18131],[24.92375,60.18292]],[[24.92383,60.18369],[24.92399,60.18363]],[[24.92396,60.16246],[24.92388,60.16213]],[[24.92388,60.16213],[24.92594,60.161],[24.9298,60.16181]],[[24.93044,60.16204],[24.9274,60.1636],[24.92396,60.16246]],[[24.92399,60.18363],[24.92408,60.18357]],[[24.92408,60.18357],[24.92436,60.18339]],[[24.92441,60.1834],[24.92408,60.18357]],[[24.92446,60.18319],[24.92426,60.18312]],[[24.92436,60.18339],[24.92426,60.18312]],[[24.92434,60.18311],[24.92487,60.18322]],[[24.92434,60.18311],[24.92446,60.18319]],[[24.92436,60.18339],[24.9245,60.1833]],[[24.9245,60.1833],[24.92441,60.1834]],[[24.92485,60.18324],[24.92441,60.1834]],[[24.92466,60.18324],[24.92446,60.18319]],[[24.92446,60.18319],[24.9245,60.1833]],[[24.9245,60.1833],[24.92466,60.18324]],[[24.92485,60.18324],[24.92466,60.18324]],[[24.92466,60.18324],[24.92487,60.18322]],[[24.92505,60.18322],[24.92485,60.18324]],[[24.92487,60.18322],[24.92522,60.18311]],[[24.92505,60.18322],[24.92522,60.18311]],[[24.92524,60.18314],[24.92505,60.18322]],[[24.92708,60.20023],[24.92511,60.19918]],[[24.92511,60.19918],[24.92554,60.19825]],[[24.92511,60.19918],[24.9255,60.19848],[24.92554,60.19825]],[[24.92522,60.18311],[24.92709,60.18192]],[[24.92713,60.18193],[24.92524,60.18314]],[[24.92566,60.18109],[24.92545,60.18099]],[[24.92554,60.18129],[24.92545,60.18099]],[[24.92554,60.18099],[24.92613,60.18123]],[[24.92554,60.18099],[24.92566,60.18109]],[[24.92554,60.19825],[24.92864,60.19587]],[[24.92554,60.18129],[24.92568,60.18122]],[[24.92568,60.18122],[24.92559,60.18131]],[[24.92613,60.18127],[24.92559,60.18131]],[[24.92592,60.18119],[24.92566,60.18109]],[[24.92566,60.18109],[24.92568,60.18122]],[[24.92568,60.18122],[24.92592,60.18119]],[[24.92592,60.18119],[24.92613,60.18123]],[[24.92613,60.18127],[24.92592,60.18119]],[[24.92613,60.18123],[24.92707,60.18163]],[[24.92697,60.18162],[24.92613,60.18127]],[[24.92722,60.18173],[24.92697,60.18162]],[[24.92709,60.18192],[24.92697,60.18162]],[[24.92707,60.18163],[24.92734,60.18174]],[[24.92707,60.18163],[24.92722,60.18173]],[[24.92708,60.20023],[24.9283,60.19764]],[[24.92724,60.20005],[24.92708,60.20023]],[[24.92709,60.18192],[24.92724,60.18181]],[[24.92724,60.18181],[24.92713,60.18193]],[[24.92735,60.18179],[24.92713,60.18193]],[[24.92717,60.17119],[24.93121,60.16837],[24.93163,60.16825]],[[24.92717,60.17119],[24.92742,60.17119]],[[24.92742,60.17119],[24.92721,60.17123]],[[24.93624,60.17115],[24.92721,60.17123]],[[24.9273,60.18177],[24.92722,60.18173]],[[24.92722,60.18173],[24.92724,60.18181]],[[24.92836,60.19766],[24.92724,60.20005]],[[24.92724,60.18181],[24.9273,60.18177]],[[24.92735,60.18179],[24.9273,60.18177]],[[24.9273,60.18177],[24.92734,60.18174]],[[24.92734,60.18174],[24.92738,60.18176]],[[24.92734,60.18174],[24.92741,60.18165]],[[24.92771,60.18192],[24.92735,60.18179]],[[24.92738,60.18176],[24.92735,60.18179]],[[24.92738,60.18176],[24.92746,60.1818]],[[24.92742,60.18173],[24.92738,60.18176]],[[24.92742,60.18173],[24.92741,60.18165]],[[24.92741,60.18165],[24.92955,60.17764],[24.93035,60.17683],[24.93274,60.17471],[24.93378,60.17352],[24.93591,60.17133],[24.93624,60.17115]],[[24.92746,60.1818],[24.92742,60.18173]],[[24.92752,60.18158],[24.92742,60.18173]],[[24.92742,60.17119],[24.93646,60.17107]],[[24.93187,60.16833],[24.92742,60.17119]],[[24.92746,60.1818],[24.92784,60.18193]],[[24.92771,60.18192],[24.92746,60.1818]],[[24.92752,60.18158],[24.92784,60.18193]],[[24.93705,60.17086],[24.92961,60.17763],[24.92752,60.18158]],[[24.94813,60.18651],[24.94352,60.18636],[24.94002,60.18591],[24.93239,60.18479],[24.93204,60.1846],[24.93111,60.18305],[24.92771,60.18192]],[[24.92784,60.18193],[24.93116,60.18303],[24.93253,60.18479],[24.94813,60.18648]],[[24.9283,60.19764],[24.92853,60.19715]],[[24.9283,60.19764],[24.92844,60.19751]],[[24.92844,60.19751],[24.92836,60.19766]],[[24.92908,60.19749],[24.92836,60.19766]],[[24.92853,60.19729],[24.92844,60.19751]],[[24.92844,60.19751],[24.92879,60.19744]],[[24.92853,60.19729],[24.92853,60.19715]],[[24.92853,60.19715],[24.92903,60.19601]],[[24.92879,60.19744],[24.92853,60.19729]],[[24.92861,60.19713],[24.92853,60.19729]],[[24.92861,60.19713],[24.92913,60.19747]],[[24.92907,60.19613],[24.92861,60.19713]],[[24.92864,60.19587],[24.92903,60.19601]],[[24.92864,60.19587],[24.92917,60.19572]],[[24.92879,60.19744],[24.92913,60.19747]],[[24.92908,60.19749],[24.92879,60.19744]],[[24.92913,60.19234],[24.92886,60.19229]],[[24.92917,60.19572],[24.93009,60.19401],[24.92924,60.1929],[24.92919,60.19244],[24.92886,60.19229]],[[24.92887,60.19226],[24.93412,60.19306],[24.93806,60.1916],[24.9391,60.19132],[24.93994,60.19121],[24.94476,60.19098],[24.94824,60.18923]],[[24.92887,60.19226],[24.92913,60.19234]],[[24.92903,60.19601],[24.92907,60.19613]],[[24.92903,60.19601],[24.92917,60.19572]],[[24.92913,60.19234],[24.92929,60.19249],[24.9293,60.1929],[24.93016,60.19408],[24.92907,60.19613]],[[24.93436,60.1981],[24.92908,60.19749]],[[24.94823,60.18934],[24.9448,60.19101],[24.93911,60.19135],[24.9341,60.1931],[24.92913,60.19234]],[[24.92913,60.19747],[24.9352,60.19815]],[[24.9298,60.16181],[24.92997,60.16185]],[[24.93044,60.16204],[24.9298,60.16181]],[[24.9298,60.16181],[24.92963,60.16163],[24.92952,60.16119],[24.92959,60.16101],[24.93327,60.15801]],[[24.92997,60.16185],[24.93714,60.16435]],[[24.93323,60.15816],[24.92963,60.16104],[24.92997,60.16185]],[[24.93728,60.16443],[24.93044,60.16204]],[[24.93333,60.15791],[24.93497,60.1551],[24.93049,60.15431]],[[24.93049,60.15431],[24.93029,60.15428],[24.93011,60.15422],[24.93001,60.15411],[24.93002,60.15401],[24.93022,60.15389],[24.93094,60.15369],[24.93125,60.15367],[24.93152,60.15373],[24.9317,60.15384],[24.93174,60.15398],[24.93167,60.15412]],[[24.93049,60.15431],[24.93167,60.15412]],[[24.93163,60.16825],[24.93186,60.16829]],[[24.93187,60.16833],[24.93163,60.16825]],[[24.93167,60.15412],[24.93176,60.15447],[24.93474,60.15496],[24.93509,60.15516],[24.93349,60.15778]],[[24.93186,60.16829],[24.93501,60.16857],[24.93808,60.16973]],[[24.9381,60.16977],[24.93187,60.16833]],[[24.94047,60.15802],[24.93546,60.15781],[24.93465,60.15849],[24.93323,60.15816]],[[24.93323,60.15816],[24.93327,60.15801]],[[24.93347,60.15778],[24.93323,60.15816]],[[24.93327,60.15801],[24.93333,60.15791]],[[24.93333,60.15791],[24.93347,60.15778]],[[24.93347,60.15778],[24.93349,60.15778]],[[24.93349,60.15778],[24.93389,60.1577],[24.94052,60.158]],[[24.93955,60.20038],[24.93853,60.2016],[24.93373,60.20102],[24.93398,60.1999]],[[24.93398,60.1999],[24.9342,60.19944]],[[24.93398,60.1999],[24.93425,60.19944]],[[24.9342,60.19944],[24.9343,60.19922]],[[24.9342,60.19944],[24.93428,60.19933]],[[24.93425,60.19944],[24.93428,60.19933]],[[24.93425,60.19944],[24.93435,60.19924]],[[24.93428,60.19933],[24.9343,60.19922]],[[24.93428,60.19933],[24.93435,60.19924]],[[24.9343,60.19922],[24.9345,60.1988]],[[24.93435,60.19924],[24.9345,60.1988]],[[24.935,60.19817],[24.93436,60.1981]],[[24.9347,60.1984],[24.93436,60.1981]],[[24.9345,60.1988],[24.9347,60.1984]],[[24.9347,60.1984],[24.935,60.19817]],[[24.93947,60.19871],[24.935,60.19817]],[[24.935,60.19817],[24.9352,60.19815]],[[24.9352,60.19815],[24.93956,60.19867]],[[24.93624,60.17115],[24.93646,60.17107]],[[24.93705,60.17086],[24.93624,60.17115]],[[24.93646,60.17107],[24.9382,60.17005]],[[24.93818,60.1701],[24.93705,60.17086]],[[24.93714,60.16435],[24.93733,60.16441]],[[24.93728,60.16443],[24.93714,60.16435]],[[24.93714,60.16435],[24.93722,60.16414],[24.94183,60.1608],[24.94207,60.15931],[24.94107,60.15834]],[[24.94192,60.16605],[24.93728,60.16443]],[[24.93733,60.16441],[24.94179,60.16597]],[[24.94113,60.15834],[24.94213,60.15932],[24.94188,60.16081],[24.93733,60.16441]],[[24.93808,60.16973],[24.93893,60.16956]],[[24.93808,60.16973],[24.93834,60.16982]],[[24.93834,60.16982],[24.9381,60.16977]],[[24.93843,60.16989],[24.9381,60.16977]],[[24.93839,60.16997],[24.93818,60.1701]],[[24.93909,60.17014],[24.93856,60.17],[24.93818,60.1701]],[[24.9382,60.17005],[24.93843,60.16989]],[[24.9382,60.17005],[24.93839,60.16997]],[[24.93856,60.16981],[24.93846,60.16982],[24.93834,60.16982]],[[24.93834,60.16982],[24.93847,60.16987]],[[24.93848,60.16991],[24.93839,60.16997]],[[24.93839,60.16997],[24.93861,60.16996]],[[24.93848,60.16991],[24.93843,60.16989]],[[24.93843,60.16989],[24.93847,60.16987]],[[24.93847,60.16987],[24.93851,60.16989]],[[24.93847,60.16987],[24.93856,60.16981]],[[24.93861,60.16996],[24.93848,60.16991]],[[24.93851,60.16989],[24.93848,60.16991]],[[24.93851,60.16989],[24.93864,60.16994]],[[24.93861,60.16982],[24.93851,60.16989]],[[24.93856,60.16981],[24.93872,60.1697]],[[24.93863,60.16979],[24.93856,60.16981]],[[24.93861,60.16996],[24.93868,60.16996]],[[24.93881,60.17003],[24.93861,60.16996]],[[24.93864,60.16994],[24.93861,60.16982]],[[24.93861,60.16982],[24.93863,60.16979]],[[24.93876,60.16972],[24.93861,60.16982]],[[24.93863,60.16979],[24.93872,60.1697]],[[24.93876,60.16972],[24.93863,60.16979]],[[24.93864,60.16994],[24.93884,60.17001]],[[24.93868,60.16996],[24.93864,60.16994]],[[24.93868,60.16996],[24.93884,60.17001]],[[24.93881,60.17003],[24.93868,60.16996]],[[24.93872,60.1697],[24.93893,60.16956]],[[24.93961,60.1692],[24.93876,60.16972]],[[24.93909,60.17014],[24.93881,60.17003]],[[24.93884,60.17001],[24.93914,60.17012]],[[24.93893,60.16956],[24.93925,60.16935]],[[24.94451,60.17054],[24.93995,60.17038],[24.93965,60.17033],[24.93909,60.17014]],[[24.93914,60.17012],[24.94447,60.17051]],[[24.93961,60.1692],[24.93914,60.17012]],[[24.93925,60.16935],[24.94095,60.16822]],[[24.93925,60.16935],[24.94061,60.16853]],[[24.93994,60.19874],[24.93947,60.19871]],[[24.93962,60.20011],[24.93947,60.19871]],[[24.93962,60.20011],[24.93955,60.20038]],[[24.94008,60.20019],[24.93955,60.20038]],[[24.93956,60.19867],[24.94095,60.19677],[24.94143,60.19666],[24.94344,60.19664],[24.94398,60.19553],[24.94559,60.1948],[24.94347,60.19335],[24.94338,60.19321],[24.94346,60.1931],[24.9489,60.1908]],[[24.93956,60.19867],[24.93994,60.19874]],[[24.94043,60.16865],[24.93961,60.1692]],[[24.94008,60.20019],[24.93962,60.20011]],[[24.93971,60.19991],[24.93962,60.20011]],[[24.93971,60.19991],[24.94426,60.20065]],[[24.94012,60.19904],[24.93971,60.19991]],[[24.93994,60.19874],[24.94012,60.19904]],[[24.94026,60.1986],[24.93994,60.19874]],[[24.94429,60.20068],[24.94008,60.20019]],[[24.94026,60.1986],[24.94012,60.19904]],[[24.94886,60.19086],[24.94351,60.19312],[24.94581,60.19487],[24.94346,60.19668],[24.94123,60.1968],[24.94026,60.1986]],[[24.94061,60.16853],[24.94043,60.16865]],[[24.94119,60.16864],[24.94043,60.16865]],[[24.94074,60.15804],[24.94047,60.15802]],[[24.94107,60.15834],[24.94047,60.15802]],[[24.94052,60.158],[24.94148,60.15804]],[[24.94052,60.158],[24.94074,60.15804]],[[24.94081,60.16837],[24.94061,60.16853]],[[24.94061,60.16853],[24.94093,60.16852]],[[24.94123,60.15806],[24.94074,60.15804]],[[24.94074,60.15804],[24.94101,60.15822]],[[24.94093,60.16852],[24.94081,60.16837]],[[24.94081,60.16837],[24.94095,60.16822]],[[24.94099,60.16824],[24.94081,60.16837]],[[24.94093,60.16852],[24.9412,60.1686]],[[24.94119,60.16864],[24.94093,60.16852]],[[24.94095,60.16822],[24.9426,60.16712]],[[24.94099,60.16824],[24.9412,60.1686]],[[24.94323,60.1668],[24.94099,60.16824]],[[24.94101,60.15822],[24.94113,60.15834]],[[24.94107,60.15834],[24.94101,60.15822]],[[24.94101,60.15822],[24.94123,60.15806]],[[24.94153,60.15807],[24.94113,60.15834]],[[24.9457,60.16891],[24.94184,60.16882],[24.94119,60.16864]],[[24.9412,60.1686],[24.946,60.16889]],[[24.94153,60.15807],[24.94123,60.15806]],[[24.94123,60.15806],[24.94148,60.15804]],[[24.94148,60.15804],[24.94907,60.15839],[24.95501,60.15957],[24.95532,60.15968],[24.95637,60.16119],[24.95639,60.1617],[24.95612,60.162],[24.9533,60.1639],[24.95288,60.16432],[24.95223,60.16759]],[[24.95177,60.16738],[24.95288,60.16424],[24.95332,60.16383],[24.95614,60.16194],[24.95632,60.16171],[24.95528,60.15971],[24.94153,60.15807]],[[24.94179,60.16597],[24.94317,60.16645],[24.94334,60.16668]],[[24.94192,60.16605],[24.94179,60.16597]],[[24.94179,60.16597],[24.94256,60.16531]],[[24.9426,60.16712],[24.94325,60.16656],[24.94192,60.16605]],[[24.94256,60.16531],[24.94267,60.16524],[24.94276,60.1652],[24.94305,60.16518],[24.94382,60.16547]],[[24.94256,60.16531],[24.94304,60.16521],[24.94381,60.16552]],[[24.9426,60.16712],[24.94334,60.16668]],[[24.94334,60.16668],[24.94323,60.1668]],[[24.94382,60.16575],[24.94367,60.16648],[24.94323,60.1668]],[[24.94334,60.16668],[24.94381,60.16552]],[[24.94381,60.16552],[24.94382,60.16575]],[[24.94381,60.16552],[24.94382,60.16547]],[[24.94382,60.16547],[24.94385,60.16559]],[[24.94382,60.16547],[24.94413,60.16417],[24.94623,60.16261],[24.94648,60.16107],[24.94833,60.16111],[24.94814,60.1628],[24.94589,60.16294],[24.94385,60.16559]],[[24.94385,60.16559],[24.94382,60.16575]],[[24.94426,60.20065],[24.94494,60.20035]],[[24.94426,60.20065],[24.94452,60.20068]],[[24.94452,60.20068],[24.9444,60.20069],[24.94429,60.20068]],[[24.94484,60.20075],[24.94429,60.20068]],[[24.94447,60.17051],[24.94525,60.17043],[24.94551,60.16904],[24.94557,60.16896],[24.9457,60.16891]],[[24.94447,60.17051],[24.94477,60.17057]],[[24.94477,60.17057],[24.94451,60.17054]],[[24.94486,60.17063],[24.94451,60.17054]],[[24.94452,60.20068],[24.94484,60.20072]],[[24.94488,60.20053],[24.94452,60.20068]],[[24.94599,60.16892],[24.94532,60.17044],[24.94509,60.17056],[24.94496,60.17058],[24.94477,60.17057]],[[24.94477,60.17057],[24.94564,60.17084]],[[24.94489,60.20075],[24.94484,60.20075]],[[24.95479,60.21685],[24.95429,60.21695],[24.94366,60.21356],[24.94337,60.21338],[24.94332,60.2132],[24.94552,60.20802],[24.94484,60.20075]],[[24.94484,60.20075],[24.94484,60.20072]],[[24.94484,60.20072],[24.9449,60.20072]],[[24.94484,60.20072],[24.94488,60.20053]],[[24.94542,60.1708],[24.94486,60.17063]],[[24.94503,60.171],[24.94486,60.17063]],[[24.94488,60.20053],[24.94494,60.20035]],[[24.945,60.20037],[24.94488,60.20053]],[[24.96253,60.20092],[24.96114,60.20114],[24.9596,60.20129],[24.95855,60.20133],[24.95679,60.2013],[24.9554,60.2012],[24.95424,60.20105],[24.95055,60.20034],[24.94968,60.20041],[24.94833,60.20081],[24.94749,60.20095],[24.9467,60.20095],[24.94489,60.20075]],[[24.94489,60.20075],[24.94558,60.20802],[24.9434,60.21333],[24.9536,60.21665]],[[24.9449,60.20072],[24.94489,60.20075]],[[24.9449,60.20072],[24.9475,60.20092],[24.94964,60.20039],[24.95062,60.20031],[24.95641,60.20126],[24.96251,60.20089]],[[24.945,60.20037],[24.9449,60.20072]],[[24.94494,60.20035],[24.94529,60.19998],[24.94758,60.19843],[24.95639,60.19477]],[[24.95646,60.19478],[24.945,60.20037]],[[24.94791,60.1722],[24.94507,60.17197],[24.94503,60.171]],[[24.94503,60.171],[24.94542,60.1708]],[[24.94542,60.1708],[24.94564,60.17084]],[[24.94791,60.1722],[24.94542,60.1708]],[[24.94564,60.17084],[24.9473,60.17143],[24.94989,60.17387]],[[24.94599,60.16892],[24.9457,60.16891]],[[24.9457,60.16891],[24.946,60.16889]],[[24.95132,60.16905],[24.94599,60.16892]],[[24.946,60.16889],[24.95064,60.16901]],[[24.94986,60.1739],[24.94791,60.1722]],[[24.94837,60.18652],[24.94813,60.18651]],[[24.94851,60.18675],[24.94813,60.18651]],[[24.94813,60.18648],[24.94901,60.18651]],[[24.94813,60.18648],[24.94837,60.18652]],[[24.94904,60.1905],[24.94826,60.19],[24.94823,60.18934]],[[24.94823,60.18934],[24.94824,60.18923]],[[24.94829,60.18921],[24.94823,60.18934]],[[24.94824,60.18923],[24.94851,60.18675]],[[24.94829,60.18921],[24.94908,60.19048]],[[24.94857,60.18675],[24.94829,60.18921]],[[24.94881,60.18653],[24.94837,60.18652]],[[24.94837,60.18652],[24.94855,60.18666]],[[24.94851,60.18675],[24.94855,60.18666]],[[24.94855,60.18666],[24.94857,60.18675]],[[24.94855,60.18666],[24.94881,60.18653]],[[24.94904,60.18654],[24.94857,60.18675]],[[24.94904,60.18654],[24.94881,60.18653]],[[24.94881,60.18653],[24.94901,60.18651]],[[24.94916,60.19069],[24.94886,60.19086]],[[24.94931,60.19069],[24.94886,60.19086]],[[24.9489,60.1908],[24.94904,60.1905]],[[24.9489,60.1908],[24.94916,60.19069]],[[24.94901,60.18651],[24.95073,60.18659]],[[24.95078,60.18663],[24.94904,60.18654]],[[24.94918,60.1906],[24.94904,60.1905]],[[24.94908,60.19048],[24.94928,60.19062]],[[24.94908,60.19048],[24.94918,60.1906]],[[24.94918,60.1906],[24.94916,60.19069]],[[24.94916,60.19069],[24.94925,60.19064]],[[24.94925,60.19064],[24.94918,60.1906]],[[24.94931,60.19069],[24.94925,60.19064]],[[24.94925,60.19064],[24.94928,60.19062]],[[24.94928,60.19062],[24.94935,60.19067]],[[24.94928,60.19062],[24.95284,60.18943],[24.95268,60.18699]],[[24.9564,60.19422],[24.95275,60.19269],[24.94931,60.19069]],[[24.94935,60.19067],[24.94931,60.19069]],[[24.94935,60.19067],[24.95646,60.19421]],[[24.953,60.18702],[24.95286,60.18955],[24.94935,60.19067]],[[24.94968,60.18105],[24.94965,60.18094]],[[24.94968,60.18105],[24.94952,60.18116],[24.94086,60.18454],[24.93956,60.18389],[24.94262,60.18261],[24.9442,60.18319],[24.94965,60.18094]],[[24.94965,60.18094],[24.95004,60.17823]],[[24.95123,60.18652],[24.95162,60.18403],[24.95307,60.18326],[24.94968,60.18105]],[[24.94971,60.18088],[24.94968,60.18105]],[[24.94971,60.18088],[24.95314,60.18328],[24.95168,60.18405],[24.95142,60.18636]],[[24.95021,60.17832],[24.94971,60.18088]],[[24.95002,60.17399],[24.94986,60.1739]],[[24.95027,60.17436],[24.94986,60.1739]],[[24.94989,60.17387],[24.95069,60.17401]],[[24.94989,60.17387],[24.95002,60.17399]],[[24.95018,60.17828],[24.94998,60.17813]],[[24.95004,60.17823],[24.94998,60.17813]],[[24.94998,60.17813],[24.95027,60.17436]],[[24.95048,60.17403],[24.95002,60.17399]],[[24.95002,60.17399],[24.95023,60.17421]],[[24.95021,60.17832],[24.95004,60.17823]],[[24.95012,60.17711],[24.9508,60.1783]],[[24.95012,60.17711],[24.95014,60.17822]],[[24.95032,60.17435],[24.95012,60.17711]],[[24.95014,60.17822],[24.95027,60.17829]],[[24.95014,60.17822],[24.95018,60.17828]],[[24.95027,60.17829],[24.95018,60.17828]],[[24.95018,60.17828],[24.95021,60.17832]],[[24.96163,60.18738],[24.96142,60.18708],[24.96106,60.18564],[24.96032,60.18474],[24.9504,60.18003],[24.95028,60.17986],[24.95042,60.1785],[24.95021,60.17832]],[[24.95023,60.17421],[24.95032,60.17435]],[[24.95027,60.17436],[24.95023,60.17421]],[[24.95023,60.17421],[24.95048,60.17403]],[[24.9508,60.17832],[24.95027,60.17829]],[[24.95027,60.17829],[24.95047,60.1785],[24.95044,60.18001],[24.96041,60.18477],[24.96113,60.18567],[24.96167,60.18737]],[[24.95085,60.17404],[24.95032,60.17435]],[[24.95085,60.17404],[24.95048,60.17403]],[[24.95048,60.17403],[24.95069,60.17401]],[[24.95064,60.16901],[24.95113,60.16902]],[[24.95064,60.16901],[24.95101,60.16885]],[[24.95069,60.17401],[24.95303,60.17399],[24.95344,60.16936]],[[24.95073,60.18659],[24.95123,60.18652]],[[24.95073,60.18659],[24.951,60.18664]],[[24.951,60.18664],[24.95078,60.18663]],[[24.95126,60.18678],[24.95078,60.18663]],[[24.95348,60.16941],[24.9531,60.17399],[24.95281,60.17412],[24.95085,60.17404]],[[24.951,60.18664],[24.95117,60.18669]],[[24.95116,60.1866],[24.951,60.18664]],[[24.95113,60.16902],[24.95101,60.16885]],[[24.95101,60.16885],[24.95116,60.16767]],[[24.95113,60.16902],[24.95313,60.16907]],[[24.95132,60.16905],[24.95113,60.16902]],[[24.95116,60.16767],[24.95119,60.1675],[24.95127,60.16743],[24.95177,60.16738]],[[24.95116,60.16767],[24.95188,60.16745],[24.95229,60.16781],[24.95243,60.16785],[24.95268,60.16786]],[[24.95117,60.18669],[24.95116,60.1866]],[[24.95116,60.1866],[24.95123,60.18652]],[[24.95142,60.18636],[24.95116,60.1866]],[[24.95117,60.18669],[24.95158,60.18689],[24.95176,60.18692],[24.95203,60.18693]],[[24.95126,60.18678],[24.95117,60.18669]],[[24.95268,60.18699],[24.95164,60.18694],[24.95126,60.18678]],[[24.95296,60.16909],[24.95132,60.16905]],[[24.95142,60.18636],[24.95203,60.18693]],[[24.95177,60.16738],[24.95223,60.16759]],[[24.95203,60.18693],[24.95268,60.18697]],[[24.95223,60.16759],[24.95268,60.16786]],[[24.95268,60.18697],[24.95291,60.18698],[24.95342,60.18703],[24.95887,60.1875],[24.9612,60.18763]],[[24.95268,60.18697],[24.953,60.18702]],[[24.95268,60.16786],[24.95358,60.16893]],[[24.953,60.18702],[24.95268,60.18699]],[[24.95316,60.1691],[24.95296,60.16909]],[[24.95344,60.16936],[24.95296,60.16909]],[[24.96122,60.18765],[24.95886,60.18752],[24.953,60.18702]],[[24.95313,60.16907],[24.95342,60.16908]],[[24.95313,60.16907],[24.95331,60.16909]],[[24.95334,60.1691],[24.95316,60.1691]],[[24.95331,60.16909],[24.95316,60.1691]],[[24.95331,60.16909],[24.95334,60.1691]],[[24.95342,60.16908],[24.95331,60.16909]],[[24.95354,60.16911],[24.95334,60.1691]],[[24.95334,60.1691],[24.95348,60.16921]],[[24.95342,60.16908],[24.95355,60.16908]],[[24.95358,60.16893],[24.95342,60.16908]],[[24.95344,60.16936],[24.95348,60.16921]],[[24.95348,60.16921],[24.95349,60.16929]],[[24.95348,60.16921],[24.95351,60.16918]],[[24.95349,60.16929],[24.95348,60.16941]],[[24.95397,60.16912],[24.95348,60.16941]],[[24.95351,60.16918],[24.95349,60.16929]],[[24.95354,60.16911],[24.95351,60.16918]],[[24.95351,60.16918],[24.95368,60.16911]],[[24.95368,60.16911],[24.95354,60.16911]],[[24.95355,60.16908],[24.95354,60.16911]],[[24.95355,60.16908],[24.95395,60.16909]],[[24.95358,60.16893],[24.95355,60.16908]],[[24.9536,60.21665],[24.95463,60.21656],[24.95484,60.21667],[24.95484,60.21677],[24.95479,60.21685]],[[24.9536,60.21665],[24.95479,60.21685]],[[24.95397,60.16912],[24.95368,60.16911]],[[24.95368,60.16911],[24.95395,60.16909]],[[24.95395,60.16909],[24.95669,60.16915],[24.95704,60.16861],[24.96125,60.16727],[24.9663,60.16626]],[[24.96632,60.16628],[24.95677,60.16917],[24.95397,60.16912]],[[24.95639,60.19477],[24.9564,60.19422]],[[24.95639,60.19477],[24.95663,60.19466]],[[24.95662,60.19433],[24.9564,60.19422]],[[24.95646,60.19421],[24.957,60.19448]],[[24.95646,60.19421],[24.95662,60.19433]],[[24.95663,60.19466],[24.95646,60.19478]],[[24.95671,60.19466],[24.95646,60.19478]],[[24.95696,60.1945],[24.95662,60.19433]],[[24.95662,60.19433],[24.95663,60.19466]],[[24.95663,60.19466],[24.9567,60.19463]],[[24.9567,60.19463],[24.95696,60.1945]],[[24.9567,60.19463],[24.9569,60.19456]],[[24.9569,60.19456],[24.95671,60.19466]],[[24.95731,60.19467],[24.95702,60.1946],[24.95671,60.19466]],[[24.957,60.19452],[24.9569,60.19456]],[[24.9569,60.19456],[24.95709,60.19456]],[[24.957,60.19452],[24.95696,60.1945]],[[24.95696,60.1945],[24.957,60.19448]],[[24.957,60.19448],[24.95704,60.1945]],[[24.957,60.19448],[24.96415,60.18947]],[[24.95709,60.19456],[24.957,60.19452]],[[24.95704,60.1945],[24.957,60.19452]],[[24.95704,60.1945],[24.95732,60.19464]],[[24.96423,60.18963],[24.95704,60.1945]],[[24.95709,60.19456],[24.95732,60.19464]],[[24.95731,60.19467],[24.95709,60.19456]],[[24.96084,60.19648],[24.95731,60.19467]],[[24.95732,60.19464],[24.96073,60.19637]],[[24.96068,60.19669],[24.96202,60.19736]],[[24.96084,60.19648],[24.96068,60.19669]],[[24.96125,60.19671],[24.96095,60.19663],[24.96068,60.19669]],[[24.96073,60.19637],[24.96151,60.19681]],[[24.96073,60.19637],[24.96084,60.19648]],[[24.96125,60.19671],[24.96084,60.19648]],[[24.9612,60.18763],[24.96163,60.18738]],[[24.9612,60.18763],[24.96154,60.18764]],[[24.96154,60.18764],[24.96144,60.18766],[24.96122,60.18765]],[[24.96242,60.18775],[24.96122,60.18765]],[[24.96151,60.19685],[24.96125,60.19671]],[[24.96139,60.19539],[24.96193,60.19513],[24.96283,60.19511]],[[24.9617,60.19691],[24.96151,60.19685]],[[24.96205,60.1973],[24.96151,60.19685]],[[24.96151,60.19681],[24.96235,60.19669]],[[24.96151,60.19681],[24.9617,60.19691]],[[24.96154,60.18764],[24.96208,60.18767]],[[24.96174,60.1875],[24.96154,60.18764]],[[24.96174,60.1875],[24.96163,60.18738]],[[24.96167,60.18737],[24.96239,60.18771]],[[24.96167,60.18737],[24.96174,60.1875]],[[24.96228,60.19683],[24.96202,60.19692],[24.9617,60.19691]],[[24.9617,60.19691],[24.96211,60.19717]],[[24.96208,60.18767],[24.96174,60.1875]],[[24.96177,60.19557],[24.96283,60.19511]],[[24.96178,60.19475],[24.9629,60.19418],[24.96305,60.19413],[24.9633,60.1941]],[[24.96182,60.19477],[24.963,60.19417],[24.9633,60.1941]],[[24.96186,60.19479],[24.96298,60.19422],[24.96336,60.19411]],[[24.96188,60.19563],[24.96267,60.1952],[24.96281,60.19514]],[[24.9619,60.19481],[24.96323,60.19417]],[[24.96194,60.19483],[24.96323,60.19417]],[[24.96198,60.19485],[24.96338,60.19415]],[[24.96199,60.19569],[24.96265,60.1953]],[[24.96202,60.19487],[24.96338,60.19415]],[[24.96251,60.20089],[24.96207,60.20018],[24.96176,60.19922],[24.96176,60.19822],[24.96202,60.19736]],[[24.96202,60.19736],[24.96205,60.1973]],[[24.96205,60.1973],[24.96211,60.19717]],[[24.96206,60.19489],[24.96343,60.19416]],[[24.96208,60.18767],[24.96239,60.18771]],[[24.96242,60.18775],[24.96208,60.18767]],[[24.96209,60.19732],[24.96257,60.20088]],[[24.96211,60.19717],[24.96209,60.19732]],[[24.96238,60.19673],[24.96209,60.19732]],[[24.96209,60.19491],[24.9633,60.1943]],[[24.96211,60.19717],[24.96228,60.19683]],[[24.96213,60.19493],[24.9634,60.19428]],[[24.96228,60.19683],[24.96235,60.19669]],[[24.96238,60.19673],[24.96228,60.19683]],[[24.96235,60.19669],[24.963,60.19521],[24.96319,60.19496]],[[24.96347,60.1947],[24.96238,60.19673]],[[24.96239,60.18771],[24.96302,60.1879],[24.96346,60.18815],[24.9642,60.18946]],[[24.9624,60.19579],[24.96265,60.1953]],[[24.96415,60.18947],[24.96242,60.18775]],[[24.96253,60.20092],[24.96251,60.20089]],[[24.96251,60.20089],[24.96257,60.20088]],[[24.97794,60.20776],[24.9768,60.20659],[24.97395,60.20709],[24.96793,60.20353],[24.96686,60.20311],[24.96534,60.20307],[24.96487,60.20294],[24.96347,60.2019],[24.96253,60.20092]],[[24.96259,60.20091],[24.96253,60.20092]],[[24.96256,60.19501],[24.96287,60.19469],[24.96304,60.19462]],[[24.96257,60.20088],[24.96259,60.20091]],[[24.96257,60.20088],[24.96933,60.19848],[24.97748,60.19379],[24.97879,60.1917],[24.97696,60.18655],[24.97732,60.18634],[24.98053,60.18546],[24.98077,60.18521],[24.9781,60.17956],[24.97361,60.17848]],[[24.96259,60.20091],[24.96492,60.20292],[24.96688,60.20308],[24.96796,60.2035],[24.97398,60.20701],[24.97659,60.20654],[24.97701,60.2066],[24.97942,60.20865],[24.97854,60.20856]],[[24.97191,60.17842],[24.97636,60.17852],[24.97794,60.17939],[24.97828,60.1797],[24.98086,60.18524],[24.98065,60.18546],[24.97705,60.18659],[24.97887,60.19164],[24.97751,60.19381],[24.96937,60.1985],[24.96259,60.20091]],[[24.96262,60.19502],[24.96304,60.19462]],[[24.96265,60.1953],[24.96281,60.19514]],[[24.96269,60.19503],[24.963,60.19468],[24.96317,60.19459]],[[24.96275,60.19505],[24.96317,60.19459]],[[24.96281,60.19514],[24.96298,60.19509]],[[24.96283,60.19511],[24.96298,60.19509]],[[24.96298,60.19509],[24.96319,60.19496]],[[24.96304,60.19462],[24.96328,60.19448]],[[24.96317,60.19459],[24.96328,60.19448]],[[24.96319,60.19496],[24.96339,60.19471]],[[24.96323,60.19417],[24.96336,60.19411]],[[24.96328,60.19448],[24.96334,60.19441]],[[24.96343,60.19416],[24.9633,60.1943]],[[24.9633,60.1943],[24.96349,60.19418]],[[24.9633,60.1941],[24.96347,60.19405]],[[24.96339,60.19471],[24.96334,60.19441]],[[24.96334,60.19441],[24.9634,60.19428]],[[24.96334,60.19441],[24.96343,60.19431]],[[24.96336,60.19411],[24.96347,60.19405]],[[24.96338,60.19415],[24.96351,60.19408]],[[24.96339,60.19471],[24.9635,60.19459]],[[24.9634,60.19428],[24.96349,60.19418]],[[24.96343,60.19431],[24.9635,60.19459]],[[24.96343,60.19431],[24.96352,60.1942]],[[24.96343,60.19416],[24.96351,60.19408]],[[24.9635,60.19459],[24.96347,60.1947]],[[24.96427,60.19374],[24.96347,60.1947]],[[24.96347,60.19405],[24.9636,60.19399]],[[24.96349,60.19418],[24.96361,60.19403]],[[24.9635,60.19459],[24.96415,60.19382]],[[24.96351,60.19408],[24.9636,60.19399]],[[24.96352,60.1942],[24.96361,60.19403]],[[24.96415,60.19382],[24.96352,60.1942]],[[24.9636,60.19399],[24.96373,60.19393]],[[24.96361,60.19403],[24.96373,60.19393]],[[24.96373,60.19393],[24.96379,60.1939]],[[24.96379,60.1939],[24.96436,60.19357]],[[24.96379,60.1939],[24.96432,60.19363]],[[24.96415,60.19382],[24.96432,60.19363]],[[24.96427,60.19374],[24.96415,60.19382]],[[24.96423,60.18963],[24.96415,60.18947]],[[24.9642,60.18946],[24.96443,60.18994],[24.96457,60.19047],[24.96467,60.19289],[24.96458,60.1933],[24.96446,60.19352],[24.96433,60.19368]],[[24.9642,60.18946],[24.96423,60.18963]],[[24.96436,60.19357],[24.96423,60.18963]],[[24.96433,60.19368],[24.96427,60.19374]],[[24.96432,60.19363],[24.96436,60.19357]],[[24.96436,60.19357],[24.96433,60.19368]],[[24.9663,60.16626],[24.96886,60.1654],[24.96824,60.16447],[24.97051,60.16443],[24.96877,60.16486],[24.96889,60.16544],[24.96652,60.16622]],[[24.9663,60.16626],[24.96652,60.16622]],[[24.96652,60.16622],[24.96632,60.16628]],[[24.97331,60.16711],[24.96966,60.16613],[24.96781,60.16625],[24.96632,60.16628]],[[24.96652,60.16622],[24.96976,60.16611],[24.97557,60.16764],[24.97579,60.16785],[24.97481,60.16765]],[[24.97078,60.17844],[24.9712,60.17842],[24.97191,60.17842]],[[24.97158,60.17845],[24.97079,60.17847]],[[24.97361,60.17848],[24.97158,60.17845]],[[24.97189,60.1792],[24.97158,60.17845]],[[24.97158,60.17845],[24.97191,60.17842]],[[24.97307,60.17894],[24.97245,60.17928],[24.97189,60.1792]],[[24.97307,60.17894],[24.97249,60.17931],[24.97189,60.1792]],[[24.97361,60.17848],[24.97307,60.17894]],[[24.97481,60.16765],[24.97481,60.16758],[24.97478,60.16752],[24.97462,60.16742],[24.97331,60.16711]],[[24.97481,60.16765],[24.97331,60.16711]],[[24.97854,60.20856],[24.97794,60.20776]],[[24.97854,60.20856],[24.97801,60.20792],[24.97794,60.20776]]]},"bbox":[24.8712533,60.1505929,24.9808615,60.216949]}],"bbox":[24.8712533,60.1505929,24.9808615,60.216949]}