{"type":"FeatureCollection","features":[{"id":"0","type":"Feature","properties":{},"geometry":{"type":"MultiLineString","coordinates":[[[24.63145,60.15515],[24.63138,60.15472],[24.63168,60.15439]],[[24.63168,60.15439],[24.63171,60.15539]],[[24.63168,60.15439],[24.63256,60.1539]],[[24.63256,60.1539],[24.63318,60.15354]],[[24.63318,60.15354],[24.63319,60.1536],[24.63256,60.1539]],[[24.63318,60.15354],[24.63417,60.15301]],[[24.63417,60.15301],[24.6351,60.15255]],[[24.6351,60.15255],[24.63481,60.15272],[24.63417,60.15301]],[[24.6351,60.15255],[24.64268,60.14932]],[[24.64268,60.14932],[24.64335,60.14894],[24.64407,60.1493]],[[24.64407,60.1493],[24.64268,60.14932]],[[24.6474,60.15055],[24.64407,60.1493]],[[24.6474,60.15055],[24.64856,60.15075],[24.64972,60.1512]],[[24.64972,60.1512],[24.6474,60.15055]],[[24.65026,60.15141],[24.64972,60.1512]],[[24.65026,60.15141],[24.65164,60.15203],[24.65913,60.14804]],[[24.65913,60.14804],[24.65179,60.1521],[24.65117,60.15195],[24.65026,60.15141]],[[24.65069,60.20464],[24.65225,60.20482]],[[24.65069,60.20464],[24.65006,60.20458],[24.64962,60.20429],[24.65274,60.2021]],[[24.65274,60.2021],[24.64975,60.20432],[24.65069,60.20464]],[[24.65225,60.20482],[24.65421,60.20506]],[[24.65404,60.20515],[24.65225,60.20482]],[[24.65274,60.20091],[24.65274,60.2021]],[[24.65274,60.20091],[24.65275,60.2004],[24.65302,60.19996],[24.654,60.19935]],[[24.654,60.19935],[24.65274,60.20091]],[[24.65516,60.1989],[24.654,60.19935]],[[24.65577,60.20547],[24.65404,60.20515]],[[24.65404,60.20515],[24.65421,60.20506]],[[24.65421,60.20506],[24.65564,60.20534]],[[24.65421,60.20506],[24.65445,60.20494],[24.65538,60.20512]],[[24.65767,60.21529],[24.65508,60.21451]],[[24.65508,60.21451],[24.65265,60.21387],[24.65421,60.21225],[24.65534,60.21154]],[[24.65534,60.21154],[24.65287,60.21383],[24.65508,60.21451]],[[24.65516,60.1989],[24.65761,60.19825]],[[24.65761,60.19825],[24.65672,60.19852],[24.65516,60.1989]],[[24.65726,60.21058],[24.65534,60.21154]],[[24.65564,60.20534],[24.65683,60.20557]],[[24.65577,60.20547],[24.65564,60.20534]],[[24.65726,60.21058],[24.66152,60.20664],[24.65577,60.20547]],[[24.65673,60.20538],[24.65683,60.20557]],[[24.65683,60.20557],[24.66183,60.2066],[24.65726,60.21058]],[[24.66188,60.19579],[24.65761,60.19825]],[[24.65767,60.21529],[24.65899,60.21587],[24.6602,60.21665],[24.66289,60.21989],[24.66631,60.22158],[24.66796,60.2211],[24.66915,60.22107],[24.67904,60.22261]],[[24.67904,60.22261],[24.66933,60.22118],[24.66632,60.22169],[24.66278,60.21998],[24.65767,60.21529]],[[24.66199,60.14841],[24.65913,60.14804]],[[24.66188,60.19579],[24.66579,60.1944]],[[24.66579,60.1944],[24.66438,60.19508],[24.66188,60.19579]],[[24.66462,60.15362],[24.66562,60.15073],[24.66667,60.1491],[24.66199,60.14841]],[[24.66199,60.14841],[24.66219,60.14841],[24.66284,60.14847],[24.66506,60.14871],[24.6669,60.14911],[24.6654,60.15215],[24.66891,60.1534],[24.70513,60.16019]],[[24.70483,60.16055],[24.67388,60.1544],[24.66462,60.15362]],[[24.66462,60.15362],[24.66198,60.15394],[24.6615,60.15445],[24.66335,60.15505],[24.66462,60.15362]],[[24.66579,60.1944],[24.66652,60.19266],[24.66444,60.18978],[24.66923,60.18573],[24.67133,60.1808],[24.68092,60.17958],[24.68539,60.17728],[24.68898,60.17355]],[[24.68181,60.22284],[24.67904,60.22261]],[[24.68661,60.22324],[24.68181,60.22284]],[[24.68181,60.22284],[24.6823,60.22284],[24.68363,60.22294],[24.68399,60.22288],[24.68661,60.22324]],[[24.68775,60.22334],[24.68661,60.22324]],[[24.68775,60.22334],[24.69001,60.22341]],[[24.69001,60.22341],[24.68898,60.22344],[24.68775,60.22334]],[[24.68898,60.17355],[24.68894,60.17297],[24.69497,60.17249],[24.69698,60.17067],[24.69799,60.16779],[24.70264,60.16468],[24.70331,60.16203],[24.70483,60.16055]],[[24.70511,60.16059],[24.70287,60.16472],[24.69832,60.16765],[24.69716,60.17071],[24.69511,60.17253],[24.68898,60.17355]],[[24.70475,60.22413],[24.69001,60.22341]],[[24.70688,60.22406],[24.70521,60.22414],[24.70475,60.22413]],[[24.70475,60.22413],[24.70708,60.22397]],[[24.70511,60.16059],[24.70483,60.16055]],[[24.70483,60.16055],[24.70513,60.16019]],[[24.73737,60.16384],[24.72678,60.16191],[24.70511,60.16059]],[[24.70542,60.1602],[24.70511,60.16059]],[[24.70513,60.16019],[24.70542,60.1602]],[[24.70513,60.16019],[24.70805,60.15472],[24.70926,60.1549]],[[24.70542,60.1602],[24.72912,60.16198],[24.73788,60.16319]],[[24.70926,60.1549],[24.70829,60.15487],[24.70542,60.1602]],[[24.71407,60.22875],[24.70828,60.22763],[24.70626,60.22511],[24.70669,60.22437]],[[24.70669,60.22437],[24.70688,60.22406]],[[24.70705,60.22405],[24.70669,60.22437]],[[24.70705,60.22405],[24.70688,60.22406]],[[24.70708,60.22397],[24.70705,60.22405]],[[24.70815,60.22397],[24.70705,60.22405]],[[24.70708,60.22397],[24.70765,60.22395],[24.70815,60.22397]],[[24.73943,60.22541],[24.70815,60.22397]],[[24.70926,60.1549],[24.71207,60.15531]],[[24.71207,60.15531],[24.71363,60.15561]],[[24.71363,60.15561],[24.71269,60.15554],[24.71207,60.15531]],[[24.71363,60.15561],[24.72561,60.15648]],[[24.71407,60.22875],[24.71473,60.22899],[24.71543,60.22971]],[[24.71543,60.22971],[24.71407,60.22875]],[[24.71609,60.23163],[24.71543,60.22971]],[[24.71609,60.23163],[24.71621,60.23226]],[[24.71621,60.23226],[24.71603,60.23168],[24.71609,60.23163]],[[24.71664,60.23426],[24.71621,60.23226]],[[24.71664,60.23426],[24.71752,60.23465]],[[24.71752,60.23465],[24.71662,60.23471],[24.71664,60.23426]],[[24.71752,60.23465],[24.72798,60.23607],[24.73377,60.23895],[24.73809,60.2399]],[[24.72561,60.15648],[24.72636,60.15664]],[[24.7262,60.15675],[24.72561,60.15648]],[[24.72703,60.15694],[24.7262,60.15675]],[[24.7262,60.15675],[24.72636,60.15664]],[[24.72636,60.15664],[24.72641,60.15664]],[[24.72641,60.15664],[24.72688,60.15624]],[[24.72641,60.15664],[24.72646,60.15664],[24.72651,60.15664],[24.72664,60.15669]],[[24.72664,60.15669],[24.72703,60.15694]],[[24.72688,60.15624],[24.72664,60.15669]],[[24.72688,60.15624],[24.73001,60.15267],[24.73361,60.15228],[24.73886,60.14868],[24.74256,60.14775],[24.74697,60.14811],[24.74882,60.14974],[24.75182,60.15048],[24.74643,60.15388]],[[24.72703,60.15694],[24.73242,60.15823]],[[24.7294,60.17383],[24.74298,60.17529],[24.74205,60.17731]],[[24.7294,60.17383],[24.72959,60.17343],[24.73047,60.17273]],[[24.73047,60.17273],[24.7294,60.17383]],[[24.73546,60.16789],[24.73047,60.17273]],[[24.73242,60.15823],[24.73805,60.15934],[24.73775,60.1597]],[[24.73775,60.1597],[24.73242,60.15823]],[[24.73546,60.16789],[24.73625,60.16693],[24.73653,60.16503],[24.73737,60.16384]],[[24.73761,60.16389],[24.73609,60.16751],[24.73546,60.16789]],[[24.73761,60.16389],[24.73737,60.16384]],[[24.73737,60.16384],[24.73788,60.16319]],[[24.81051,60.17676],[24.80781,60.17545],[24.8009,60.17453],[24.80252,60.1697],[24.775,60.1683],[24.74992,60.16622],[24.73761,60.16389]],[[24.7381,60.16323],[24.73761,60.16389]],[[24.73775,60.1597],[24.73955,60.16008]],[[24.73897,60.16013],[24.73775,60.1597]],[[24.73788,60.16319],[24.7381,60.16323]],[[24.73788,60.16319],[24.74643,60.15388]],[[24.73809,60.2399],[24.73947,60.24002],[24.74146,60.24057]],[[24.74146,60.24057],[24.73809,60.2399]],[[24.7381,60.16323],[24.7496,60.16577],[24.78056,60.16845],[24.80274,60.16904],[24.80143,60.17436],[24.80972,60.17556],[24.81051,60.17676]],[[24.74643,60.15388],[24.7381,60.16323]],[[24.73943,60.22541],[24.74437,60.22568],[24.75259,60.22531],[24.75872,60.2256],[24.75805,60.22624]],[[24.75805,60.22624],[24.75849,60.22569],[24.7435,60.22574],[24.73943,60.22541]],[[24.74146,60.24057],[24.74691,60.24316]],[[24.74193,60.18923],[24.74149,60.19052],[24.74477,60.19119],[24.74698,60.18841],[24.74584,60.18792],[24.74594,60.18752],[24.74659,60.18742],[24.74947,60.18775],[24.75112,60.1883],[24.74494,60.19215],[24.7435,60.19506],[24.74445,60.19746],[24.7511,60.2044],[24.7618,60.20591],[24.77837,60.20606],[24.79972,60.20809],[24.8158,60.20783],[24.81842,60.20938],[24.81653,60.21183],[24.81679,60.21949]],[[24.81613,60.21954],[24.81544,60.21109],[24.81151,60.20884],[24.7866,60.20753],[24.77795,60.20618],[24.75557,60.20663],[24.74447,60.20556],[24.74332,60.20468],[24.74344,60.20361],[24.747,60.20189],[24.74363,60.19663],[24.74332,60.19441],[24.74795,60.18765],[24.74598,60.18762],[24.74741,60.18819],[24.74489,60.19124],[24.741,60.19059],[24.74193,60.18923]],[[24.74411,60.18484],[24.74193,60.18923]],[[24.74205,60.17731],[24.742,60.17765],[24.74137,60.17813],[24.74576,60.18149],[24.74411,60.18484]],[[24.74411,60.18484],[24.74558,60.18157],[24.74102,60.1781],[24.74205,60.17731]],[[24.74691,60.24316],[24.74818,60.24362]],[[24.74818,60.24362],[24.74725,60.24333],[24.74691,60.24316]],[[24.74818,60.24362],[24.74905,60.24412]],[[24.74905,60.24412],[24.74946,60.24452]],[[24.74946,60.24452],[24.7491,60.24423],[24.74905,60.24412]],[[24.74946,60.24452],[24.75352,60.24807]],[[24.75352,60.24807],[24.75381,60.24827]],[[24.75381,60.24827],[24.75359,60.24817],[24.75352,60.24807]],[[24.75381,60.24827],[24.75595,60.2491]],[[24.75595,60.2491],[24.75647,60.24924]],[[24.75647,60.24924],[24.75614,60.24918],[24.75595,60.2491]],[[24.75647,60.24924],[24.75789,60.24961]],[[24.75698,60.22717],[24.75732,60.22762]],[[24.75732,60.22762],[24.75666,60.22749],[24.75698,60.22717]],[[24.75805,60.22624],[24.75698,60.22717]],[[24.75732,60.22762],[24.76804,60.22963],[24.77369,60.22926]],[[24.75789,60.24961],[24.75829,60.24972]],[[24.75829,60.24972],[24.75805,60.24968],[24.75789,60.24961]],[[24.75829,60.24972],[24.76519,60.25097]],[[24.76519,60.25097],[24.76546,60.2511]],[[24.76546,60.2511],[24.76528,60.25104],[24.76519,60.25097]],[[24.76546,60.2511],[24.76824,60.25202]],[[24.76824,60.25202],[24.76953,60.25234]],[[24.76953,60.25234],[24.76916,60.25229],[24.76824,60.25202]],[[24.76953,60.25234],[24.77301,60.25322]],[[24.77301,60.25322],[24.77443,60.25359]],[[24.77443,60.25359],[24.77346,60.2535],[24.77301,60.25322]],[[24.77369,60.22926],[24.77448,60.2292]],[[24.77448,60.2292],[24.7743,60.22924],[24.77369,60.22926]],[[24.77443,60.25359],[24.77873,60.2546]],[[24.77448,60.2292],[24.77709,60.22963]],[[24.77709,60.22963],[24.77828,60.22924]],[[24.77828,60.22924],[24.77763,60.22979],[24.77709,60.22963]],[[24.77961,60.22658],[24.7797,60.22782],[24.77828,60.22924]],[[24.77873,60.2546],[24.78082,60.2548]],[[24.78082,60.2548],[24.77968,60.25477],[24.77873,60.2546]],[[24.77961,60.22658],[24.77823,60.22535],[24.7807,60.22447]],[[24.7807,60.22447],[24.77852,60.22537],[24.77961,60.22658]],[[24.78513,60.22369],[24.7807,60.22447]],[[24.78082,60.2548],[24.78168,60.2548],[24.78261,60.25477],[24.79223,60.25409],[24.79405,60.25406],[24.80716,60.2556]],[[24.81613,60.21967],[24.8107,60.22009],[24.80326,60.22],[24.79823,60.22248],[24.79571,60.22326],[24.79199,60.22373],[24.78513,60.22369]],[[24.78513,60.22369],[24.79562,60.22316],[24.80318,60.21989],[24.81613,60.21954]],[[24.80716,60.2556],[24.80961,60.25516]],[[24.8096,60.25526],[24.80716,60.2556]],[[24.80847,60.26336],[24.81218,60.26456]],[[24.81218,60.26456],[24.80928,60.26368],[24.80847,60.26336]],[[24.80906,60.25773],[24.80572,60.26273],[24.80847,60.26336]],[[24.80906,60.25773],[24.80956,60.25702]],[[24.80956,60.25702],[24.80945,60.25728],[24.80906,60.25773]],[[24.8099,60.25569],[24.80956,60.25702]],[[24.8099,60.25569],[24.8096,60.25526]],[[24.8096,60.25526],[24.80961,60.25516]],[[24.80976,60.25523],[24.8096,60.25526]],[[24.80961,60.25516],[24.81519,60.2543],[24.81716,60.25416]],[[24.80976,60.25523],[24.8099,60.25569]],[[24.81716,60.25416],[24.80976,60.25523]],[[24.82002,60.17892],[24.81336,60.17818],[24.81051,60.17676]],[[24.81218,60.26456],[24.82604,60.2686],[24.83594,60.26822]],[[24.81613,60.21967],[24.81613,60.21954]],[[24.81613,60.21954],[24.81679,60.21949]],[[24.82467,60.22841],[24.82416,60.22597],[24.81749,60.22207],[24.81613,60.21967]],[[24.8168,60.21961],[24.81613,60.21967]],[[24.81679,60.21949],[24.8168,60.21961]],[[24.81679,60.21949],[24.82445,60.21938]],[[24.8168,60.21961],[24.81744,60.22141],[24.82124,60.22408],[24.82592,60.22524],[24.82467,60.22841]],[[24.82445,60.21938],[24.8168,60.21961]],[[24.81716,60.25416],[24.81858,60.25402]],[[24.81858,60.25402],[24.82027,60.25382],[24.8219,60.2538],[24.82411,60.25439]],[[24.82385,60.25447],[24.82189,60.25389],[24.81858,60.25402]],[[24.82321,60.17908],[24.82285,60.17918],[24.82002,60.17892]],[[24.82002,60.17892],[24.82039,60.17891],[24.82104,60.17896],[24.82186,60.17896],[24.82321,60.17908]],[[24.82321,60.17908],[24.82613,60.17887]],[[24.82408,60.25456],[24.82385,60.25447]],[[24.82385,60.25447],[24.82411,60.25439]],[[24.82389,60.18143],[24.82432,60.18174]],[[24.82432,60.18174],[24.82374,60.18149],[24.82389,60.18143]],[[24.82389,60.18143],[24.82485,60.17975]],[[24.82976,60.25639],[24.82617,60.25543],[24.82408,60.25456]],[[24.82431,60.25449],[24.82408,60.25456]],[[24.82411,60.25439],[24.82431,60.25449]],[[24.82411,60.25439],[24.83336,60.25039]],[[24.82431,60.25449],[24.8248,60.25471]],[[24.82526,60.25418],[24.82431,60.25449]],[[24.82795,60.18373],[24.82432,60.18174]],[[24.82493,60.21937],[24.82445,60.21938]],[[24.82459,60.22904],[24.8246,60.22923]],[[24.8246,60.22923],[24.82454,60.22918],[24.82459,60.22904]],[[24.82459,60.22904],[24.82467,60.22841]],[[24.82463,60.22951],[24.8246,60.22923]],[[24.82463,60.22951],[24.82536,60.2301]],[[24.82536,60.2301],[24.82445,60.23001],[24.82463,60.22951]],[[24.8248,60.25471],[24.82976,60.25639]],[[24.82526,60.25418],[24.8248,60.25471]],[[24.82485,60.17975],[24.82464,60.17944],[24.82524,60.17921]],[[24.82524,60.17921],[24.82485,60.17975]],[[24.82817,60.21971],[24.82493,60.21937]],[[24.82493,60.21937],[24.82548,60.21934],[24.82691,60.21945],[24.82817,60.21971]],[[24.82524,60.17921],[24.82551,60.17909]],[[24.83372,60.25037],[24.82526,60.25418]],[[24.82625,60.23051],[24.82536,60.2301]],[[24.82551,60.17909],[24.82613,60.17887]],[[24.82613,60.17887],[24.82619,60.17894],[24.82551,60.17909]],[[24.82625,60.23051],[24.82778,60.23124]],[[24.82778,60.23124],[24.82693,60.23086],[24.82625,60.23051]],[[24.82867,60.23165],[24.82778,60.23124]],[[24.82795,60.18373],[24.82832,60.18399]],[[24.82832,60.18399],[24.82796,60.18396],[24.82795,60.18373]],[[24.83196,60.22034],[24.82817,60.21971]],[[24.83036,60.18359],[24.82832,60.18399]],[[24.82867,60.23165],[24.82958,60.23192]],[[24.82958,60.23192],[24.82881,60.23174],[24.82867,60.23165]],[[24.83112,60.23297],[24.82958,60.23192]],[[24.82976,60.25639],[24.83392,60.25826]],[[24.83297,60.25012],[24.83012,60.24714]],[[24.83012,60.24714],[24.83021,60.24684]],[[24.83021,60.24684],[24.83024,60.24692],[24.83012,60.24714]],[[24.83021,60.24684],[24.83091,60.2459]],[[24.83036,60.18359],[24.83197,60.18278]],[[24.83197,60.18278],[24.8306,60.18351],[24.83036,60.18359]],[[24.83039,60.23385],[24.83039,60.23407]],[[24.83039,60.23407],[24.83031,60.23394],[24.83039,60.23385]],[[24.83039,60.23385],[24.83107,60.23318]],[[24.83083,60.23474],[24.83039,60.23407]],[[24.83083,60.23474],[24.8323,60.2352]],[[24.8323,60.2352],[24.83123,60.23493],[24.83083,60.23474]],[[24.83091,60.2459],[24.83101,60.24566]],[[24.83101,60.24566],[24.83103,60.24576],[24.83091,60.2459]],[[24.83101,60.24566],[24.8311,60.24538]],[[24.83107,60.23318],[24.83112,60.23297]],[[24.83112,60.23297],[24.83118,60.23306],[24.83107,60.23318]],[[24.8311,60.24538],[24.83125,60.24468]],[[24.83125,60.24468],[24.83129,60.24477],[24.8311,60.24538]],[[24.83123,60.24297],[24.83131,60.24335]],[[24.83131,60.24335],[24.83122,60.24312],[24.83123,60.24297]],[[24.83123,60.24297],[24.83127,60.24195],[24.83407,60.2405]],[[24.83125,60.24468],[24.8314,60.24414]],[[24.8314,60.24391],[24.83131,60.24335]],[[24.8314,60.24414],[24.8314,60.24391]],[[24.8314,60.24391],[24.83146,60.24406],[24.8314,60.24414]],[[24.83196,60.22034],[24.83565,60.22054]],[[24.83565,60.22054],[24.83307,60.22047],[24.83196,60.22034]],[[24.8335,60.18172],[24.83197,60.18278]],[[24.83309,60.23591],[24.8323,60.2352]],[[24.83297,60.25012],[24.83353,60.2503]],[[24.83336,60.25039],[24.83297,60.25012]],[[24.83309,60.23591],[24.83376,60.23614]],[[24.83376,60.23614],[24.83338,60.23606],[24.83309,60.23591]],[[24.83336,60.25039],[24.83353,60.2503]],[[24.8335,60.18172],[24.83401,60.18092]],[[24.83401,60.18092],[24.83364,60.18162],[24.8335,60.18172]],[[24.83353,60.2503],[24.83372,60.25037]],[[24.83353,60.2503],[24.84556,60.24369]],[[24.84574,60.24376],[24.83372,60.25037]],[[24.83494,60.23691],[24.83376,60.23614]],[[24.83392,60.25826],[24.84321,60.2592]],[[24.84324,60.25932],[24.83693,60.25924],[24.83392,60.25826]],[[24.83401,60.18092],[24.83444,60.18014]],[[24.83407,60.2405],[24.83467,60.23995]],[[24.83467,60.23995],[24.83424,60.24041],[24.83407,60.2405]],[[24.83444,60.18014],[24.83477,60.17954],[24.8376,60.18012]],[[24.8376,60.18012],[24.83444,60.18014]],[[24.83467,60.23995],[24.83611,60.23798]],[[24.83494,60.23691],[24.83647,60.2377],[24.83611,60.23798]],[[24.83611,60.23798],[24.83494,60.23691]],[[24.83697,60.2206],[24.83565,60.22054]],[[24.83594,60.26822],[24.83651,60.26846]],[[24.83651,60.26846],[24.83627,60.2684],[24.83594,60.26822]],[[24.83651,60.26846],[24.83749,60.26882]],[[24.84177,60.22115],[24.83697,60.2206]],[[24.83697,60.2206],[24.83738,60.22058],[24.83874,60.22065],[24.83968,60.22075],[24.84177,60.22115]],[[24.83749,60.26882],[24.841,60.26958]],[[24.84097,60.26967],[24.83749,60.26882]],[[24.8376,60.18012],[24.84902,60.18152]],[[24.83821,60.27391],[24.83974,60.27426]],[[24.83974,60.27426],[24.8385,60.274],[24.83821,60.27391]],[[24.83892,60.27316],[24.83821,60.27391]],[[24.83892,60.27316],[24.83841,60.2725],[24.83981,60.2716]],[[24.83981,60.2716],[24.83892,60.27316]],[[24.83974,60.27426],[24.85038,60.27674]],[[24.84072,60.27054],[24.83981,60.2716]],[[24.84072,60.27054],[24.84097,60.26967]],[[24.84115,60.26968],[24.84072,60.27054]],[[24.84115,60.26968],[24.84097,60.26967]],[[24.84097,60.26967],[24.841,60.26958]],[[24.841,60.26958],[24.84281,60.2697]],[[24.84281,60.2697],[24.84115,60.26968]],[[24.84175,60.28316],[24.84312,60.28352]],[[24.84312,60.28352],[24.8417,60.28324],[24.84175,60.28316]],[[24.8519,60.28269],[24.84557,60.28162],[24.84325,60.2819],[24.84175,60.28316]],[[24.84759,60.224],[24.84177,60.22115]],[[24.85228,60.2699],[24.84281,60.2697]],[[24.84321,60.2592],[24.84302,60.25892]],[[24.84312,60.28352],[24.84736,60.28449]],[[24.84324,60.25932],[24.84321,60.2592]],[[24.84321,60.2592],[24.84709,60.25899],[24.85664,60.2592],[24.85665,60.2611]],[[24.85647,60.2611],[24.85663,60.25932],[24.84324,60.25932]],[[24.84574,60.24376],[24.84556,60.24369]],[[24.84556,60.24369],[24.84337,60.24246],[24.84273,60.24131],[24.84342,60.24037],[24.84636,60.23866],[24.84707,60.23649],[24.84625,60.23392],[24.84641,60.23219],[24.84694,60.23081],[24.84762,60.22975],[24.84877,60.22877],[24.85374,60.22671],[24.85473,60.22483]],[[24.84556,60.24369],[24.84569,60.2436]],[[24.84569,60.2436],[24.84588,60.24368]],[[24.85621,60.2246],[24.85382,60.22678],[24.84866,60.22899],[24.84725,60.23056],[24.84644,60.23349],[24.84725,60.2365],[24.84659,60.23857],[24.84291,60.24129],[24.84569,60.2436]],[[24.84569,60.2436],[24.85881,60.2354],[24.87801,60.22434],[24.88393,60.21425]],[[24.8524,60.24663],[24.85146,60.24647],[24.85011,60.24604],[24.84574,60.24376]],[[24.84588,60.24368],[24.84574,60.24376]],[[24.84588,60.24368],[24.8524,60.24663]],[[24.88479,60.21426],[24.8782,60.22441],[24.84588,60.24368]],[[24.84736,60.28449],[24.84967,60.2851]],[[24.84967,60.2851],[24.84788,60.28466],[24.84736,60.28449]],[[24.84759,60.224],[24.85024,60.22486],[24.85481,60.2247]],[[24.85473,60.22483],[24.85002,60.2249],[24.84759,60.224]],[[24.84902,60.18152],[24.85173,60.18186]],[[24.85173,60.18186],[24.85013,60.18171],[24.84902,60.18152]],[[24.84911,60.28568],[24.84967,60.2851]],[[24.85038,60.27674],[24.85296,60.27664]],[[24.85294,60.27675],[24.85038,60.27674]],[[24.85173,60.18186],[24.85822,60.18477],[24.87473,60.18811],[24.8787,60.19243]],[[24.8544,60.27749],[24.85454,60.27747],[24.85498,60.27885],[24.85479,60.27995],[24.85385,60.28117],[24.85209,60.28273],[24.8519,60.28269]],[[24.8519,60.28269],[24.85459,60.27994],[24.8544,60.27749]],[[24.85315,60.26999],[24.85228,60.2699]],[[24.85228,60.2699],[24.85311,60.26987]],[[24.8524,60.24663],[24.8645,60.2493],[24.86672,60.25162]],[[24.85304,60.27697],[24.85294,60.27675]],[[24.85294,60.27675],[24.85296,60.27664]],[[24.85296,60.27664],[24.85308,60.27673]],[[24.85296,60.27664],[24.85655,60.27631]],[[24.85308,60.27717],[24.85304,60.27697]],[[24.85322,60.27695],[24.85304,60.27697]],[[24.85308,60.27673],[24.85322,60.27695]],[[24.85662,60.27644],[24.85308,60.27673]],[[24.85315,60.26999],[24.85311,60.26987]],[[24.85311,60.26987],[24.85352,60.26949]],[[24.85344,60.27001],[24.85315,60.26999]],[[24.85322,60.27695],[24.85359,60.27757],[24.8544,60.27749]],[[24.85322,60.27695],[24.85351,60.27692],[24.85377,60.27736]],[[24.85467,60.2717],[24.85539,60.27077],[24.85344,60.27001]],[[24.85356,60.26991],[24.85344,60.27001]],[[24.85352,60.26949],[24.85356,60.26991]],[[24.85352,60.26949],[24.85399,60.26454]],[[24.85356,60.26991],[24.85583,60.27075],[24.85467,60.2717]],[[24.85399,60.26454],[24.85406,60.26363],[24.85627,60.26368]],[[24.85636,60.26379],[24.85414,60.26376],[24.85399,60.26454]],[[24.85467,60.2717],[24.85373,60.27342],[24.85682,60.27568]],[[24.85473,60.22483],[24.85481,60.2247]],[[24.85621,60.2246],[24.85473,60.22483]],[[24.85481,60.2247],[24.86264,60.22359],[24.86141,60.22072],[24.86174,60.22015],[24.87305,60.21597],[24.87875,60.21425]],[[24.85555,60.26117],[24.85647,60.2611]],[[24.85645,60.2614],[24.85596,60.26138]],[[24.8789,60.21439],[24.8619,60.22035],[24.86337,60.22369],[24.85621,60.2246]],[[24.85627,60.26368],[24.85648,60.26369]],[[24.85636,60.26379],[24.85627,60.26368]],[[24.85627,60.26368],[24.85645,60.2614]],[[24.86136,60.26414],[24.85636,60.26379]],[[24.85648,60.26369],[24.85636,60.26379]],[[24.85662,60.2614],[24.85645,60.2614]],[[24.85645,60.2614],[24.85647,60.2611]],[[24.85647,60.2611],[24.85665,60.2611]],[[24.85648,60.26369],[24.86136,60.26414]],[[24.85662,60.2614],[24.85648,60.26369]],[[24.85662,60.27644],[24.85655,60.27631]],[[24.85655,60.27631],[24.85679,60.27621]],[[24.85665,60.2611],[24.85662,60.2614]],[[24.857,60.27624],[24.85701,60.27644],[24.85662,60.27644]],[[24.86443,60.20845],[24.85664,60.20738]],[[24.85664,60.20738],[24.85626,60.20737],[24.85612,60.20729],[24.85633,60.20717],[24.85664,60.20738]],[[24.85679,60.27621],[24.857,60.27624]],[[24.85679,60.27621],[24.85682,60.27568]],[[24.85682,60.27568],[24.857,60.27624]],[[24.86136,60.26414],[24.86307,60.26475]],[[24.86307,60.26475],[24.87126,60.26281]],[[24.87158,60.26288],[24.86582,60.26482],[24.86307,60.26475]],[[24.86443,60.20845],[24.87129,60.21005],[24.87584,60.20876],[24.87916,60.20658]],[[24.8721,60.20377],[24.86434,60.20505],[24.86363,60.20606],[24.86443,60.20845]],[[24.86672,60.25162],[24.86755,60.25214]],[[24.86755,60.25214],[24.86689,60.25198],[24.86672,60.25162]],[[24.86755,60.25214],[24.86893,60.25295],[24.86911,60.25418]],[[24.86911,60.25418],[24.87059,60.25513]],[[24.87059,60.25513],[24.86954,60.2547],[24.86911,60.25418]],[[24.87059,60.25513],[24.87364,60.2594]],[[24.87799,60.23674],[24.87126,60.23529]],[[24.87126,60.26281],[24.87109,60.26199],[24.87365,60.26039],[24.87364,60.2594]],[[24.87126,60.26281],[24.87148,60.26275]],[[24.87148,60.26275],[24.87158,60.26288]],[[24.87364,60.2594],[24.87389,60.26027],[24.87135,60.26186],[24.87148,60.26275]],[[24.87148,60.26275],[24.87207,60.26266]],[[24.876,60.26269],[24.87158,60.26288]],[[24.87207,60.26266],[24.87589,60.26185],[24.87895,60.25757],[24.90717,60.22671],[24.90917,60.22179],[24.9089,60.21906],[24.90591,60.2153],[24.89994,60.21061],[24.89933,60.20959],[24.89909,60.20811]],[[24.87207,60.26266],[24.87604,60.26259]],[[24.87286,60.20382],[24.8721,60.20377]],[[24.8721,60.20377],[24.87224,60.20375],[24.87286,60.20382]],[[24.87617,60.20546],[24.87928,60.20504],[24.87828,60.20424],[24.87286,60.20382]],[[24.87472,60.24095],[24.87836,60.24324],[24.8797,60.24147],[24.88337,60.24109]],[[24.87472,60.24095],[24.87293,60.2398],[24.87287,60.23959],[24.87799,60.23674]],[[24.87799,60.23674],[24.87302,60.23962],[24.87472,60.24095]],[[24.87737,60.26293],[24.876,60.26269]],[[24.876,60.26269],[24.87666,60.26375],[24.87773,60.26358],[24.87737,60.26293]],[[24.87604,60.26259],[24.876,60.26269]],[[24.87604,60.26259],[24.87792,60.26295],[24.8794,60.26358]],[[24.89938,60.20808],[24.90019,60.21058],[24.90509,60.21433],[24.90857,60.21803],[24.90948,60.22072],[24.90895,60.22312],[24.90737,60.22673],[24.90605,60.22872],[24.87916,60.25762],[24.87604,60.26259]],[[24.87617,60.20546],[24.87606,60.2056],[24.87581,60.2055],[24.87596,60.20541],[24.87617,60.20546]],[[24.8794,60.26358],[24.87737,60.26293]],[[24.8787,60.19243],[24.87983,60.19249]],[[24.87983,60.19249],[24.87921,60.19255],[24.8787,60.19243]],[[24.87875,60.21425],[24.8789,60.21439]],[[24.88141,60.21152],[24.87875,60.21425]],[[24.87875,60.21425],[24.88324,60.21354]],[[24.88384,60.21421],[24.8789,60.21439]],[[24.87974,60.20663],[24.87916,60.20658]],[[24.87916,60.20658],[24.87977,60.20656]],[[24.8794,60.26358],[24.88182,60.26506]],[[24.87997,60.20666],[24.87974,60.20663]],[[24.88141,60.21152],[24.87935,60.20894],[24.87934,60.20787],[24.87974,60.20663]],[[24.87974,60.20663],[24.87977,60.20656]],[[24.87977,60.20656],[24.88445,60.19658]],[[24.88497,60.1955],[24.88222,60.19264],[24.88136,60.19234],[24.87983,60.19249]],[[24.87997,60.20666],[24.87956,60.20889],[24.88141,60.21152]],[[24.88481,60.19653],[24.87997,60.20666]],[[24.88182,60.26506],[24.88371,60.26468]],[[24.88371,60.26468],[24.8827,60.26568],[24.88182,60.26506]],[[24.88384,60.21421],[24.88324,60.21354]],[[24.88324,60.21354],[24.88593,60.21263],[24.88946,60.20919],[24.89055,60.20885],[24.89521,60.20819]],[[24.88434,60.24099],[24.88394,60.24121],[24.88337,60.24109]],[[24.88337,60.24109],[24.88434,60.24099]],[[24.88371,60.26468],[24.88492,60.26357]],[[24.88393,60.21425],[24.88384,60.21421]],[[24.88479,60.21426],[24.88393,60.21425]],[[24.88445,60.19658],[24.8843,60.19645]],[[24.8843,60.19645],[24.88497,60.1955]],[[24.8843,60.19645],[24.88566,60.19618]],[[24.88801,60.23866],[24.88708,60.24024],[24.88434,60.24099]],[[24.88481,60.19653],[24.88445,60.19658]],[[24.89505,60.20842],[24.88942,60.20939],[24.88479,60.21426]],[[24.90725,60.19128],[24.89957,60.19156],[24.89002,60.19539],[24.88481,60.19653]],[[24.88492,60.26357],[24.88565,60.26278],[24.88723,60.26184],[24.88671,60.26091],[24.88683,60.26026],[24.88726,60.25975],[24.88844,60.25914],[24.88964,60.25891],[24.89142,60.25894],[24.89384,60.25935],[24.89573,60.25979]],[[24.89573,60.25979],[24.88837,60.25927],[24.88692,60.2603],[24.88742,60.26184],[24.88492,60.26357]],[[24.88497,60.1955],[24.88566,60.19618]],[[24.88566,60.19618],[24.89964,60.1914],[24.90699,60.19117]],[[24.88801,60.23866],[24.88787,60.23777],[24.88863,60.23605],[24.88962,60.23541]],[[24.88962,60.23541],[24.88801,60.23866]],[[24.88961,60.23247],[24.88927,60.23297],[24.89081,60.23329],[24.89093,60.23351],[24.89074,60.23375]],[[24.89074,60.23375],[24.88902,60.23304],[24.88961,60.23247]],[[24.89167,60.23142],[24.88961,60.23247]],[[24.89074,60.23375],[24.88962,60.23541]],[[24.89167,60.23142],[24.89313,60.23089]],[[24.89313,60.23089],[24.89234,60.23122],[24.89167,60.23142]],[[24.89508,60.2295],[24.89313,60.23089]],[[24.89493,60.22877],[24.89523,60.22918],[24.89508,60.2295]],[[24.89508,60.2295],[24.89493,60.22877]],[[24.89542,60.22553],[24.89578,60.22731],[24.89493,60.22877]],[[24.89557,60.20842],[24.89505,60.20842]],[[24.8952,60.20882],[24.89505,60.20842]],[[24.89505,60.20842],[24.89521,60.20819]],[[24.8952,60.20882],[24.89709,60.21078]],[[24.89557,60.20842],[24.8952,60.20882]],[[24.89521,60.20819],[24.89905,60.20771]],[[24.89542,60.22553],[24.89533,60.22533],[24.89568,60.22531]],[[24.89568,60.22531],[24.89542,60.22553]],[[24.89909,60.20811],[24.89557,60.20842]],[[24.8971,60.22469],[24.89568,60.22531]],[[24.89573,60.25979],[24.89723,60.25931]],[[24.89709,60.21078],[24.89732,60.21104]],[[24.89732,60.21104],[24.89708,60.21083],[24.89709,60.21078]],[[24.8971,60.22469],[24.89813,60.22428]],[[24.89813,60.22428],[24.89781,60.22461],[24.8971,60.22469]],[[24.89764,60.25933],[24.89723,60.25931]],[[24.89723,60.25931],[24.89763,60.25923]],[[24.89732,60.21104],[24.89832,60.21236]],[[24.89763,60.25923],[24.91649,60.25611],[24.91803,60.25482]],[[24.89763,60.25923],[24.89764,60.25933]],[[24.91803,60.25482],[24.91665,60.25611],[24.89764,60.25933]],[[24.89802,60.21567],[24.89919,60.2166]],[[24.89802,60.21567],[24.89804,60.21551]],[[24.89804,60.21551],[24.89811,60.21559],[24.89802,60.21567]],[[24.89839,60.21251],[24.89908,60.2142],[24.89804,60.21551]],[[24.90246,60.22217],[24.89813,60.22428]],[[24.89832,60.21236],[24.89839,60.21251]],[[24.89839,60.21251],[24.8983,60.21244],[24.89832,60.21236]],[[24.89909,60.20811],[24.89905,60.20771]],[[24.89905,60.20771],[24.8992,60.20115],[24.90109,60.19857],[24.90125,60.19531],[24.91,60.19221]],[[24.89938,60.20808],[24.89909,60.20811]],[[24.89919,60.2166],[24.89961,60.21677],[24.89968,60.217]],[[24.89968,60.217],[24.89919,60.2166]],[[24.91013,60.19232],[24.90187,60.19568],[24.90137,60.19872],[24.89952,60.20117],[24.89938,60.20808]],[[24.89968,60.217],[24.89939,60.21841],[24.9017,60.21981],[24.90274,60.2218]],[[24.90246,60.22217],[24.90274,60.2218]],[[24.90274,60.2218],[24.90274,60.2219],[24.90246,60.22217]],[[24.90699,60.19117],[24.90726,60.19116]],[[24.90699,60.19117],[24.90712,60.1909],[24.90827,60.19048]],[[24.90726,60.19116],[24.90725,60.19128]],[[24.91036,60.19123],[24.90725,60.19128]],[[24.90827,60.19048],[24.90726,60.19116]],[[24.90726,60.19116],[24.91044,60.19111]],[[24.91167,60.18907],[24.90827,60.19048]],[[24.91,60.19221],[24.91004,60.19188]],[[24.91,60.19221],[24.91019,60.19214]],[[24.91004,60.19188],[24.91019,60.19214]],[[24.91004,60.19188],[24.9103,60.19149]],[[24.91019,60.19214],[24.91013,60.19232]],[[24.91365,60.19103],[24.91013,60.19232]],[[24.91019,60.19214],[24.91283,60.19118]],[[24.9103,60.19149],[24.91036,60.19123]],[[24.91051,60.19123],[24.9103,60.19149]],[[24.91051,60.19123],[24.91036,60.19123]],[[24.91036,60.19123],[24.91044,60.19111]],[[24.91044,60.19111],[24.91073,60.19083]],[[24.91044,60.19111],[24.9106,60.1911]],[[24.91283,60.19118],[24.91128,60.19123],[24.9107,60.19124],[24.91051,60.19123]],[[24.9106,60.1911],[24.91051,60.19123]],[[24.91073,60.19083],[24.9106,60.1911]],[[24.9106,60.1911],[24.91324,60.19103]],[[24.91073,60.19083],[24.91181,60.18927]],[[24.91167,60.18907],[24.91206,60.1889]],[[24.91188,60.18906],[24.91167,60.18907]],[[24.91181,60.18927],[24.91188,60.18906]],[[24.91215,60.18902],[24.91181,60.18927]],[[24.91188,60.18906],[24.91206,60.1889]],[[24.91215,60.18902],[24.91188,60.18906]],[[24.91206,60.1889],[24.91235,60.18876]],[[24.91235,60.18876],[24.91215,60.18902]],[[24.92262,60.17943],[24.91235,60.18876]],[[24.91283,60.19118],[24.91324,60.19103]],[[24.91365,60.19103],[24.91283,60.19118]],[[24.91324,60.19103],[24.91617,60.18972]],[[24.91642,60.18979],[24.91365,60.19103]],[[24.91617,60.18972],[24.92162,60.18537],[24.92721,60.18173],[24.92944,60.17759],[24.93372,60.17379]],[[24.91617,60.18972],[24.91661,60.18967]],[[24.91661,60.18967],[24.91642,60.18979]],[[24.92904,60.1961],[24.93031,60.19409],[24.92947,60.19294],[24.92948,60.19247],[24.92429,60.19136],[24.92093,60.19],[24.91995,60.18991],[24.91669,60.18977],[24.91642,60.18979]],[[24.93372,60.17379],[24.92988,60.17747],[24.9275,60.18178],[24.91661,60.18967]],[[24.91661,60.18967],[24.91674,60.18967],[24.91685,60.18967],[24.91721,60.18969],[24.92003,60.18981],[24.92061,60.18982],[24.92097,60.18986],[24.92948,60.19229],[24.93049,60.19399],[24.92904,60.1961]],[[24.93842,60.25668],[24.93588,60.25605],[24.92556,60.25575],[24.91977,60.25478],[24.91803,60.25482]],[[24.92262,60.17943],[24.92181,60.17533],[24.92245,60.17346],[24.92433,60.17134],[24.9274,60.17122]],[[24.9274,60.17122],[24.92444,60.17144],[24.92269,60.17349],[24.92208,60.17538],[24.92334,60.17908],[24.92262,60.17943]],[[24.92883,60.17016],[24.9274,60.17122]],[[24.92848,60.19733],[24.93493,60.19807],[24.93592,60.19551],[24.93874,60.19509]],[[24.93874,60.19509],[24.93615,60.19564],[24.93508,60.19825],[24.92848,60.19733]],[[24.92848,60.19733],[24.92904,60.1961]],[[24.93036,60.17034],[24.92883,60.17016]],[[24.92883,60.17016],[24.92911,60.16995]],[[24.92911,60.16995],[24.93036,60.17034]],[[24.93154,60.16819],[24.92911,60.16995]],[[24.93036,60.17034],[24.93164,60.16936]],[[24.93164,60.16936],[24.9313,60.16881]],[[24.93154,60.16819],[24.93037,60.16643],[24.93702,60.16164],[24.93942,60.15995],[24.94199,60.16079]],[[24.94199,60.16079],[24.93154,60.16819]],[[24.93164,60.16893],[24.93164,60.16936]],[[24.93841,60.17456],[24.93372,60.17379]],[[24.93841,60.17456],[24.93875,60.17295]],[[24.93875,60.17295],[24.93865,60.17444],[24.93841,60.17456]],[[24.9392,60.25675],[24.93842,60.25668]],[[24.93842,60.25668],[24.93883,60.25664],[24.9392,60.25675]],[[24.93978,60.19465],[24.93874,60.19509]],[[24.93894,60.17224],[24.93875,60.17295]],[[24.93894,60.17224],[24.93919,60.17131],[24.94006,60.17134],[24.93997,60.17218],[24.93979,60.17226],[24.93894,60.17224]],[[24.9392,60.25675],[24.9394,60.2568]],[[24.9394,60.2568],[24.94546,60.25655]],[[24.94546,60.25655],[24.94266,60.25726],[24.9394,60.2568]],[[24.93978,60.19465],[24.94015,60.19451]],[[24.94015,60.19451],[24.93996,60.19463],[24.93978,60.19465]],[[24.94294,60.19333],[24.94015,60.19451]],[[24.94089,60.30258],[24.94145,60.30275]],[[24.94145,60.30275],[24.94062,60.30274],[24.94089,60.30258]],[[24.94089,60.30258],[24.94159,60.29858]],[[24.94711,60.30252],[24.94357,60.3028],[24.94145,60.30275]],[[24.94159,60.29858],[24.94202,60.29678]],[[24.94202,60.29678],[24.94207,60.2969],[24.94159,60.29858]],[[24.94252,60.15531],[24.94104,60.15823],[24.9421,60.15931],[24.94199,60.16079]],[[24.94238,60.29553],[24.94202,60.29678]],[[24.94238,60.29553],[24.94304,60.2931],[24.9447,60.28979],[24.95979,60.28979]],[[24.95986,60.28989],[24.94476,60.28989],[24.94238,60.29553]],[[24.96145,60.18945],[24.95268,60.18965],[24.94895,60.19083],[24.94415,60.1929],[24.94317,60.1933],[24.94305,60.19333],[24.94294,60.19333]],[[24.94294,60.19333],[24.9493,60.19057],[24.9519,60.18968],[24.95502,60.18932],[24.96145,60.18945]],[[24.94313,60.17115],[24.94432,60.1704],[24.94743,60.17143],[24.95041,60.17411],[24.95058,60.18002],[24.95618,60.18206],[24.95843,60.1832],[24.96079,60.185],[24.96167,60.18729],[24.96344,60.18803],[24.96422,60.1893]],[[24.964,60.18933],[24.96147,60.18738],[24.96079,60.1853],[24.95834,60.18331],[24.9499,60.17983],[24.95024,60.17449],[24.94797,60.17228],[24.94369,60.17188]],[[24.94546,60.25655],[24.9477,60.256]],[[24.95485,60.30224],[24.94941,60.30252],[24.94826,60.30252],[24.94711,60.30252]],[[24.94711,60.30252],[24.95474,60.302]],[[24.94948,60.25565],[24.94849,60.25615],[24.9477,60.256]],[[24.9477,60.256],[24.94948,60.25565]],[[24.95122,60.25542],[24.9502,60.25562],[24.94978,60.25566],[24.94948,60.25565]],[[24.97109,60.2684],[24.96235,60.26042],[24.95122,60.25542]],[[24.95122,60.25542],[24.94896,60.25337],[24.94806,60.2515],[24.94757,60.23797],[24.9426,60.23069],[24.94517,60.22203],[24.94492,60.21899],[24.94308,60.21599],[24.9428,60.21481],[24.94533,60.20804],[24.94459,60.20068],[24.94737,60.19841],[24.96051,60.1926],[24.96405,60.18941]],[[24.95162,60.25532],[24.95122,60.25542]],[[24.95162,60.25532],[24.9628,60.26024],[24.97178,60.26793]],[[24.96426,60.18938],[24.96082,60.19274],[24.9476,60.19859],[24.94514,60.20059],[24.94575,60.208],[24.94309,60.2148],[24.94522,60.21898],[24.94565,60.22124],[24.94357,60.23028],[24.94415,60.23266],[24.9479,60.23825],[24.94894,60.24539],[24.94836,60.25176],[24.95162,60.25532]],[[24.95162,60.25532],[24.95302,60.25486]],[[24.95302,60.25486],[24.95361,60.25435],[24.95525,60.25483]],[[24.95525,60.25483],[24.95302,60.25486]],[[24.95485,60.30224],[24.95474,60.302]],[[24.95474,60.302],[24.95531,60.30197]],[[24.95593,60.30316],[24.95485,60.30224]],[[24.95525,60.25483],[24.95797,60.25585],[24.96264,60.25977],[24.97068,60.26365]],[[24.95531,60.30197],[24.95873,60.30189]],[[24.95531,60.30197],[24.95538,60.30215]],[[24.95538,60.30215],[24.95593,60.30316]],[[24.95873,60.30189],[24.95538,60.30215]],[[24.95608,60.30333],[24.95593,60.30316]],[[24.95608,60.30333],[24.95659,60.30388]],[[24.95659,60.30388],[24.9561,60.30361],[24.95608,60.30333]],[[24.95782,60.30518],[24.95659,60.30388]],[[24.95762,60.28691],[24.95848,60.28806]],[[24.95762,60.28691],[24.9574,60.28645],[24.95786,60.28581],[24.9584,60.28537],[24.95948,60.28491]],[[24.95962,60.28497],[24.95762,60.28691]],[[24.95782,60.30518],[24.95839,60.3058]],[[24.95839,60.3058],[24.95786,60.3055],[24.95782,60.30518]],[[24.95916,60.3066],[24.95839,60.3058]],[[24.95848,60.28806],[24.96002,60.28978]],[[24.95979,60.28979],[24.95848,60.28806]],[[24.95873,60.30189],[24.96012,60.30278],[24.96069,60.30173]],[[24.96069,60.30173],[24.95873,60.30189]],[[24.95916,60.3066],[24.96726,60.31268]],[[24.96726,60.31268],[24.96495,60.31155],[24.95916,60.3066]],[[24.95941,60.28467],[24.95963,60.28481]],[[24.95949,60.28487],[24.95941,60.28467]],[[24.95941,60.28467],[24.95855,60.28309],[24.95995,60.2816]],[[24.95962,60.28497],[24.95948,60.28491]],[[24.95948,60.28491],[24.95949,60.28487]],[[24.95949,60.28487],[24.95963,60.28481]],[[24.95963,60.28481],[24.95962,60.28497]],[[24.95986,60.28989],[24.95979,60.28979]],[[24.95979,60.28979],[24.96002,60.28978]],[[24.96069,60.30173],[24.95797,60.29733],[24.95875,60.2946],[24.96041,60.29206],[24.95986,60.28989]],[[24.96011,60.28989],[24.95986,60.28989]],[[24.96,60.28151],[24.95995,60.2816]],[[24.95995,60.2816],[24.95994,60.28156],[24.96,60.28151]],[[24.96049,60.27507],[24.95944,60.27519],[24.95869,60.27898],[24.96,60.28151]],[[24.96002,60.28978],[24.96011,60.28989]],[[24.96002,60.28978],[24.9674,60.28976],[24.96743,60.29005]],[[24.96011,60.28989],[24.96068,60.29184],[24.95861,60.29689],[24.9612,60.30167]],[[24.96743,60.29005],[24.96709,60.28985],[24.96011,60.28989]],[[24.9612,60.27473],[24.9612,60.27507],[24.96049,60.27507]],[[24.96049,60.27507],[24.9612,60.27473]],[[24.9612,60.30167],[24.96069,60.30173]],[[24.9612,60.30167],[24.96243,60.30234],[24.96361,60.30188],[24.96302,60.30137],[24.9612,60.30167]],[[24.9612,60.27473],[24.96398,60.27019],[24.96662,60.26877]],[[24.96156,60.18963],[24.96145,60.18945]],[[24.96405,60.18941],[24.96195,60.18971],[24.96156,60.18963]],[[24.96156,60.18963],[24.964,60.18933]],[[24.96405,60.18941],[24.964,60.18933]],[[24.964,60.18933],[24.96422,60.1893]],[[24.96426,60.18938],[24.96405,60.18941]],[[24.96422,60.1893],[24.96426,60.18938]],[[24.96422,60.1893],[24.96701,60.18895]],[[24.96701,60.18895],[24.96426,60.18938]],[[24.96662,60.26877],[24.96994,60.27011]],[[24.96994,60.27011],[24.96817,60.2698],[24.96662,60.26877]],[[24.96697,60.31622],[24.96702,60.31655]],[[24.96705,60.31683],[24.96581,60.31726],[24.96697,60.31622]],[[24.96697,60.31622],[24.96497,60.31504],[24.96821,60.31316],[24.96726,60.31268]],[[24.97369,60.18759],[24.96701,60.18895]],[[24.97579,60.2966],[24.97269,60.29699],[24.97148,60.29304],[24.96743,60.29005]],[[24.96994,60.27011],[24.97044,60.27013],[24.97096,60.27006],[24.9716,60.26971],[24.97109,60.2684]],[[24.97109,60.2684],[24.96994,60.27011]],[[24.97068,60.26365],[24.97117,60.26386]],[[24.97117,60.26386],[24.97077,60.26372],[24.97068,60.26365]],[[24.97178,60.26793],[24.97109,60.2684]],[[24.97117,60.26386],[24.97254,60.26493]],[[24.97178,60.26793],[24.97353,60.2688],[24.97462,60.26802],[24.97295,60.26703],[24.97178,60.26793]],[[24.97254,60.26493],[24.97495,60.2652]],[[24.97495,60.2652],[24.97269,60.26556],[24.97254,60.26493]],[[24.97369,60.18759],[24.98983,60.18573],[24.99265,60.18565],[24.99546,60.18588],[25.01422,60.18915],[25.03159,60.194],[25.03004,60.19436]],[[25.02965,60.19383],[25.01562,60.18961],[24.99421,60.18586],[24.97369,60.18759]],[[24.97495,60.2652],[24.98083,60.26452]],[[24.97579,60.2966],[24.97751,60.29645]],[[24.97751,60.29645],[24.9766,60.29657],[24.97579,60.2966]],[[24.97806,60.29639],[24.97751,60.29645]],[[24.97806,60.29639],[24.9827,60.29512]],[[24.9827,60.29512],[24.97981,60.29611],[24.97806,60.29639]],[[24.98358,60.26422],[24.98355,60.26448],[24.98083,60.26452]],[[24.98083,60.26452],[24.98358,60.26422]],[[24.98907,60.29313],[24.9827,60.29512]],[[24.98368,60.26407],[24.98358,60.26422]],[[24.98368,60.26407],[24.98403,60.26349]],[[24.98403,60.26349],[24.9838,60.26396],[24.98368,60.26407]],[[24.98654,60.26108],[24.98403,60.26349]],[[24.98654,60.26108],[24.98701,60.26081]],[[24.98701,60.26081],[24.98679,60.26098],[24.98654,60.26108]],[[24.98841,60.26006],[24.98701,60.26081]],[[24.98841,60.26006],[24.98873,60.25985]],[[24.98885,60.25995],[24.98841,60.26006]],[[24.98885,60.25995],[24.98873,60.25985]],[[24.98873,60.25985],[24.98905,60.25975]],[[24.98919,60.25985],[24.98908,60.25995],[24.98894,60.25997],[24.98885,60.25995]],[[24.98905,60.25975],[24.98919,60.25985]],[[24.98905,60.25975],[24.99654,60.25771],[25.00139,60.25538],[25.00352,60.25295],[25.00793,60.25155],[25.009,60.24915],[25.01187,60.24635]],[[24.98907,60.29313],[24.99041,60.29286],[24.99298,60.29275]],[[24.99298,60.29275],[24.98907,60.29313]],[[25.01187,60.24635],[25.00798,60.25166],[25.00365,60.25301],[25.0014,60.25555],[24.99658,60.25784],[24.98919,60.25985]],[[24.99546,60.29261],[24.99298,60.29275]],[[25.0003,60.29226],[24.99677,60.29259],[24.99584,60.29262],[24.99546,60.29261]],[[24.99546,60.29261],[25.0003,60.29226]],[[25.0034,60.29208],[25.0003,60.29226]],[[25.00571,60.29235],[25.0034,60.29208]],[[25.0034,60.29208],[25.00592,60.292],[25.00571,60.29235]],[[25.04165,60.29169],[25.02938,60.29295],[25.02931,60.29371],[25.01117,60.29409],[25.00518,60.29408],[25.00571,60.29235]],[[25.01501,60.24363],[25.01187,60.24635]],[[25.01501,60.24363],[25.01557,60.24326]],[[25.01557,60.24326],[25.01551,60.24336],[25.01501,60.24363]],[[25.01799,60.24257],[25.01557,60.24326]],[[25.01799,60.24257],[25.01999,60.24155]],[[25.1119,60.23758],[25.11094,60.23774],[25.10735,60.23774],[25.10044,60.23713],[25.09291,60.23761],[25.09066,60.23743],[25.08893,60.23708],[25.08211,60.23498],[25.07607,60.22847],[25.07348,60.22802],[25.05236,60.23122],[25.04483,60.23705],[25.03857,60.23983],[25.03168,60.24108],[25.01799,60.24257]],[[25.01999,60.24155],[25.03436,60.24027],[25.05443,60.22987],[25.07566,60.22712],[25.08192,60.23467],[25.08776,60.23662],[25.09248,60.23749],[25.10044,60.23701],[25.1119,60.23758]],[[25.01999,60.24155],[25.02043,60.24064],[25.01871,60.24088],[25.01896,60.24133],[25.01999,60.24155]],[[25.04165,60.29169],[25.04239,60.29141],[25.04308,60.29184]],[[25.04308,60.29184],[25.04247,60.2916],[25.04165,60.29169]],[[25.04355,60.29275],[25.04308,60.29184]],[[25.04355,60.29275],[25.04364,60.29325]],[[25.04364,60.29325],[25.04345,60.293],[25.04355,60.29275]],[[25.04431,60.29446],[25.04364,60.29325]],[[25.04431,60.29446],[25.04501,60.2959]],[[25.04501,60.2959],[25.04454,60.29552],[25.04431,60.29446]],[[25.04615,60.29821],[25.04501,60.2959]],[[25.04615,60.29821],[25.04467,60.29859],[25.05083,60.29828],[25.05056,60.29771]],[[25.05056,60.29771],[25.05096,60.29839],[25.04479,60.29909],[25.04449,60.29859],[25.04615,60.29821]],[[25.04898,60.29399],[25.04861,60.29496],[25.05056,60.29771]],[[25.04898,60.29399],[25.05093,60.29278],[25.05317,60.29374]],[[25.05317,60.29374],[25.05095,60.29292],[25.04898,60.29399]],[[25.05777,60.29485],[25.05317,60.29374]],[[25.05777,60.29485],[25.0624,60.29551]],[[25.0624,60.29551],[25.06106,60.29558],[25.05777,60.29485]],[[25.07629,60.28929],[25.06918,60.29421],[25.06595,60.29545],[25.0624,60.29551]],[[25.07629,60.28929],[25.0766,60.28894],[25.07869,60.28779],[25.07965,60.28749],[25.08064,60.28738],[25.08048,60.28587]],[[25.08048,60.28587],[25.08083,60.2874],[25.07629,60.28929]],[[25.08048,60.28587],[25.07961,60.28349]],[[25.07961,60.28349],[25.07928,60.28229],[25.07957,60.28204],[25.08507,60.28154],[25.08998,60.28158]],[[25.08998,60.28158],[25.07953,60.28213],[25.07961,60.28349]],[[25.08008,60.25362],[25.08103,60.25492]],[[25.08103,60.25492],[25.08004,60.25418],[25.08008,60.25362]],[[25.08857,60.25082],[25.08181,60.25188],[25.08008,60.25362]],[[25.08103,60.25492],[25.08446,60.25987]],[[25.08446,60.25987],[25.08468,60.26014]],[[25.08447,60.26015],[25.08446,60.25987]],[[25.0848,60.26032],[25.08447,60.26015]],[[25.08447,60.26015],[25.08468,60.26014]],[[25.08468,60.26014],[25.08484,60.26023]],[[25.08484,60.26023],[25.0848,60.26032]],[[25.0854,60.2603],[25.0848,60.26032]],[[25.08484,60.26023],[25.0854,60.2603]],[[25.09824,60.26624],[25.09288,60.26232],[25.08965,60.26214],[25.0854,60.2603]],[[25.08957,60.25066],[25.08874,60.25083],[25.08857,60.25082]],[[25.08857,60.25082],[25.08957,60.25066]],[[25.09461,60.25007],[25.08957,60.25066]],[[25.1028,60.27994],[25.08998,60.28158]],[[25.09556,60.25],[25.09474,60.25008],[25.09461,60.25007]],[[25.09461,60.25007],[25.09556,60.25]],[[25.10477,60.25037],[25.10137,60.24975],[25.09556,60.25]],[[25.09824,60.26624],[25.10325,60.26959],[25.10384,60.27029],[25.10406,60.27151]],[[25.10406,60.27151],[25.10318,60.26971],[25.09824,60.26624]],[[25.1028,60.27994],[25.10348,60.27974]],[[25.10348,60.27974],[25.10311,60.27989],[25.1028,60.27994]],[[25.10388,60.27961],[25.10348,60.27974]],[[25.10388,60.27961],[25.10667,60.27849],[25.10523,60.27755],[25.10447,60.27654]],[[25.10447,60.27654],[25.1069,60.2785],[25.10388,60.27961]],[[25.10406,60.27151],[25.1042,60.2749]],[[25.1042,60.2749],[25.1044,60.27642]],[[25.1044,60.27642],[25.10414,60.27544],[25.1042,60.2749]],[[25.1044,60.27642],[25.10447,60.27654]],[[25.10586,60.25041],[25.10477,60.25037]],[[25.10477,60.25037],[25.10493,60.25036],[25.10572,60.25038],[25.10586,60.25041]],[[25.10643,60.25049],[25.10586,60.25041]],[[25.10643,60.25049],[25.10695,60.25061]],[[25.10695,60.25061],[25.10677,60.25059],[25.10643,60.25049]],[[25.10673,60.23915],[25.10702,60.23993]],[[25.10702,60.23993],[25.10657,60.23932],[25.10673,60.23915]],[[25.10812,60.23812],[25.10673,60.23915]],[[25.11096,60.25108],[25.10695,60.25061]],[[25.10702,60.23993],[25.10798,60.24119]],[[25.10798,60.24119],[25.1082,60.24142]],[[25.1082,60.24142],[25.10806,60.24134],[25.10798,60.24119]],[[25.10812,60.23812],[25.10961,60.23853]],[[25.109,60.23839],[25.10812,60.23812]],[[25.1082,60.24142],[25.10863,60.24192]],[[25.10863,60.24192],[25.11031,60.24377]],[[25.11031,60.24377],[25.10912,60.2426],[25.10863,60.24192]],[[25.11031,60.24377],[25.11191,60.2459]],[[25.11219,60.25039],[25.11237,60.25109],[25.11096,60.25108]],[[25.11096,60.25108],[25.11219,60.25039]],[[25.1119,60.23758],[25.11367,60.23718]],[[25.11191,60.2459],[25.11207,60.24714]],[[25.11207,60.24714],[25.11199,60.24704],[25.11191,60.2459]],[[25.11207,60.24714],[25.11219,60.25039]],[[25.11367,60.23718],[25.11412,60.23708]],[[25.11412,60.23708],[25.11398,60.23713],[25.11367,60.23718]],[[25.11412,60.23708],[25.11642,60.23688]],[[25.11682,60.23689],[25.11642,60.23688]],[[25.11642,60.23688],[25.11672,60.23686],[25.11682,60.23689]],[[25.11682,60.23689],[25.11777,60.23692]],[[25.11712,60.20183],[25.11715,60.20206]],[[25.11715,60.20206],[25.11708,60.20196],[25.11712,60.20183]],[[25.11712,60.20183],[25.11736,60.20095],[25.12006,60.19995]],[[25.11717,60.20237],[25.11715,60.20206]],[[25.11717,60.20237],[25.11718,60.20261]],[[25.11718,60.20261],[25.11714,60.20241],[25.11717,60.20237]],[[25.11726,60.20379],[25.11718,60.20261]],[[25.11726,60.20379],[25.11743,60.204]],[[25.11743,60.204],[25.11732,60.20393],[25.11726,60.20379]],[[25.11772,60.20434],[25.11743,60.204]],[[25.11772,60.20434],[25.11789,60.20455]],[[25.11789,60.20455],[25.11774,60.20444],[25.11772,60.20434]],[[25.1187,60.23695],[25.11777,60.23692]],[[25.11777,60.23692],[25.11789,60.23689],[25.1187,60.23695]],[[25.11877,60.20486],[25.11789,60.20455]],[[25.1187,60.23695],[25.12039,60.23699]],[[25.11877,60.20486],[25.11937,60.20546]],[[25.11937,60.20546],[25.11923,60.20548],[25.11877,60.20486]],[[25.11937,60.20546],[25.11962,60.20581]],[[25.12054,60.20561],[25.12019,60.20531],[25.11937,60.20546]],[[25.12006,60.19995],[25.12043,60.19983]],[[25.12043,60.19983],[25.12016,60.19995],[25.12006,60.19995]],[[25.12084,60.23699],[25.12039,60.23699]],[[25.12039,60.23699],[25.1206,60.23697],[25.12084,60.23699]],[[25.12043,60.19983],[25.12148,60.19982],[25.12225,60.2002]],[[25.12084,60.23699],[25.12191,60.23696]],[[25.12289,60.23685],[25.12191,60.23696]],[[25.12191,60.23696],[25.12209,60.23691],[25.12289,60.23685]],[[25.12225,60.2002],[25.12253,60.2004]],[[25.12253,60.2004],[25.12235,60.20032],[25.12225,60.2002]],[[25.12253,60.2004],[25.12854,60.20161]],[[25.12289,60.23685],[25.12664,60.23586]],[[25.12664,60.23586],[25.12696,60.23572]],[[25.12696,60.23572],[25.12689,60.23579],[25.12664,60.23586]],[[25.12696,60.23572],[25.1287,60.23453],[25.12864,60.23315]],[[25.12866,60.23268],[25.12762,60.23116]],[[25.12762,60.23116],[25.12754,60.23088],[25.12789,60.23076],[25.13252,60.23261],[25.13389,60.23152]],[[25.13389,60.23152],[25.13246,60.2327],[25.12786,60.23085],[25.12762,60.23116]],[[25.12854,60.20161],[25.12907,60.20174]],[[25.12907,60.20174],[25.12863,60.20166],[25.12854,60.20161]],[[25.12864,60.23315],[25.12866,60.23268]],[[25.12866,60.23268],[25.1287,60.23277],[25.12864,60.23315]],[[25.12907,60.20174],[25.13658,60.20257]],[[25.13389,60.23152],[25.1337,60.22982]],[[25.1337,60.22982],[25.13385,60.22895],[25.13431,60.22838]],[[25.13431,60.22838],[25.1337,60.22982]],[[25.13396,60.22135],[25.13406,60.2219]],[[25.13406,60.2219],[25.13391,60.22168],[25.13396,60.22135]],[[25.13396,60.22135],[25.13408,60.22068]],[[25.13408,60.22006],[25.13271,60.21718],[25.13398,60.21419]],[[25.13398,60.21419],[25.13448,60.21319]],[[25.13448,60.21319],[25.13443,60.2137],[25.13398,60.21419]],[[25.13406,60.2219],[25.13652,60.22403]],[[25.13408,60.22006],[25.13408,60.22068]],[[25.13408,60.22068],[25.13404,60.2202],[25.13408,60.22006]],[[25.13431,60.22838],[25.13531,60.2276]],[[25.13492,60.21221],[25.13448,60.21319]],[[25.13492,60.21221],[25.13503,60.21196]],[[25.13503,60.21196],[25.135,60.21216],[25.13492,60.21221]],[[25.1355,60.21092],[25.13503,60.21196]],[[25.13531,60.2276],[25.13558,60.22741]],[[25.13558,60.22741],[25.13545,60.22756],[25.13531,60.2276]],[[25.1355,60.21092],[25.1356,60.21068]],[[25.1356,60.21068],[25.13559,60.21083],[25.1355,60.21092]],[[25.13558,60.22741],[25.13728,60.22539]],[[25.13571,60.2104],[25.1356,60.21068]],[[25.13571,60.2104],[25.13586,60.20958],[25.13679,60.20963]],[[25.13679,60.20963],[25.13571,60.2104]],[[25.13652,60.22403],[25.13791,60.22493],[25.13728,60.22539]],[[25.13728,60.22539],[25.13652,60.22403]],[[25.1371,60.20264],[25.13658,60.20257]],[[25.13658,60.20257],[25.13686,60.20258],[25.1371,60.20264]],[[25.13791,60.20966],[25.13758,60.20963],[25.13745,60.20963],[25.13679,60.20963]],[[25.1371,60.20264],[25.13951,60.20294]],[[25.14016,60.20961],[25.13887,60.20978],[25.13791,60.20966]],[[25.13791,60.20966],[25.14016,60.20961]],[[25.13951,60.20294],[25.1402,60.20301]],[[25.1402,60.20301],[25.13977,60.203],[25.13951,60.20294]],[[25.14016,60.20961],[25.14105,60.20961],[25.14267,60.20961],[25.14269,60.20853],[25.14502,60.20655]],[[25.1402,60.20301],[25.14189,60.20309]],[[25.14242,60.20317],[25.14189,60.20309]],[[25.14189,60.20309],[25.14217,60.2031],[25.14242,60.20317]],[[25.14242,60.20317],[25.14405,60.2036]],[[25.14405,60.2036],[25.14472,60.20375]],[[25.14472,60.20375],[25.14436,60.2037],[25.14405,60.2036]],[[25.14472,60.20375],[25.14562,60.20386]],[[25.14518,60.20632],[25.14497,60.20633]],[[25.14502,60.20655],[25.14497,60.20633]],[[25.14497,60.20633],[25.14499,60.20614]],[[25.14499,60.20614],[25.14512,60.20596]],[[25.14499,60.20614],[25.1451,60.20614],[25.1452,60.20616]],[[25.14518,60.20632],[25.14502,60.20655]],[[25.14512,60.20596],[25.1452,60.20616]],[[25.14512,60.20596],[25.14602,60.20421]],[[25.1452,60.20616],[25.14518,60.20632]],[[25.14602,60.20421],[25.14562,60.20386]],[[25.14562,60.20386],[25.14616,60.20389],[25.14602,60.20421]]]},"bbox":[24.6313807,60.1477525,25.1461552,60.3172565]}],"bbox":[24.6313807,60.1477525,25.1461552,60.3172565]}